LIVT 011155Z 05004KT CAVOK 28/20 Q1014 RMK SKC QUK 0 QUL 0 VIS MAR 20 KM VIS MIN 9999
PHTO 011221Z AUTO 24005KT 10SM OVC033 21/17 A3005 RMK AO2 T02110167 TSNO $
SBUR 011200Z 08005KT 8000 NSC 22/11 Q1021
KOPN 011215Z AUTO 24005KT 10SM OVC080 25/21 A3021 RMK AO2
SLSR 272000Z 32008KT 7000 NSC 30/18 Q1014
SCSN 011200Z VRB01KT 5000 HZ OVC018 09/09 Q1018
KD95 011215Z AUTO 21006KT 10SM CLR 23/15 A2987 RMK AO2 T02280149
LTCJ 011220Z 26008KT CAVOK 40/09 Q1002 NOSIG RMK RWY20 21009KT 180V240 SKC
MRLB 011200Z 15004KT CAVOK 24/22 A2983
PTPN 010250Z 08006KT 15SM SCT018 BKN130 OVC300 31/25 A2977 RMK LAST
MMMY 011140Z 00000KT 15SM FEW025 23/19 A3004 RMK SLP/// 5//// 9// 8/500
UUOO 011200Z 07005MPS 050V120 CAVOK 26/08 Q1014 R12/010070 NOSIG RMK QFE747
KSAZ 011215Z AUTO 31008KT 10SM SCT009 16/14 A2992 RMK AO2
RING CONNECT 115200 SATMTRNOG ALL TTAA00 KNOG 291020 COR SPECI
CYBG 011200Z 08005KT 25SM FEW085 SCT100 21/17 A2986 RMK AC2AC2 SLP112
KSLG 011156Z AUTO 18006KT 10SM CLR 24/22 A3007 RMK AO2 SLP168 70044 T02390217 10239 20222 53008
DAOR 011200Z 20009KT 8000 SCT040 40/// Q1019
KCDN 011215Z AUTO 20004KT 9SM FEW110 24/21 A3014 RMK AO2
URML 011200Z 14006MPS 9999 NSC 30/19 Q1007 R14/01//70 NOSIG RMK QFE755/1007
LIRG 011155Z 27006KT 9999 FEW030 35/16 Q1015 RMK FEW MON NE LIB NC VIS MIN 9999 BLU
LFOB 011230Z AUTO 27005KT 210V340 9999 FEW031 SCT120 BKN160 24/16 Q1019 NOSIG
LICC 011220Z 08013KT 9999 FEW050 31/22 Q1011
GMMN 011230Z 01012KT 350V060 CAVOK 37/15 Q1014 NOSIG
YBMA 011230Z AUTO 17007KT 9999 // NCD 20/04 Q1017
KRAL 011153Z AUTO 00000KT 10SM CLR 23/14 A3000 RMK AO2 SLP143 60003 70003 T02280144 10256 20217 56009
OIBS 011200Z 12006KT 4000 HZ NSC 37/29 Q0998
URMM 011200Z 12009G14MPS 9999 NSC 35/07 Q1006 R12/090070 NOSIG RMK QFE727/0969
KLGB 011153Z AUTO 31005KT 10SM CLR 22/18 A2998 RMK AO2 SLP151 T02220183 10233 20222 57012 $
OEPS 011156Z 00000KT 9999 BKN150 36/17 A2968 RMK AO2A SLP019 WND DATA ESTMD 70022 T03630171 10364 20282 57014
CXPA 011200Z AUTO 06002KT 12/12 RMK AO1 T01210121
HECP 011200Z 31012KT CAVOK 37/11 Q1005
ESTA 011220Z 29012KT 9999 FEW034 18/13 Q1013
PAKP 011156Z AUTO 06006KT 1/4SM FG OVC002 07/06 A2990 RMK AO2 RAB37E47 SLP154 P0000 60003 70012 T00670061 10083 20067 58008
MHPR 011200Z 33012KT 9999 BKN044 23/21 Q1018 A3007 NOSIG
KMQW 011215Z AUTO 20003KT 10SM CLR 25/22 A3019 RMK AO2 T02460224
UTAV 011200Z 34014KT 8000 FEW050CB BKN100 35/07 Q1003 R31/CLRD70 NOSIG
KQFT 011230Z AUTO 03002KT 1200 BR OVC065 28/25 A2969 RMK A02 TSNO
KGZN 011200Z AUTO 18009G14KT 10SM CLR 25/16 A3007 RMK AO2
CYWJ 312200Z 09014G20KT 40SM BKN063 19/07 A2992 RMK SC5 LAST STFD OBS/NXT 011300 UTC SLP143 DENSITY ALT 1300FT
KSAF 011153Z AUTO 01010KT 10SM CLR 16/15 A3032 RMK AO2 SLP162 70012 T01560150 10178 20156 53002
KGYF 011215Z AUTO 17014KT 10SM CLR 29/23 A3006 RMK AO2 LTG DSNT W T02930229
CYYD 011200Z AUTO 30004KT 280V060 9SM CLR 15/11 A2988 RMK SLP116 DENSITY ALT 2200FT
KTTS 011156Z AUTO 00000KT 10SM CLR 26/25 A3017 RMK AO2 SLP221 T02610254 10261 20225 52005 $
KIXD 011153Z 16004KT 5SM BR CLR 23/22 A3000 RMK AO2 SLP145 T02330222 10261 20228 53001
KASE 011153Z AUTO 00000KT 10SM CLR 12/09 A3042 RMK AO2 SLP193 70018 T01220089 10150 20106 53002
KFMM 011215Z AUTO 10SM CLR A3011 RMK AO2 LTG DSNT S
LHBP 011230Z 30013KT 270V340 CAVOK 29/10 Q1014 NOSIG
TTCP 011200Z 08006KT 9999 FEW020 29/25 Q1013 NOSIG
GCLP 011230Z 02028KT 9999 FEW020 28/20 Q1014 NOSIG
LFSI 011230Z AUTO 28010KT 240V320 9999 FEW041 BKN052 OVC170 25/14 Q1019
CWEK 011200Z AUTO 26008KT 14/ RMK AO1 2PAST HR 5000 SLP136 P0001 T0142 50004
VERU 311230Z 00000KT 3000 BR FEW010 SCT020 FEW025CB OVC090 27/27 Q1000 NOSIG
EGXZ 011050Z AUTO 30005KT 9999 BKN040/// 20/10 Q1018
KFKA 011215Z AUTO 32007KT 7SM OVC015 19/17 A2989 RMK AO2 T01850169
ENSS 011220Z 15006KT 6000 BCFG NSC 12/11 Q1012 RMK WIND 0500FT 20010KT
SBUY 011200Z 00000KT CAVOK 23/22 Q1012
DAAV 011200Z 32008KT 290V360 9999 FEW020 30/22 Q1015
LICB 011220Z AUTO 25012KT 210V280 9999 NCD 32/20 Q1013
PANA 011156Z AUTO 08006KT 8SM -RA BKN004 BKN008 OVC029 12/12 A2971 RMK AO2 SLP060 P0003 60027 70028 T01170117 10128 20111 56018 TSNO
KGLD 011153Z AUTO 23008KT 8SM CLR 21/18 A3007 RMK AO2 SLP132 T02060183 10222 20200 55005
KMAW 230355Z AUTO 20004KT 10SM CLR 27/22 A3003 RMK AO2
CWPF 011230Z AUTO 22001KT 15/12 RMK AO1 SLP122 T01510115 52007
LLHA 011150Z 26009KT 220V300 9999 FEW032 31/22 Q1003
LIBP 011220Z AUTO 04007KT 9999 NCD 31/13 Q1015
HSSK 011230Z 22013KT 9999 SCT050 36/16 Q1009 NOSIG
RJTF 010800Z 17007KT 9999 FEW035 BKN/// 34/25 Q1011
CXMI 011200Z AUTO 25002KT 18/14 RMK AO1 SLP170 T01750135
VOJV 010900Z 29006KT 7000 SCT015 SCT022 FEW025TCU 30/23 Q1007
KFUL 011153Z AUTO 00000KT 10SM FEW120 22/17 A2997 RMK AO2 SLP148 T02170172 10233 20217 57011
CPIN 011200Z AUTO 30009KT ////SM NCD 06/05 A3000
KIOW 011152Z AUTO 27005KT 10SM CLR 21/19 A2990 RMK AO2 SLP121 60003 70003 T02110189 10256 20189 53015
YNAR 011230Z AUTO 00000KT 9999 // NCD 03/02 Q1020
CWNC 011200Z AUTO 00000KT 21/19 RMK AO1 SLP134 T02060189 58003
RJOO 011200Z AUTO 27003KT 210V320 9999 NCD 30/22 Q1013 RMK A2994
KU16 280858Z AUTO 13011KT 10SM CLR 26/M01 A3011 RMK AO2 SLP814 T02611011 58005 $
PADG 311956Z 13006KT 15SM FEW100 14/08 A2994
SBPK 011200Z 27004KT 2500 BR OVC004 12/12 Q1018
TRPG 011200Z 08015KT 9999 -SHRA BKN014 27/24 Q1018
WARR 011200Z 10007KT 9999 FEW020 28/25 Q1008 NOSIG
KSGS 011215Z AUTO 30007KT 10SM OVC031 20/15 A2987 RMK AO2 T01950152
KIKT 270415Z AUTO CLR 29/22 RMK A01
NZAP 011200Z 33003KT 20KM FEW020 05/04 Q1027 RMK AUTO VATSIM USE ONLY
KZPH 011215Z AUTO 12003KT 10SM CLR 26/24 A3019 RMK A02 T02550244
KLHZ 011215Z AUTO 22005KT 10SM CLR 23/22 A3008 RMK AO2
YMND 011230Z AUTO 27004KT 9999 // ////// 09/08 Q1018
SBGR 011200Z 05006KT 1000 R09R/P2000 R09L/P2000 R27R/P2000 R27L/P2000 BR OVC003 12/12 Q1021
CYVC 011200Z 00000KT 15SM BKN092 10/09 A2993 RMK AC5 SLP145
KPWC 011215Z AUTO 32008KT 10SM 16/13 A2994 RMK AO2
EVGA 011220Z 19005KT 9999 -RA OVC008 20/19 Q1007 NOSIG
YNGU 011230Z AUTO 10003KT //// // ////// 23/14 Q1013
PAIN 011156Z AUTO 00000KT 10SM OVC055 10/09 A2990 RMK AO2 SLP139 70026 T01000094 10133 20094 58013
YFLI 011230Z AUTO 30025KT 9999 // SCT043 BKN057 12/09 Q1007
KL35 011215Z AUTO 00000KT 7SM CLR 13/12 A3036 RMK AO2
UASP 011200Z 35004MPS 320V030 9999 -SHRA BKN042CB 20/16 Q1004 NOSIG RMK QFE742/0990
KCQF 011215Z AUTO 00000KT 10SM CLR 26/25 A3015 RMK AO2
UCFL 011200Z 22006MPS 9999 BKN030CB BKN099 18/11 Q1014 R07/CLRD95
EDXW 011220Z 32016KT 9999 SCT029 18/09 Q1018
LOWW 011220Z 03006KT 340V060 9999 FEW050CB 28/14 Q1014 TEMPO SHRA
FOOR 011200Z /////KT 9999 BKN005 26/20 Q/////
YCAS 011230Z AUTO 33005KT //// // ////// 14/12 Q1019
PASK 011156Z AUTO 00000KT 10SM CLR 09/09 A2987 RMK AO2 SLP113 T00940089 10150 20094 58007
KAGO 011215Z AUTO 18004KT 9SM FEW120 24/23 A3009 RMK A01
CYCK 011200Z AUTO 23008KT 9SM CLR 22/20 A2991 RMK SLP127 DENSITY ALT 1700FT
CXSH 011200Z AUTO 20006KT 19/17 RMK AO1 SLP131 T01920168 57006
SKPC 011200Z 04005KT 9999 FEW015 25/24 Q1011 RMK A2988
KDFI 011153Z AUTO 19008KT 10SM OVC009 21/19 A2991 RMK AO2 SLP122 T02110189 10211 20183 58010
SPQU 011200Z 05003KT 020V160 CAVOK 09/M10 Q1026 NOSIG RMK TN6.1 PP000
KCEZ 011153Z AUTO 08006KT 8SM -RA OVC090 16/16 A3033 RMK AO2 RAB13 SLP198 P0004 60004 70004 T01610156 10183 20156 51012
RJTL 302345Z VRB02KT 9999 FEW030 BKN170 32/25 Q1013 RMK 1CU030 5AC170 A2993
OINK 011100Z 26004KT 9999 SCT035TCU 35/19 Q1003 A2964
PAOR 011153Z 00000KT 10SM FEW090 09/08 A2993 RMK AO2 SLP134 T00890083 10150 20083 58002 $
KUKI 011156Z AUTO 16004KT 10SM CLR 18/13 A2999 RMK AO2 SLP146 T01780128 10239 20178 51007
CYYF 011200Z 03005KT 320V050 15SM FEW080 FEW120 21/05 A2984 RMK FU2AC1 AC TR SLP096 DENSITY ALT 2300FT
KSVH 011215Z AUTO 00000KT 10SM SCT110 24/22 A3010 RMK AO2 T02400219
OITM 011200Z 29004KT 9999 FEW040 37/04 Q1009
RKTP 011137Z 11006KT 9999 -RA BKN030 BKN050 28/24 A2964 RMK CIG030
KRMN 011215Z AUTO 00000KT 10SM OVC010 23/21 A3007 RMK AO2 T02340208
YPXM 011230Z AUTO 13005KT 9999 // BKN013 24/21 Q1012
CZKD 011200Z AUTO 04002KT 12/10 RMK AO1 SLP111 T01150095 53009
DTMB 011200Z 03009KT 9999 SCT026 30/23 Q1013
DRRM 011200Z 26012KT 9999 SCT030TCU 28/23 Q1013
KCII 011225Z AUTO 22005KT 10SM 17/M01 A2997 RMK A01
KERI 011151Z 18007KT 10SM CLR 21/17 A2995 RMK AO2 SLP140 T02110172 10211 20189 58009
KELN 011153Z AUTO 30009KT 10SM CLR 26/08 A2988 RMK AO2 SLP095 T02560083 10283 20250 50003
LGKZ 011220Z AUTO 02006KT 300V060 //// // ////// 27/07 Q1014 RE//
KERY 011215Z AUTO 19007KT 10SM SCT007 BKN033 BKN055 19/19 A2968 RMK AO2 T01920186
KDIK 011156Z AUTO 16011KT 10SM CLR 17/13 A2989 RMK AO2 SLP103 T01670128 10167 20139 56013
MGCB 011200Z 00000KT 9999 OVC018 18/17 QFE 873.2
EBDT 011155Z AUTO 32006KT 9999 BKN041/// 24/13 Q1018 BLU
VOVZ 011200Z 28006KT 4500 TS HZ SCT014 FEW025CB SCT220 30/22 Q1001 TEMPO 3000 TSRA
KSMO 011151Z AUTO 22003KT 10SM CLR 20/18 A2999 RMK AO2 SLP153 T02000183 10211 20200 58010
KTKX 011215Z AUTO 20005KT 5SM BR CLR 24/24 A3007 RMK AO2 TSNO
KBWI 011218Z 31009KT 280V340 10SM FEW010 SCT020 BKN070 23/20 A2999 RMK AO2 T02330200
KRSP 011154Z AUTO VRB04KT OVC002 18/ A3006 RMK AO2 SLP176 60002 70109 T0178 10183 20172 51008 $
SBIL 011200Z 19005KT 9999 SCT013 FEW025TCU 26/24 Q1019
LKPR 011230Z 33012KT 9999 FEW035TCU SCT040 24/15 Q1016 NOSIG
KATS 011215Z AUTO 27004KT 10SM CLR 22/10 A3013 RMK AO2
LEPA 011200Z 23011KT 200V260 9999 FEW045 34/19 Q1016 NOSIG
KEAT 011155Z AUTO 33008KT 10SM CLR 26/07 A2983 RMK AO2 SLP088 T02610072 10311 20261 53002
SGEN 011230Z 05005KT CAVOK 16/10 Q1016
KLUG 011215Z AUTO 21005KT 10SM FEW047 SCT060 BKN120 24/23 A3013 RMK A01
ENST 011220Z 30007KT 270V340 9999 RA FEW006 SCT008 BKN018 10/08 Q1012 RMK WIND 300FT 31009KT
YNHL 011230Z AUTO 33007KT //// // ////// 09/09 Q1016
RJTO 010800Z 21015KT 9999 FEW013 BKN/// 30/26 Q1012
LIPC 011155Z 09010KT CAVOK 33/16 Q1014 RMK SKC VIS MIN 9999 WIND THR11 09011KT WIND THR29 10011KT BLU
YSRI 011230Z AUTO 00000KT 9999 // NCD 07/05 Q1018
KCGF 011145Z 21005KT 10SM CLR 21/18 A2996
YBUD 011230Z AUTO 20006KT 9999 // NCD 15/14 Q1019
SPUR 300900Z 19003KT CAVOK 15/12 Q1014 RMK BIRD HAZARD RWY 19/01 PP000
KECU 011215Z AUTO 15008KT 10SM CLR 21/19 A3018 RMK AO2
ESGG 011220Z 23011KT 200V270 9999 FEW027 18/10 Q1012
KFKN 011215Z AUTO 23005KT 10SM OVC005 24/24 A3003 RMK AO2 T02410238
EEKA 011220Z 36013KT 9999 BKN040 19/15 Q1011
YGTE 011230Z AUTO 00000KT 9999 // NCD 21/20 Q1013
KRDR 011156Z 17003KT 10SM SCT070 SCT120 12/12 A2992 RMK AO2A SLP137 T01230118 10140 20103 53001 FZRANO $
KCHK 011215Z AUTO 19009KT 10SM CLR 29/15 A2999 RMK AO2 T02890154
RJOY 011000Z 30006KT 9999 FEW035 BKN/// 32/24 Q1012
KOMK 011153Z AUTO VRB03KT 10SM CLR 16/03 A2984 RMK AO2 SLP092 T01560028 10306 20150 53005
YTST 011230Z AUTO 00000KT 9999 // NCD 20/18 Q1012
KBRL 011153Z AUTO 24005KT 7SM CLR 23/23 A2991 RMK AO2 SLP121 60045 70045 T02330228 10244 20217 51012
NGTA 011200Z 10010KT 9999 FEW020 27/24 Q1010
KVIH 010345Z 200010KT 10SM CLR 25/23 A3003
LSMM 011220Z AUTO 24008KT 210V280 9999NDV NCD 27/13 Q1018 RMK
KLUF 011158Z AUTO 23003KT 10SM BKN180 30/20 A2997 RMK AO2 SLP134 T02980203 10306 20289 53004 $
KILM 011153Z 23013KT 10SM CLR 28/23 A3011 RMK AO2 SLP195 T02830233 10283 20267 50005
KHQZ 011150Z 14007KT 10SM CLR 25/19 A3007
LTCB 011150Z 04004KT 350V070 9999 SCT035 27/21 Q1008
KCPC 011215Z AUTO 25005KT 10SM CLR 27/23 A3014 RMK AO2 T02720230
CYHK 011200Z AUTO 36019G25KT 8SM -RA BKN014 OVC020 05/04 A2942 RMK SLP966
KAPG 011158Z 00000KT 5SM BR SCT005 OVC011 21/21 A3000 RMK AO2A SLP162 60000 70019 53006 $
KMRF 011156Z AUTO 34006KT 10SM CLR 16/09 A3026 RMK AO2 SLP177 T01560094 10239 20150 51004
KDBN 010920Z AUTO 00000KT 10SM CLR 22/20 A3016 RMK AO2
LDZD 011230Z 31016KT 280V010 9999 FEW045 32/11 Q1014 NOSIG
DAAD 011200Z 33013KT 8000 NSC 39/09 Q1015
EDHL 011220Z 29010KT 250V330 9999 FEW036 22/12 Q1016
KESF 011208Z AUTO 00000KT 6SM BR SCT007 23/23 A3011 RMK AO2 T02280228
LBPD 011230Z AUTO 30014KT 9999 NCD 31/11 Q1010 NOSIG
RJSM 011200Z 14004KT 8000 -SHRA FEW001 SCT003 BKN006 22/20 Q1012
KLFT 011153Z 00000KT 10SM CLR 25/24 A3011 RMK AO2 SLP196 T02500239 10256 20244 53006
PALJ 010058Z 00000KT 30SM SCT030 BKN060 17/13 A2998 RMK EST PASS OPEN NOSPECI
KATT 011151Z AUTO 00000KT 10SM CLR 25/22 A3009 RMK AO2 SLP172 T02500222 10278 20250 53004
CZDB 011200Z AUTO 19001KT 18/15 RMK AO1 SLP174 T01800154 51008
OSLK 011200Z 21006KT 9999 FEW030 31/22 Q1003
KBTR 011153Z AUTO 04003KT 10SM CLR 24/23 A3012 RMK AO2 SLP197 T02390233 10250 20233 53005
CYKP 011230Z AUTO 03009KT 5SM -RA BR OVC005 11/11 A2970 RMK SLP060 DENSITY ALT 600FT
KFME 011219Z AUTO 33003KT 10SM BKN013 20/20 A3003 RMK AO1
SBSC 011200Z 01012KT CAVOK 22/16 Q1019
SBMA 011200Z 35004KT 9999 FEW020 SCT080 28/24 Q1014
CWLI 011200Z AUTO 16008KT ////SM BKN065 OVC210 10/06 A2996
KUBE 011155Z AUTO 30009G15KT 10SM SCT018 OVC026 18/15 A2984 RMK AO2
KLLQ 011153Z AUTO 00000KT 10SM FEW075 OVC110 25/23 A3011 RMK AO2 SLP194 70022 T02500228 10256 20244 53016
KLVM 011153Z AUTO VRB03KT 10SM CLR 14/04 A3007 RMK AO2 SLP129 T01440044 10217 20139 53001
ETNT 011220Z 33010KT 9999 SCT025 BKN250 18/10 Q1018 BLACKBLU+
KMMH 011220Z AUTO 12007KT 10SM OVC090 15/12 A3035 RMK AO2
KBDL 011151Z 14003KT 6SM -RA BR FEW020 BKN045 OVC055 20/18 A3003 RMK AO2 SLP167 P0003 60071 70071 T02000183 10239 20200 56004
KCMD 011215Z AUTO 00000KT 3SM -RA BR FEW090 23/23 A3021 RMK AO2
DRZR 011200Z 24010KT 220V290 9999 BKN030 32/22 Q1014
KMZZ 011215Z AUTO 19008KT 7SM OVC009 22/21 A2995 RMK AO2 T02150212
VYYY 011200Z 09002KT 7000 BKN018 FEW023CB BKN110 29/26 Q1002
YGTH 011230Z AUTO 00000KT 9999 // NCD 03/03 Q1019
SBTC 312000Z 08002KT 9999 SCT020 26/23 Q1018
MSSM 010050Z 00000KT CAVOK 30/29 Q1010 A2984
WADL 011230Z 13005KT 7000 BKN016 26/24 Q1011 NOSIG
YSHL 011230Z AUTO 27015KT 9999 // NCD 13/03 Q1017
SKMR 011200Z 00000KT 9999 FEW012 SCT100 25/25 Q1010 RMK A2985
EHGG 011225Z AUTO 36007KT 280V060 9999 NSC 19/09 Q1019 NOSIG
KMHE 011153Z AUTO 24003KT 10SM CLR 16/15 A2997 RMK AO2 SLP142 T01610150 10200 20150 55001
MUHA 011150Z 08007KT 9000 FEW025 26/26 Q1019
KMCX 011235Z AUTO 22009KT 7SM SCT009 SCT021 SCT090 22/21 A2989 RMK AO2 P0001 T02210213
K6B0 011215Z AUTO 17004KT 10SM CLR 22/17 A2999 RMK AO2 T02190173
KMLJ 011220Z AUTO 00000KT 10SM CLR 27/24 A3020 RMK AO2
KUKT 011215Z AUTO 00000KT 3SM BR BKN005 BKN008 OVC015 19/19 A3002 RMK A01 P0001
KVAF 011215Z AUTO 18012KT 10SM FEW025 29/23 A3008 RMK A01
LICZ 011155Z /////KT 9999 FEW040 SCT110 34/24 Q1010 RMK SCT VIS MIN 9999 WIND THR28 08013KT WIND THR10 08015KT A2984 BLU
KAZC 011215Z AUTO 00000KT 10SM CLR 18/17 A3027 RMK AO2
VTSM 011200Z 26005KT 180V320 9999 SCT020 28/24 Q1006 NOSIG
CWJW 011200Z AUTO 13002KT 11/09 RMK AO1 SLP110 T01100091 56004
SCRM 011200Z 02019KT 5000 -SHSN BR OVC020 M04/M07 Q0994 NOSIG
EDDR 011220Z AUTO 30008KT 260V350 9999 SCT035 OVC045 23/14 Q1019 NOSIG
FCBB 011200Z 21006KT 180V240 8000 SCT015 BKN020 23/17 Q1016 NOSIG
EPBY 011230Z VRB02KT CAVOK 24/14 Q1012
EGXS 011150Z 25007KT 9999 FEW045 22/10 Q1018 BLU
EGQS 011220Z 31011KT 9999 FEW048 17/05 Q1013 NOSIG RMK BLU BLU
LKTB 011230Z VRB05KT 9999 -SHRA VCTS FEW019 SCT041CB 24/16 Q1015 NOSIG
SKCG 011215Z 00000KT 2000 BR OVC006 19/18 Q1018 RMK A3009
KNYL 011157Z AUTO 15009KT 9SM CLR 29/23 A2993 RMK AO2 SLP131 T02890233 10306 20278 53005 $
SLTI 231700Z 00000KT 9999 NSC 34/17 Q1016
KSPW 011153Z AUTO 35004KT 10SM CLR 17/14 A2996 RMK AO2 SLP136 T01670144 10194 20144 50009
ZSAM 011200Z 31002MPS 280V340 CAVOK 31/24 Q1006 NOSIG
KGTU 011156Z 19007KT 10SM FEW017 26/22 A3010 RMK AO2 SLP184 T02560217 10289 20256 53004
KCVN 011156Z AUTO 23007KT 10SM CLR 23/11 A3017 RMK AO2 SLP161 T02280111 10256 20217 53003
KPZQ 011215Z AUTO 19007KT 10SM SCT075 BKN120 20/15 A2977 RMK AO2 T01960152
KRDM 011156Z AUTO 00000KT 10SM CLR 23/09 A3000 RMK AO2 SLP118 T02280089 10278 20206 55001
OIAW 011230Z 19006KT 9999 FEW040 45/24 Q0996
YKII 011232Z AUTO 29020G30KT 9999 -SHRA ////// 12/08 Q1008
CYZR 011200Z AUTO 19008KT 9SM SCT086 21/19 A2988 RMK SLP118 DENSITY ALT 1500FT
TIST 011153Z 08009G19KT 10SM FEW030 29/22 A3005 RMK AO2 SLP175 60000 T02890222 10289 20267 53006 $
PALU 011155Z AUTO 12005KT 10SM CLR 07/05 A2992 RMK AO2 SLP132 T00650052 10082 20058 57009
KMKJ 011215Z AUTO 25012G16KT 10SM BKN009 OVC013 20/20 A3018 RMK AO2 T02020196
EDHK 011220Z 31011KT 290V350 CAVOK 19/09 Q1016
OIMQ 011100Z 23006KT 9999 FEW040 35/08 Q1008
LFRZ 011230Z AUTO 20010KT 170V260 9999 SCT032 25/17 Q1020 NOSIG
ZBTJ 011200Z 15003MPS CAVOK 29/24 Q1004 NOSIG
UTSA 011200Z 32012KT 9999 NSC 34/06 Q1005 R07/CLRD70 NOSIG
KVDF 011235Z AUTO 16003KT 10SM CLR A3019 RMK AO2
ENRY 011220Z 33008KT 280V030 9999 SCT033 BKN200 21/13 Q1009 NOSIG
KCNC 011215Z AUTO 32007KT 10SM CLR 22/21 A2995 RMK AO2
EEPU 011220Z AUTO 07012KT 030V100 9999 OVC015/// 17/14 Q1010
SLRI 011200Z 00000KT 3000 FU NSC 23/21 Q1014
HTMH 300400Z 00000KT 0200 FG OVC002 16/16
KPDK 011153Z 20003KT 10SM BKN110 24/23 A3018 RMK AO2 SLP201 T02390228 10239 20217 51007
OIZI 011200Z 23010KT 8000 FEW040TCU SCT100 41/16 Q1001
EDFH 011220Z 28006KT 230V330 9999 SCT036 24/14 Q1019
KFRM 011230Z AUTO 29008KT 10SM BKN012 18/17 A2996 RMK AO2
KJYM 011215Z AUTO 19007KT 3SM BR OVC003 19/18 A2990 RMK AO2 T01910181
KMDT 011156Z 06004KT 6SM BR OVC006 20/18 A3000 RMK AO2 SLP158 60001 70054 T02000178 10200 20189 50003
KGFL 011153Z AUTO 00000KT 10SM CLR 20/18 A2999 RMK AO2 SLP154 T02000183 10200 20133 58003
SECA 011200Z 32001KT 9999 FEW040 SCT100 15/14 Q1019 RMK A3011
KCXY 011156Z 00000KT 6SM BR OVC006 20/18 A3001 RMK AO2 CIG 004V009 SLP161 60001 70065 T02000183 10206 20194 50002
KLNK 011154Z 00000KT 10SM CLR 23/19 A2998 RMK AO2 SLP137 T02280194 10261 20217 52004
SBFL 011200Z 31009KT CAVOK 17/13 Q1018
KOSU 011229Z 17008KT 8SM OVC010 22/19 A2999 RMK AO2 CIG 007V013 T02170194
KKY8 011215Z AUTO 21005KT 8SM BKN015 OVC028 24/24 A3005 RMK A01
K6L4 011215Z AUTO 21003KT 2 1/2SM BR BKN005 OVC010 21/21 A3010 RMK AO2 VIS 3/4V5
KPIL 011153Z AUTO 17006KT 10SM FEW035 FEW065 26/24 A3003 RMK AO2 RAB05E18B34E45 SLP168 P0000 60000 T02610244 10278 20261 51005
KCPF 280435Z AUTO 29006KT 1/2SM +RA OVC003 21/21 A3008 RMK AO2
ESKS 011220Z AUTO 32008KT 300V350 9999 FEW015/// SCT027/// OVC031/// 14/10 Q1010
ETSI 011220Z 30009KT 9999 SCT060 SCT075 28/12 Q1017 BLU+
YBCV 011230Z AUTO 00000KT 9999 // NCD 11/09 Q1019
LSME 011220Z AUTO 33004KT 260V050 9999NDV NCD 29/13 Q1018 RMK
OIYY 011200Z 33008KT 9999 FEW040TCU 37/09 Q1009
OIKQ 011200Z 23016KT 6000 NSC 37/27 Q0997 NOSIG
KFSD 011156Z 00000KT 10SM FEW150 16/14 A2996 RMK AO2 SLP138 70009 T01560144 10200 20156 50000
UHPP 011200Z 05002MPS 9999 SCT038 BKN087 12/11 Q1018 R34L/CLRD70 NOSIG RMK QFE760/1014
KSFB 011153Z 16004KT 10SM CLR 27/25 A3019 RMK AO2 SLP221 T02670250 10267 20250 53005
KNRB 011152Z 20006KT 10SM FEW250 24/24 A3019 RMK AO2 SLP223 6//// 7//// T02440244
LUKK 011230Z VRB07KT 9999 VCTS BKN049CB BKN058 OVC086 25/16 Q1009 TEMPO TS SCT040CB
KTPH 011156Z AUTO 00000KT 10SM OVC110 18/16 A3025 RMK AO2 SLP183 70109 T01830156 10189 20172 56002
TAPA 011200Z 08011KT 040V120 9999 FEW020 29/23 Q1017 NOSIG
EDLV 011220Z 36006KT 290V060 9999 FEW020 SCT046 21/16 Q1018
SPEC NO CARRIER RING CONNECT 115200 NO CARRIER RING CONNECT 115200 MIAMTRNIP ALL TTAA00 KNIP 221953 METAR
FKYS 011200Z 25007KT 190V290 9999 BKN013 28/21 Q1017 BECMG BKN016
UASK 011200Z 09003MPS 9999 BKN032CB BKN100 21/18 Q1004 NOSIG RMK QFE728/0970
KBGF 011215Z AUTO 00000KT 10SM BKN029 OVC037 23/22 A3016 RMK A01
FVJN 011200Z 11017KT 070V160 CAVOK 21/07 Q1026 NOSIG
EGPD 011220Z AUTO 17010G21KT 130V210 9999 NCD 19/10 Q1013
FAOR 011230Z 01013KT 340V040 CAVOK 18/06 Q1029 NOSIG
KM54 011210Z AUTO 20005KT 10SM BKN048 OVC080 24/23 A3010 RMK A01
CWJT 011200Z AUTO 24001KT 18/ RMK AO1 SLP126 T0177 58006
ESMQ 011220Z 17015KT CAVOK 22/11 Q1011
ESSD 011220Z AUTO 17011KT 140V200 9999 BKN022/// BKN028/// OVC084/// 18/14 Q1009
CYZG 011200Z 21017G24KT 10SM VCSH SCT012 BKN044 08/06 A2961 RMK SF4SC3 SLP042
KNJM 011157Z AUTO 24008KT 6SM HZ CLR 29/23 A3010 RMK AO2 SLP197 70064 T02890233 10294 20283 51007
KNFE 011204Z AUTO VRB03KT 10SM FEW006 FEW120 26/24 A3002 RMK AO2 T02560239
UDSG 011200Z 06015KT 9999 FEW049CB 30/10 Q1013 R02/CLRD70 NOSIG
KSLC 011154Z 19013G19KT 10SM SCT120 BKN200 28/14 A3010 RMK AO2 SLP121 T02780144 10300 20278 53007
CWCF 151700Z AUTO 27007KT 23/16 RMK AO1 SLP163 T02270163 51004
LIVD 011155Z ///02KT 9999 FEW030 24/03 Q1021 RMK FEW VIS MIN 9999
FAPP 011200Z 04016KT 9999 SCT025 17/08 Q1028 NOSIG
LOXZ 011220Z VRB05KT 9999 FEW070 SCT100 27/09 Q1017 NOSIG
YSHW 011230Z AUTO 22005KT 9999 // NCD 08/02 Q1018
LTAH 071333Z 35007KT 300V040 9999 FEW030CB SCT035 30/09 Q1012 RMK RWY13 32007KT 270V040
KGAO 280815Z AUTO 00000KT 10SM CLR 26/24 A3002 RMK AO2 T02590238
WBGB 011200Z 00000KT 9999 FEW016 28/25 Q1008
LSGC 011220Z 27008KT 210V330 CAVOK 25/09 Q1021 WS R24 RMK CAUTION HIGH DENSITY ALTITUDE
CWHI 011200Z AUTO 18011KT 15/14 RMK AO1 9PAST HR M P0004 T01500143 50009
YCHK 011230Z AUTO 32008KT 9999 // NCD 24/10 Q1012
CXLB 011200Z AUTO 22004KT 16/15 RMK AO1 SLP168 T01640149 50003
CYHE 011200Z AUTO 25002KT 9SM CLR 15/13 A2989 RMK SLP122 DENSITY ALT 300FT
KLBB 011153Z 22014KT 10SM BKN120 OVC180 27/10 A3011 RMK AO2 SLP133 VCSH SW-NW AND NE T02720100 10306 20272 53007 $
CXBA 010900Z AUTO 06004KT 15/14 RMK AO1 T01450144 50014
CYYH 011224Z 05020G//KT 10SM VCFG BKN007 BKN022 BKN042 07/06 A2940 RMK ST6SC1SC1 SC TR VIS SE 4 CIG RAG WIND ESTD SLP958
ZUTF 011200Z 30002MPS 230V040 9999 FEW033TCU 28/22 Q1003 NOSIG
CYPC 302300Z 04014KT 15SM BKN044 08/04 A3016 RMK SC7 LAST STFD OB/NEXT 011300 UTC SLP214
EFET 011220Z AUTO 19005KT 160V220 CAVOK 20/08 Q1011
K6R3 010635Z AUTO 00000KT 7SM SCT025 25/24 A3009 RMK AO2 T02530240
CXNM 011200Z AUTO 21004KT 22/18 RMK AO1 T02190181
CYYE 011200Z 34004KT 15SM FEW001 OVC016 15/14 A2979 RMK SF1SC7 SLP096 DENSITY ALT 1700FT
CFOX 011100Z AUTO ///// ////SM FEW006 FEW041 OVC060 06/05 A2951
UGTB 011200Z 17007KT 080V240 CAVOK 34/15 Q1008 NOSIG
EGEC 011220Z 15013KT CAVOK 18/09 Q1014
ZLXY 011200Z 04004MPS CAVOK 30/22 Q1003 NOSIG
CZMT 010000Z 33011G16KT 15SM OVC012 15/12 A3008 RMK SC8 LAST STFD OBS/NEXT 011300 UTC SLP186
KTQH 011215Z AUTO 00000KT 10SM SCT100 25/21 A3006 RMK AO2
LIRT 011155Z 29006KT 9999 FEW010 23/09 Q1020
VTSG 011200Z 06003KT 9999 SCT020 25/24 Q1006 NOSIG
SKNV 011200Z VRB02KT 9999 FEW015 SCT100 BKN200 23/20 Q1013 RMK/A2993
KDLL 011235Z AUTO 27005KT 10SM SCT017 SCT022 BKN027 21/19 A2981 RMK AO2 T02050188
RJSU 280420Z 14008KT 9999 SCT003 BKN005 BKN230 27/24 Q1014 RMK 3ST003 5ST005 6CI230 A2996
VTSF 011200Z 00000KT 9999 FEW018 BKN100 29/25 Q1005 NOSIG
LRBC 011200Z 34013KT 9999 VCSH FEW038CB SCT040 23/15 Q1011
CYCB 011200Z 32022KT 15SM SCT160 SCT240 06/05 A2975 RMK AC3CI1 CLD HGTS ESTD SLP078
KFCM 011223Z 32009KT 10SM BKN025 19/15 A2987 RMK AO2 T01940150
KPIB 011156Z AUTO 00000KT 8SM FEW017 23/23 A3017 RMK AO2 SLP212 T02330233 10239 20222 53010
LTBQ 011150Z 36004KT 310V050 9999 SCT030 BKN080 29/19 Q1009 NOSIG
K1A9 011215Z AUTO 00000KT 10SM CLR 23/23 A3017 RMK AO2 T02320232
CWOC 011200Z AUTO 29006KT 21/17 RMK AO1 SLP121 T02080169 50003
MHNO 011200Z 35008KT 9999 FEW030 23/19
WMSA 011200Z 08004KT 010V140 9999 FEW017CB 30/24 Q1006
KDBQ 011153Z 27008KT 9SM CLR 21/19 A2986 RMK AO2 SLP104 T02060194 10228 20194 53011
KGLS 011152Z 16010KT 10SM FEW021 SCT027 30/24 A3007 RMK AO2 SLP183 T03000244 10300 20294 53003
FVWN 290600Z 06004KT CAVOK 15/07 Q1023
LIMZ 011220Z AUTO 35005KT 310V040 9999 NCD 30/17 Q1015
KMHV 291940Z AUTO 02007KT 10SM CLR 35/06 A2997 RMK A01
SLJE 292100Z 18012KT 9999 NSC 23/11 Q1020
OIGK 011050Z 07008KT 9999 SCT035TCU 30/10 Q1017
KCQB 011215Z AUTO 15004KT 10SM CLR 24/20 A3000 RMK AO2 LTG DSNT SE T02420203
CYGV 011200Z AUTO 06007KT 9SM CLR 21/15 A2985 RMK SLP110 DENSITY ALT 900FT
KHEY 011156Z AUTO 00000KT 10SM CLR 23/23 A3015 RMK AO2 SLP209 T02300228 10240 20215 52011
LFMC 011230Z AUTO 12012KT 090V150 9999 ////// 35/14 Q1013
KODX 011153Z AUTO 00000KT 10SM CLR 18/16 A2999 RMK AO2 SLP141 T01830161 10222 20172 58001
KGXY 011156Z 33004KT 10SM CLR 14/13 A3013 RMK AO2 SLP165 7//// T01390128 10200 20139 55001 $
YKOW 011230Z AUTO 07004KT 9999 // SCT090 26/17 Q1012
OIZJ 011200Z 20006KT 8000 NSC 33/30 Q0997
KOJC 011153Z 19004KT 5SM BR CLR 23/23 A2999 RMK AO2 SLP143 T02330228 10256 20228 53002
LPMR 011200Z 30008KT 270V330 9999 FEW010 25/18 Q1015
CZFS 011200Z AUTO 12005KT 14/06 RMK AO1 SLP113 T01410062 51005
CYLU 011200Z 29007KT 15SM BKN011 BKN021 OVC030 10/08 A2980 RMK ST5SC1SC2 SLP096
LFRU 011230Z AUTO 30004KT 240V330 9999 OVC016 20/16 Q1021
LUBM 270800Z VRB02KT CAVOK 29/14 Q1010
WAQQ 011200Z 00000KT 8000 SCT015 BKN100 25/24 Q1008 NOSIG
FDST 010500Z AUTO 07007KT //// // ////// ///// Q1028
KIPT 011154Z 11004KT 10SM SCT020 OVC032 21/17 A3001 RMK AO2 SLP158 T02060167 10211 20200 50002
KTEX 011215Z AUTO 12004KT 10SM BKN048 BKN060 11/08 A3056 RMK AO2
DBBB 011200Z 24012KT 9999 SCT012 25/22 Q1014 NOSIG
FEFT 011000Z 22014KT 9999 BKN022 27/21 Q1016
KOXB 011214Z AUTO 25005KT 10SM FEW017 SCT030 BKN039 25/24 A2998 RMK AO2 T02500239
SUMU 011200Z 01005KT CAVOK 07/07 Q1020 NOSIG
CYQB 011200Z VRB02KT 25SM FEW025 FEW040 FEW100 BKN260 20/17 A2992 RMK CF1SC1AC1CI5 CF TR HAZY N-E SLP135 DENSITY ALT 900FT
KHLN 011153Z VRB03KT 10SM CLR 20/06 A3002 RMK AO2 SLP133 T02000056 10294 20183 51007
EIKN 011230Z 15011KT 120V180 1000 R26/0500D -RADZ FG OVC002 14/14 Q1012 TEMPO 0700 FG BKN001
EGVN 011220Z 19006KT CAVOK 23/10 Q1018 NOSIG RMK BLU BLU
GANR 011200Z 32008KT 9999 FEW030 32/22 Q1014
CYTQ 011200Z 28014G20KT 15SM SCT014 12/06 A2978 RMK SC4 SLP090
NZWB 011200Z 29017KT 20KM FEW250 10/03 Q1021 RMK AUTO VATSIM USE ONLY
KPGA 011153Z AUTO 16004KT 10SM CLR 24/16 A3019 RMK AO2 SLP154 T02390156 10283 20239 53004
CYGW 011200Z AUTO 11003KT 9SM CLR 10/07 A2984 RMK SLP106
KFKS 011215Z AUTO 20006KT 10SM SCT010 SCT019 OVC025 22/20 A2973 RMK AO2 T02150196
HUMA 081400Z 1400KT 9990SCT03029/10
MHLE 011200Z 09008KT 9999 SCT018 BKN070 17/15
DAUA 011200Z 07020KT CAVOK 44/// Q1010
CWWE 011200Z AUTO 22005KT 11/11 RMK AO1 SLP176 T01080108 58001
LPPR 011200Z 26006KT 220V300 CAVOK 24/19 Q1015
VIJP 011200Z 27005KT 5000 HZ SCT025 BKN090 29/26 Q1002 NOSIG
KMEV 011215Z AUTO 00000KT 10SM BKN100 18/10 A3017 RMK AO2
HLLB 181900Z 04017KT CAVOK 27/15 Q1014
UUOK 011200Z 07004MPS CAVOK 26/09 Q1014 R12/090060 NOSIG RMK QFE743/0990
KOTM 011153Z AUTO 31009KT 10SM CLR 23/19 A2992 RMK AO2 SLP126 T02280189 10261 20228 53019
KLMO 011215Z AUTO 27003KT 7SM CLR 16/11 A3017 RMK AO2 T01600112
CWNP 011200Z AUTO 04001KT 14/09 RMK AO1 SLP097 T01380089 51006
CYKA 011200Z 00000KT 40SM SCT220 22/12 A2980 RMK CI3 SLP085 DENSITY ALT 2400FT
KEED 011156Z AUTO 00000KT 10SM CLR 28/21 A2998 RMK AO2 SLP119 T02780206 10306 20272 55002 $
KHHR 011153Z AUTO 30003KT 10SM BKN110 21/18 A2999 RMK AO2 SLP153 T02110183 10222 20211 56010
CXMO 011200Z AUTO 25006KT 14/14 RMK AO1 T01420141
KEFK 011215Z AUTO 19004KT 10SM CLR 21/20 A3000 RMK AO2 T02100196
KI19 011215Z AUTO 22006KT 5SM OVC007 21/21 A3002 RMK AO2 T02100210 PWINO
SLLP 011200Z 03004KT 9999 NSC 04/M19 Q1037
KOWD 011153Z 22007KT 10SM SCT120 24/19 A3002 RMK AO2 SLP166 60005 70005 T02390194 10244 20211 58003
KSZY 090955Z AUTO 05007KT 9SM SCT011 BKN018 OVC085 24/23 A2999 RMK A01
KBFM 011153Z 15004KT 10SM FEW020 A3015
KDVK 011210Z AUTO 24005KT 10SM OVC014 22/21 A3010 RMK AO2
KMIB 011156Z AUTO 22010KT 10SM -DZ FEW065 SCT110 17/16 A2989 RMK AO2 RAE54DZB54 SLP122 P0000 60000 T01650158 10167 20128 50002 $
DTNH 011200Z 08013KT CAVOK 33/15 Q1013
KETN 011210Z AUTO 17005KT 10SM CLR 25/16 A3008 RMK AO2 T02510163
KGRI 011153Z 11008KT 10SM CLR 22/18 A2999 RMK AO2 SLP141 T02170178 10250 20211 51003
LFMD 011230Z AUTO 15008KT 110V180 CAVOK 31/14 Q1014 NOSIG
KACK 011153Z 28005KT 10SM FEW042 FEW090 SCT120 23/21 A3005 RMK AO2 RAE36 SLP174 P0002 60003 70003 T02330206 10244 20228 55004 $
YPDN 011230Z 16002KT CAVOK 25/19 Q1012
KEDC 291355Z AUTO 21010G17KT 10SM SCT013 28/23 A3004 RMK AO2
FZAA 011200Z 20008KT 6000 BKN014 23/17 Q1015 NOSIG
KLWS 011156Z AUTO 10004KT 10SM CLR 23/12 A2986 RMK AO2 SLP096 T02330122 10300 20233 51008
RJAF 010900Z 31004KT 9999 FEW040 SCT060 BKN/// 30/21 Q1015
KGVW 011215Z AUTO 15011KT 110V170 10SM CLR 28/23 A3008 RMK A01
KHEG 011215Z AUTO 17004KT 10SM CLR 29/27 A3021 RMK AO2
SCCY 011200Z 01005KT 9999 FEW040 M01/M02 Q1017
PAMM 172310Z AUTO 16005KT 10SM -RA FEW013 BKN024 OVC047 13/12 A3010 RMK AO2 RAB03 PNO $
ENKB 011220Z 29010KT 9999 FEW025 SCT045 13/07 Q1014 RMK WIND 745FT 28010KT
KIRS 011215Z AUTO 21010G15KT 3SM BR OVC005 21/20 A2987 RMK AO2 T02100195
KFOE 011153Z 17003KT 9SM CLR 23/22 A2998 RMK AO2 SLP141 T02330222 10261 20233 53003 $
VIAR 011200Z 00000KT 5000 BR FEW030 32/27 Q1000 NOSIG
LIRE 011155Z 22010KT CAVOK 30/24 Q1013 RMK SKC VIS MIN 9999 WIND THR13 23008KT WIND THR31 /////KT BLU
ENNA 011220Z 33009KT CAVOK 21/09 Q1011 RMK WIND 1800FT 08006KT
KCRQ 011153Z AUTO 00000KT 10SM OVC110 21/19 A2998 RMK AO2 SLP148 T02110189 10217 20211 56009
LFRO 011230Z AUTO 26009KT 9999 OVC018 21/15 Q1021
KI35 011215Z AUTO 26005KT 10SM SCT006 BKN018 OVC025 22/22 A3015 RMK AO2 T02160216
MGMM 011200Z 00000KT 9999 FEW012 BKN018 24/23 Q1017 A3003
EGYD 011220Z 27009KT CAVOK 22/08 Q1018 NOSIG RMK BLU BLU
ZSJN 300929Z 11005MPS 6000 FEW030TCU BKN040 30/26 Q1005 NOSIG
MMMM 011231Z 00000KT 3SM BCFG FEW020 BKN070 BKN250 13/13 A3031 RMK 8/538
RKSI 011230Z 08006KT 9999 -RA BKN045 OVC070 29/24 Q1004 NOSIG
KEWR 011217Z 04005KT 9SM -RA FEW008 BKN025 OVC035 22/19 A2999 RMK AO2 RAB14 P0000 T02170194
KGCM 011215Z AUTO 18007KT 7SM BKN110 26/20 A3003 RMK AO2
DAUH 011200Z 21004KT 140V270 CAVOK 44/06 Q1011
VTPM 011100Z 26009KT 230V290 9999 SCT030 BKN100 28/23 Q1004 NOSIG
KELK 011215Z AUTO 18009KT 10SM CLR 25/16 A3007 RMK AO2 T02520160
YGDH 011230Z AUTO 00000KT //// // ////// 04/03 Q1020
CPBT 011200Z AUTO 36007KT 15/15 RMK AO1 T01540148 50004
KBYG 011153Z AUTO 27009KT 10SM CLR 24/02 A3006 RMK AO2 SLP101 T02390017 10261 20194 56007
KHDO 011151Z AUTO 14005KT 10SM CLR 24/21 A3008 RMK AO2 SLP170 T02390211 10278 20239 56001
KGEG 011153Z 15006KT 10SM SCT190 22/06 A2988 RMK AO2 SLP090 T02170061 10300 20217 58002
RJAH 011219Z 03004KT 9999 FEW030 BKN120 BKN/// 27/27 Q1013 RMK 1CU030 5AC120 A2991
OEAR 312100Z 00000KT CAVOK 35/18 Q1003
CWIJ 011200Z AUTO 30007KT 06/03 RMK AO1 SLP153 T00560034 57004
CWKG 011200Z AUTO 19002KT 18/17 RMK AO1 SLP173 T01840174 50001
MMCZ 011153Z 09004KT 8SM SCT015 27/25 A3005 RMK SLP181 5//// 907 8/500 CI RTS
KPSX 011153Z AUTO 19008KT 10SM FEW021 29/24 A3005 RMK AO2 SLP176 T02940239 10294 20289 53001
K0R4 020955Z AUTO 00000KT 10SM CLR 24/23 A2998 RMK AO2 LTG DSNT SW P0001 T02370228
CWOD 011200Z AUTO 20008KT 21/16 RMK AO1 SLP096 T02090161 58006
KMLS 011153Z AUTO 16006KT 10SM CLR 19/10 A2984 RMK AO2 SLP082 T01940100 10244 20189 56009
K9A5 242015Z AUTO 14004KT 7SM SCT050 BKN110 28/24 A3010 RMK AO2 T02750235
SAEZ 011200Z 24002KT 1500 R11/0250N MIFG BR NSC 06/05 Q1018 TEMPO 0800 FGBR
LEIB 011200Z 09010KT 060V140 9999 SCT008 31/22 Q1016 NOSIG
EGJB 011220Z 27010KT 9999 FEW010 BKN022 20/15 Q1021
LIPK 011150Z VRB03KT CAVOK 36/10 Q1013
CWPR 011200Z AUTO 36001KT 11/02 RMK AO1 SLP130 T01050015 51008
EDDV 011220Z AUTO 31006KT 260V350 9999 BKN026 BKN031 21/14 Q1017 NOSIG
KDSM 011154Z 30005KT 10SM FEW150 21/18 A2995 RMK AO2 SLP134 T02110178 10267 20206 53011
KFBG 011156Z COR AUTO 22007KT 7SM FEW080 SCT120 26/21 A3007 RMK AO2 SLP183 70006 T02620212 10274 20250 RVRNO $ COR 1203
RJCN 010900Z 10006KT 7000 FEW003 BKN007 BKN009 15/13 Q1016
LIMS 011155Z 26003KT CAVOK 33/19 Q1013 RMK SKC VIS MIN 9999 WIND THR30 07003KT BLU
MUCF 011150Z 04008KT 9000 NSC 26/24 Q1019
KTDZ 011153Z AUTO 19007KT 8SM FEW049 OVC070 22/19 A2993 RMK AO2 SLP130 T02170194 10222 20200 56016 $
LIVP 011155Z 18009KT 140V210 9999 FEW030 16/06 Q1026
KSJT 011151Z 18004KT 10SM CLR 24/14 A3009 RMK AO2 SLP162 T02440139 10300 20244 53013
KCKN 011215Z AUTO 00000KT 10SM CLR 13/13 A2993 RMK AO2
LFSD 011230Z AUTO 29010KT 220V330 CAVOK 31/12 Q1017
HTPE 300400Z 14006KT 9999 FEW014 BKN070 24/21 Q1018
MNCH 312300Z 36004KT 9999 FEW025 SCT090 32/21 Q1009
BIAR 011200Z 35010KT 9999 -RA BKN053 09/04 Q1002
KMQB 011215Z AUTO 22007KT 10SM SCT027 22/20 A2994 RMK AO2 T02200200
KBKL 011153Z 18010KT 10SM CLR 23/17 A2994 RMK AO2 SLP134 T02280167 10233 20222 58013
PPIT 011130Z AUTO 07008KT 9SM BKN005 BKN010 OVC038 12/12 A2971 RMK AO2 RAE29 P0002 TSNO
SKBO 011200Z 03004KT 9999 FEW020 SCT080 12/10 Q1027 NOSIG RMK A3033
EHEH 011225Z AUTO 36008KT 330V060 9999 FEW026 OVC290 23/16 Q1018 BLU NOSIG
KSNA 011153Z AUTO 00000KT 10SM FEW120 22/18 A2998 RMK AO2 SLP151 70002 T02220178 10228 20222 56009
DTTK 011200Z VRB02KT 9999 SCT023 37/12 Q1012
LFLC 011230Z AUTO 03006KT 330V090 CAVOK 31/15 Q1018 NOSIG
YMOG 011230Z AUTO 36014KT 9000 RA SCT009 SCT017 BKN026 15/14 Q1000
KRCZ 011235Z AUTO 21007KT 10SM CLR 25/21 A3011 RMK AO2 T02530208
KBGM 011153Z 23004KT 10SM BKN016 OVC042 19/17 A3004 RMK AO2 SLP164 T01890167 10189 20167 56002
CYNM 011200Z AUTO 19007KT 9SM BKN076 BKN170 18/16 A2969 RMK SLP058 DENSITY ALT 1800FT
KZZV 011153Z AUTO 20006KT 3SM BR OVC002 19/18 A3003 RMK AO2 SLP162 70003 T01890183 10189 20172 55002
TPRG 302200Z 09016KT 9999 SCT017 28/24 Q1016
KOLF 011153Z AUTO 08008KT 10SM CLR 18/14 A2983 RMK AO2 SLP087 T01830139 10244 20183 55000
UIUU 011200Z 06001MPS 9999 NSC 28/15 Q1003 R26/60D NOSIG RMK QFE708/0944
CWEZ 011200Z AUTO 26012KT 15/13 RMK AO1 SLP117 T01450127 51006
KAVL 011154Z 32003KT 10SM BKN046 OVC120 21/20 A3019 RMK AO2 RAE1059 SLP196 P0000 60000 70019 T02110200 10217 20206 52005
CWGY 011200Z AUTO 05001KT 15/14 RMK AO1 1010 SLP134 T01490135 50009
KEVU 011215Z AUTO 00000KT 7SM CLR 23/23 A2998 RMK AO2 T02360234
ESMT 011220Z 28011KT 250V310 9999 FEW018 18/13 Q1013
EGPB 011220Z 23007KT 9999 FEW015 14/10 Q1014
KFDR 011153Z AUTO 18008KT 10SM CLR 29/14 A3000 RMK AO2 SLP135 T02890139 10322 20289 53014
CYUB 010500Z 06003KT 360V090 15SM FEW120 BKN210 14/10 A2996 RMK AC2CI4 LAST STFD OBS/NEXT 011300UTC SLP148
CYSB 011200Z 17006KT 20SM BKN073 BKN210 17/16 A2980 RMK AC6CI1 SLP091 DENSITY ALT 1900FT
KHQG 011215Z AUTO 00000KT 10SM CLR 19/18 A3004 RMK AO2 T01870177
VIDD 030500Z 34004KT 4000 HZ FEW035 SCT100 32/25 Q1000 NOSIG
LGZA 011150Z 16009KT 9999 FEW030 31/23 Q1008
YPGV 011230Z AUTO 13006KT 9999 // NCD 24/22 Q1013
SLYA 011200Z 00000KT 9999 NSC 12/09 Q1015
RJTC 010406Z 22007G17KT 140V250 9999 FEW030 SCT050 BKN250 35/25 Q1011 RMK 1CU030 3SC050 5CI250 A2988
LFLB 011230Z AUTO 01008KT CAVOK 34/11 Q1016 NOSIG
CWEQ 011200Z AUTO 36001KT 13/12 RMK AO1 SLP131 T01290115 51010
LIQN 011150Z VRB04KT CAVOK 33/06 Q1016
KGYI 011150Z 19012KT 10SM SKC 29/16 A3008
KTCS 011153Z AUTO 32008KT 10SM FEW100 22/12 A3020 RMK AO2 SLP130 T02220122 10250 20222 53004
KMCJ 011235Z AUTO 16008KT 10SM CLR 27/23 A3007 RMK A01
LTFB 011150Z 01010G26KT 290V050 CAVOK 37/13 Q1004
KPEO 011153Z AUTO 20012KT 10SM FEW050 19/16 A3000 RMK AO2 SLP153 T01940161 10194 20178 58005
KCCO 011215Z AUTO 00000KT 10SM CLR 23/22 A3020 RMK AO2 T02290215
DAUB 011200Z 14004KT 8000 NSC 41/13 Q1011
KBML 011152Z AUTO 00000KT 10SM BKN049 18/15 A3002 RMK AO2 SLP162 T01780150 10178 20139 58004
VABV 011200Z 20005KT 6000 FEW020 SCT025 BKN080 31/27 Q1002 NOSIG
OOKB 011150Z 17008KT 100V230 CAVOK 41/17 Q0998 NOSIG
UTNN 011200Z 29008KT CAVOK 33/12 Q1007 R33/CLRD60 NOSIG
KHSB 011215Z AUTO 00000KT 10SM OVC011 24/22 A3005 RMK AO2 T02400216
KRCV 011215Z AUTO 27010KT 10SM CLR 12/08 A3046 RMK AO2 T01200080
VQPR 011100Z 35009KT 7000 SCT020 BKN060 22/17 Q1014
KMKE 011152Z 25009KT 10SM SCT016 BKN035 24/21 A2975 RMK AO2 SLP070 T02440206 10244 20228 55006
KGTR 011156Z 00000KT 10SM OVC110 24/23 A3016 RMK AO2 SLP217 6//// 7//// T02390233 10239 20228 53013 PNO $
EGPN 011220Z 25015KT 9999 FEW015 18/10 Q1014
K1KN 290956Z AUTO 20009KT 10SM M 12/11 A3008 RMK AO2 SLP187 T01160113 $
KDYL 011230Z AUTO 03004KT 6SM BR BKN004 BKN009 OVC018 19/18 A3000 RMK AO2 RAE26 P0001 T01940178
SCIE 011200Z 13003KT 6000 BKN029 05/05 Q1019
MMZC 011141Z 03003KT 10SM BKN200 13/11 A3035 RMK 8/001
K0A9 011215Z AUTO 26005G10KT 9SM OVC016 23/21 A3015 RMK A01
VIKO 040300Z 23001KT 3000 BR SCT030 BKN100 29/26 Q1001 NOSIG
KGUP 011153Z AUTO 20004KT 10SM CLR 17/15 A3035 RMK AO2 SLP101 60001 70001 T01720150 10206 20172 55001
CYWE 011200Z AUTO 06006KT 9SM OVC071 11/08 A2994 RMK SLP155
ENSL 011220Z AUTO 16010G22KT 130V200 9999NDV -SHRA OVC046/// 14/10 Q1019 W13/S3
KBLV 011156Z AUTO 19003KT 10SM CLR 23/23 A3000 RMK AO2 SLP158 T02320225 10233 20226 53010 TSNO $
CYWH 010400Z 16003KT 120V240 15SM SKC 18/13 A2985 RMK /LAST OBS/NEXT 011300 UTC SLP110 DENSITY ALT 400FT
ZSSS 011200Z 16004G09MPS 120V200 6000 TSRA FEW026CB 27/26 Q1006 BECMG TL1330 NSW
LFMY 011230Z AUTO 33005KT 270V030 CAVOK 36/12 Q1013
KSNL 011215Z AUTO 20010KT 10SM BKN120 27/16 A3001 RMK AO2 LTG DSNT E T02650155
KNXF 251056Z AUTO 10SM 20/18 A2990 RMK AO2 SLP209 T02000183 $
KADF 061356Z AUTO 25003KT 10SM CLR 29/24 A3001 RMK AO2 SLP160 T02940244
CYKL 011200Z AUTO 36003KT 300V010 9SM CLR 11/07 A2988 RMK SLP133
KBYH 072059Z 22008G15KT 10SM BKN060 37/22 A2991 RMK LAST
SEGU 011200Z 22009KT 9999 FEW013 BKN023 22/19 Q1012 NOSIG RMK A2988
KNYC 011207Z VRB04KT 5SM BR SCT009 OVC038 20/19 A3003 RMK AO2 T02000194 $
HEBL 281400Z 09004KT CAVOK 41/09 Q1004 NOSIG
KRID 011235Z AUTO 24005KT 4SM BR BKN003 OVC013 20/20 A3001 RMK AO2
OICS 011200Z 24006KT 9999 SCT040 39/M03 Q1009 A2982
LRTC 011200Z 32013KT 300V360 9999 SCT038 SCT040CB 28/17 Q1008
K04W 011215Z AUTO 29004KT 10SM OVC027 18/16 A2985 RMK AO2
MMCL 011156Z 00000KT 10SM SKC 26/25 A2992 RMK SLP129 5//// 966 DSNT LTGIC SW RTS
KFRG 011153Z AUTO 00000KT 10SM -RA FEW032 FEW039 OVC055 21/19 A3000 RMK AO2 RAB29 SLP158 P0000 60023 70023 T02060189 10250 20200 56012
K0V4 262035Z AUTO 26008G25KT 210V300 4SM SCT008 BKN034 OVC042 24/23 A3006 RMK AO1 P0014 T02430226
LTCP 011150Z 20005KT 120V270 CAVOK 38/09 Q1003
BIHU 011200Z 35010KT 9999 -SHRA OVC028 07/05 Q1002
PTRO 011150Z 06003KT 12SM SCT015 BKN110 BKN290 24/23 A2980
KPVW 011215Z AUTO 23009KT 10SM SCT120 26/10 A3013 RMK AO2 LTG DSNT N T02560101
RKSU 312305Z 07003KT 8000 BR BKN035 OVC055 24/24 A2978 RMK CIG035
SCCI 011200Z 34013KT 9999 SCT040 BKN100 05/02 Q1008 NOSIG
UBBG 011200Z 07012KT 9999 SCT100 34/16 Q1007 NOSIG
KART 011156Z AUTO 20006KT 10SM CLR 22/17 A2995 RMK AO2 SLP136 T02170167 10217 20178 58006
CWFJ 011200Z AUTO 01003KT 15/15 RMK AO1 T01540150
LTAJ 011220Z VRB06KT 9999 FEW040 38/10 Q1003 NOSIG RMK RWY10 /////KT 1CU040
PAKI 011156Z AUTO 23011KT 10SM OVC005 11/ A2967 RMK AO2 SLP051 6//// 7//// T0106 10117 20106 55003 PNO $
EGLC 011220Z AUTO 08006KT 040V130 9999 BKN035 23/15 Q1019
KBXK 011215Z AUTO 22004KT 10SM 26/22 A2999 RMK A01
UNTT 011200Z 04004MPS 9999 BKN030 15/12 Q1005 R21/////// NOSIG RMK QFE739
ENRO 011220Z 32013KT 9999 SCT020 BKN028 10/04 Q1012
CYKD 311900Z VRB02KT 15SM FEW020 FEW160 SCT190 SCT240 15/11 A2997 RMK CU1AC1AC1CI1 CU TR VIRGA/LAST STFD OBS/NXT 021300Z SLP151
EGXT 011150Z 24006KT 9999 BKN039 22/10 Q1018 BLU
KCXW 011215Z AUTO 19006KT 10SM CLR 25/23 A3006 RMK A01
FVFA 011200Z 09014G24KT CAVOK 28/03 Q1020 NOSIG
KSXS 011156Z AUTO 00000KT 10SM M 24/23 A3017 RMK AO2 SLP215 T02370233 10247 20224 52011 $
HTZA 011000Z 17012KT 9999 FEW020 BKN080 28/21 Q1018 NOSIG
KIUA 011235Z AUTO 00000KT 10SM CLR 23/16 A2997 RMK AO2 T02270163
ENSO 011050Z 32010KT 9999 SCT035TCU 15/08 Q1016
OEDF 011200Z 08012KT 9999 FEW040 SCT100 39/24 Q0997 NOSIG
HCMF 011200Z 34008KT 9999 FEW035 33/27 Q1002
CXHP 010900Z AUTO 10004KT 13/13 RMK AO1 T01340130
KRRT 011215Z AUTO 27005KT 10SM CLR 13/11 A2991 RMK AO2
KUDG 011156Z AUTO 22008KT 10SM 24/23 A3013 RMK AO2 SLP200 T02440233 10244 20222 51007 $
USCC 011200Z 03003MPS 9999 BKN023CB 22/15 Q1011 R27/000060 TEMPO 1500 TSRA RMK QFE739
KPBI 011153Z 13007KT 10SM SCT025 SCT250 29/25 A3017 RMK AO2 SLP216 T02890250 10289 20278 53004
KONM 011215Z AUTO 00000KT 10SM CLR 19/14 A3023 RMK AO2 T01870140
KUKL 011215Z AUTO 13003KT 7SM CLR 22/22 A3000 RMK AO2 T02210215
PAHO 011153Z AUTO 00000KT 10SM -RA OVC065 12/10 A2988 RMK AO2 RAB43 SLP119 P0000 60000 T01220100 10156 20111 58021 TSNO
EPLB 011230Z 33006KT 300V360 9999 FEW042 24/12 Q1013
VABO 011200Z 24008KT 6000 SCT020 34/23 Q1002 NOSIG
YBWX 011230Z AUTO 35010KT //// // ////// 24/20 Q1010
KRPH 011215Z AUTO VRB04KT 10SM CLR 27/17 A3004 RMK AO2 SLP769 T02730173 $
RJTT 011200Z 18011KT 9999 FEW030 BKN/// 29/25 Q1012 NOSIG RMK 1CU030 A2990
UGSB 011200Z 24006KT 9999 FEW023 BKN063 27/23 Q1007 NOSIG
KMCK 011153Z AUTO 24005KT 10SM CLR 18/16 A3001 RMK AO2 SLP133 T01780161 10239 20178 55003 $
KADG 011200Z AUTO 22010KT 10SM BKN008 BKN013 OVC047 21/18 A2990 RMK AO2 CIG 008V011 T02060183
EBLB 011155Z AUTO 32005KT 9000 DZ BKN007/// 17/16 Q1020 GRN
CYCQ 010100Z 01003KT 310V110 15SM BKN030CB OVC100 21/17 A2984 RMK CB7AC1 FU VLY W CB ALQDS MOV E LAST STFD OBS/NXT 011300Z SLP111 DENSITY ALT 3300FT
ENLK 011220Z 01015KT 9999 FEW010 SCT015 BKN065 14/12 Q1007
KALO 011154Z 28009KT 10SM CLR 20/17 A2989 RMK AO2 SLP117 T02000172 10239 20194 53016
CWIK 011200Z AUTO 27002KT 17/16 RMK AO1 0001 SLP125 T01740160 50002
KCBK 011215Z AUTO 25005KT 4SM BR CLR 18/18 A3007 RMK AO2 T01820176
LFLU 011230Z AUTO 35011KT 320V020 CAVOK 34/09 Q1015
KSGF 011152Z 16006KT 8SM CLR 22/22 A3005 RMK AO2 SLP161 70001 T02220217 10228 20222 53006
SPME 010400Z 26004KT 9999 SCT012 SCT020 22/19 Q1014 RMK BIRD HAZARD RWY 32/14 PP000
HCMM 011200Z 20016KT 9999 SCT022 29/22 Q1012
KHKA 011153Z AUTO 18003KT 10SM BKN090 24/22 A3008 RMK AO2 SLP183 70002 T02390222 10239 20233 53007
KOEL 011215Z AUTO 28004KT 5SM BR CLR 18/17 A3005 RMK AO1 T01820168
KAAT 011155Z AUTO 12003KT 10SM CLR 16/09 A3014 RMK AO2 SLP155 T01560089 10239 20150 57000
KGPH 011235Z AUTO 00000KT 10SM CLR 25/22 A2998 RMK AO2
KITH 011156Z 17005KT 10SM SCT055 20/18 A3002 RMK AO2 SLP160 T02000178 10200 20144 58005 $
K0R0 011215Z AUTO 00000KT 6SM BR CLR 23/23 A3018 RMK AO2
YCNK 011230Z AUTO 00000KT //// // ////// 05/05 Q1018
LGKR 011220Z 22008KT 9999 SCT030 34/19 Q1008 NOSIG
KCKF 011215Z AUTO 00000KT 10SM CLR 25/22 A3020 RMK AO2 T02540216
GMMZ 011200Z VRB02KT 8000 FEW040 38/M03 Q1020 NOSIG
KLNQ 011215Z AUTO 00000KT 10SM SCT023 SCT031 29/26 A3014 RMK AO2 T02920255
CXLL 011200Z AUTO 20001KT 15/14 RMK AO1 SLP100 T01460142 58001
KDOV 011224Z AUTO 31004KT 10SM OVC010 23/23 A2997 RMK AO2 CIG 009V011 CIG 008 RWY01 CIG 008 RWY32 SLP152 $
KRTS 011215Z AUTO 30006KT 10SM CLR 19/07 A3020 RMK AO2
KCBG 011215Z AUTO 30007KT 10SM OVC027 20/13 A2987 RMK AO2
OIAM 011200Z 21008KT CAVOK 39/24 Q0998
KICR 011153Z AUTO 15005KT 10SM CLR 17/15 A2998 RMK AO2 SLP137 60001 70001 T01720150 10217 20167 55002
KJAC 011156Z AUTO 02003KT 10SM CLR 10/03 A3029 RMK AO2 SLP188 T01000028 10156 20089 53003
KPOY 011215Z AUTO 00000KT 10SM CLR 21/M02 A3009 RMK AO2
PGWT 010854Z 05005KT 7SM SCT016 SCT040 BKN120 27/25 A2984 RMK LAST
GMMW 011200Z 02007KT 340V070 7000 NSC 31/20 Q1016 NOSIG
KODO 011153Z AUTO 18012KT 10SM CLR 26/14 A3012 RMK AO2 SLP142 T02560139 10294 20256 53004
KELD 011153Z AUTO 19003KT 10SM SCT120 24/23 A3011 RMK AO2 SLP191 70003 T02390228 10250 20239 53012
KOAR 011215Z AUTO 00000KT 10SM SCT120 10/08 A3001 RMK AO2 PWINO
KSJS 011215Z AUTO 25004KT 2 1/2SM +RA SCT004 BKN010 OVC046 22/22 A3009 RMK AO2 VIS 1 1/2V5 T02210221
LIRI 011150Z 05008G20KT 360V090 CAVOK 35/10 Q1012
PASI 011228Z 00000KT 10SM FEW009 BKN018 OVC025 14/13 A3004 RMK AO2 T01390128
KTDF 011215Z AUTO 00000KT 10SM SCT090 23/23 A3009 RMK AO2
KDEQ 010453Z AUTO 06003KT 10SM CLR 27/23 A3003 RMK AO2 SLP163 T02720233 $
FMNN 011200Z 30008KT 9999 FEW020 29/// Q1015
KHAO 011232Z AUTO VRB05KT 10SM BKN014 BKN019 23/21 A3001 RMK AO2 T02330211
HKKI 011200Z 22007KT 9999 FEW025CB SCT100 26/16 Q1017
VVPB 011200Z 05002KT 9999 FEW015 SCT060 30/25 Q1005 NOSIG
PWAK 291858Z AUTO 08008KT M M M M M RMK AO2 SLPNO $
GQPA 010900Z 00000KT 7000 NSC 30/10 Q1015
NZMC 011200Z 02002KT 20KM FEW160 BKN240 04/01 Q1011 RMK AUTO NZTU VATSIM USE ONL
KO69 011215Z AUTO 29005KT 10SM OVC004 13/13 A3002 RMK A01
EHWO 011225Z AUTO VRB04KT 9999 BKN030 BKN035 BKN053 23/15 Q1019 BLU NOSIG
LGRP 011220Z 25013KT 9999 FEW018 33/22 Q1002 NOSIG
KAKQ 011154Z AUTO 23006KT 10SM FEW005 24/23 A3002 RMK AO2 SLP167 70032 T02440228 10244 20228 53004
GUCY 011100Z 33008KT 9999 BKN013 BKN100 26/24 Q1015 NOSIG
FTTA 011200Z 22004KT 9999 SCT020 SCT040 FEW050CB 30/23 Q1012
OMDW 011200Z 31010KT 280V010 8000 NSC 42/20 Q0999 NOSIG
LYNI 011230Z 33014G26KT 9999 FEW050 29/08 Q1013 NOSIG
EKRN 011220Z AUTO 25004KT 9999 FEW009/// OVC047/// 20/17 Q1013
WBGR 011200Z 09004KT 9999 SCT016 28/25 Q1008
SKIP 011200Z 00000KT 9999 SCT018 SCT070 08/07 Q1029 RMK A3041
KOJA 011215Z AUTO 20013KT 10SM CLR 28/15 A3001 RMK AO2 T02810149
KAIZ 011156Z AUTO 19003KT 10SM CLR 22/22 A3004 RMK AO2 SLP164 T02220217 10256 20217 53008 TSNO
PAVD 010956Z AUTO 10003KT OVC047 12/12 A3006 RMK AO2 SLP177 T01170117 PWINO TSNO $
EDFM 011220Z 25005KT 180V330 CAVOK 27/14 Q1016
KVRB 011153Z 00000KT 10SM FEW010 27/26 A3019 RMK AO2 SLP222 T02670261 10278 20233 52006
KJYG 011217Z AUTO 29005KT 10SM SCT013 17/16 A2993 RMK AO2 TSNO
CWBT 011200Z AUTO 14001KT 15/14 RMK AO1 SLP112 T01450143 52004
LETO 011200Z 08005KT CAVOK 35/10 Q1017 NOSIG
KLBL 011156Z AUTO 06003KT 10SM CLR 21/19 A3004 RMK AO2 SLP135 T02060194 10244 20200 55001
LTCV 011150Z 23012KT 200V270 9999 FEW040 42/05 Q1002
LFAT 011230Z AUTO 25006KT 4100 BR OVC003/// ///TCU 19/18 Q1019 TEMPO BKN020 BECMG 9999 NSW
ESNS 011220Z 15010KT 9999 FEW200 21/15 Q1009
ESNN 011220Z AUTO 13011KT 9999 OVC086/// 18/14 Q1009
K42J 011235Z AUTO 19007KT 10SM CLR 27/27 A3019 RMK A01
SGSA 011800Z 02016KT CAVOK 29/17 Q1007
KDRA 011153Z AUTO 00000KT 10SM CLR 22/19 A3011 RMK AO2 SLP154 70001 T02220194 10244 20217 55004
LFMN 011230Z 17006KT CAVOK 30/22 Q1014 NOSIG
KHYS 011156Z AUTO 00000KT 7SM CLR 19/18 A2999 RMK AO2 SLP139 6//// 7//// T01940183 10244 20189 58003 $
KMVN 010956Z AUTO 21007KT 10SM OVC009 23/23 A3000 RMK AO2 SLP158 T02330233 TSNO
LGKV 011220Z 18009KT 9999 FEW030 31/16 Q1008
KD60 011215Z AUTO 12012KT 10SM CLR 17/17 A2990 RMK AO2
KE42 011215Z AUTO 18010KT 10SM CLR 23/17 A3004 RMK AO2 T02250166
KJVW 011215Z AUTO 00000KT 10SM CLR 24/24 A3014 RMK AO2
ZPPP 011200Z 19002MPS 9999 FEW020TCU SCT020 BKN033 21/17 Q1017 NOSIG
KORG 011215Z AUTO 00000KT 10SM CLR 28/25 A3010 RMK AO2 T02780252
KRWV 011215Z AUTO 14003KT 10SM SCT023 24/22 A3009 RMK AO2 T02380219
KCPK 011235Z AUTO 23003KT A3003 RMK AO2 PWINO
KL08 011215Z AUTO 16004KT 10SM BKN038 BKN046 BKN075 29/20 A2994 RMK AO2
LEHC 011200Z 23004KT 9999 FEW060 32/18 Q1019
NZCI 011200Z 30007KT 20KM NCD 09/03 Q1025 RMK AUTO NZNR VATSIM USE ONLY
KAQP 011233Z AUTO 01006KT 10SM SCT090 17/14 A2994 RMK AO2
CXSC 011200Z AUTO 07006KT 15/14 RMK AO1 T01480142
CWYJ 011200Z AUTO 05001KT 12/11 RMK AO1 SLP124 T01240112 50007
ENMS 011220Z VRB03KT 8000 -RA FEW004 SCT018 BKN025 12/09 Q1010 REDZ RMK WIND 412FT VRB06G17KT
CYGT 011216Z 14015G21KT 10SM FEW002 OVC021 03/03 A2947 RMK ST2SC6 SLP986
CYZV 011200Z 01005KT 30SM FEW018 SCT030 SCT120 BKN260 19/15 A2986 RMK CF1SC3AC1CI1 CF TR SLP115 DENSITY ALT 800FT
KFZY 011154Z AUTO 00000KT 10SM CLR 20/17 A2996 RMK AO2 SLP144 T02000167 10200 20144 58006
YBCS 011230Z AUTO 17009KT 9999 // BKN040 BKN086 OVC115 21/18 Q1015
LCEN 011220Z 14009KT 120V190 9999 FEW030 38/20 Q1001 NOSIG RMK RWY11 15007KT 090V180
GGOV 011200Z 23006KT 180V290 9999 BKN013 30/23 Q1013 NOSIG
KCLT 011152Z 23007KT 10SM BKN100 BKN140 BKN250 26/21 A3011 RMK SLP184 T02560211 10267 20244 51009
CXWM 011200Z AUTO 32006KT 16/15 RMK AO1 T01580153
YSHK 011230Z AUTO 28011KT //// // ////// 17/15 Q1007
KMUT 011215Z AUTO 27008KT 10SM CLR 23/23 A2990 RMK AO2
KSFY 252327Z AUTO 00000KT 10SM BKN050 24/14 A3003 RMK AO2
LRTZ 011200Z 12006KT 9999 BKN025 25/20 Q1008 BLU BL
KO22 011215Z AUTO 00000KT 10SM CLR 23/10 A3004 RMK A01
KBTL 011153Z 20011G18KT 10SM OVC007 22/19 A2986 RMK AO2 SLP104 T02170194 10217 20200 55019
SBVT 011200Z 30003KT 9999 FEW030 BKN070 24/18 Q1021
VMMC 011200Z 19010KT CAVOK 31/26 Q1005 NOSIG
CXSE 011200Z AUTO 29008KT 02/M00 RMK AO1 SLP139 T00241004 53003
CYBC 011200Z AUTO 24004KT 210V290 9SM FEW071 BKN092 17/15 A2985 RMK RVR MISG SLP109 DENSITY ALT 500FT
EFUT 011220Z 18009KT 150V230 9999 VCSH FEW048CB 23/11 Q1013
KXNX 120530Z AUTO 15003KT 9SM CLR 23/22 A2995 RMK A01
KSMP 011156Z AUTO 10SM CLR 18/09 A3007 RMK AO2 SLP139 T01830094 10194 20183 55004
KCVS 011158Z AUTO 25005KT 10SM OVC170 22/12 A3016 RMK AO2 SLP144 T02240118 10257 20224 52004 $
EHPG 011225Z AUTO 07007KT 9999 NSC 18/13 Q1020
KRUQ 011215Z AUTO 23003KT 10SM CLR 24/22 A3010 RMK AO2 T02360219
LYVR 011230Z 33009KT 280V010 CAVOK 27/11 Q1014 NOSIG
SEAM 292100Z 10005KT 9999 FEW020 21/10 Q1025
KDYT 011215Z AUTO 32012KT 10SM OVC018 18/15 A2981 RMK AO2
KRZN 011215Z AUTO 30006KT 10SM OVC027 18/16 A2985 RMK AO2 T01770156
KOKB 011152Z AUTO 00000KT 9SM CLR 22/19 A2997 RMK AO2 SLP148 T02170189 10222 20200 56012
CYCX 281912Z 21008KT 15SM FEW070 BKN090 29/16 A2983 RMK AC1AC5 DENSITY ALT 2104FT LAST OBS /NEXT 020900 UTC SLP100
DAOO 011200Z 32014KT 9999 FEW020 30/23 Q1015
KLXT 011153Z AUTO 22005KT 10SM CLR 24/23 A2999 RMK AO2 SLP145 T02390228 10267 20233 53003
OMFJ 011200Z 09007KT 070V130 7000 FEW030 35/26 Q0999 A2951
TVSA 011200Z 06013KT 020V100 9000 BKN018 29/25 Q1014 NOSIG
K1CW 011158Z AUTO 26007KT 10SM CLR 19/10 A3006 RMK AO2 SLP115 T01920102 10228 20191 55002 $
CXCP 011200Z AUTO 01009KT 15/14 RMK AO1 T01540135
RKTB 312230Z 17004KT 9999 -RA SCT004 OVC050 25/25 A2972 RMK CIG050
VARK 011200Z 23008KT 5000 HZ SCT012 BKN080 27/25 Q1004 TEMPO 3000 RA
PAPO 010956Z AUTO 00000KT 10SM FEW050 08/07 A2991 RMK AO2 RAE14 SLP127 T00780072 PNO $
KHJH 011215Z AUTO 00000KT 10SM CLR 21/20 A3000 RMK AO2 T02100199
DTKA 011200Z 34009KT 300V020 9999 FEW020 30/22 Q1014 NOSIG
YMYB 011230Z AUTO 19004KT 9999 // SCT068 OVC084 15/15 Q1020
SYEC 011200Z 03006KT 9999 FEW016CB SCT017 30/26 Q1013 NOSIG RMK CB-NNW & SSW
LTCI 011150Z 33008KT 9999 FEW040 30/11 Q1016 NOSIG
SGES 011230Z 12004KT 9999 SCT030 BKN070 18/14 Q1016
KTYL 011215Z AUTO 00000KT 10SM CLR 16/16 A3034 RMK AO2
RKSW 010943Z 12007KT 9999 FEW030 BKN070 31/25 A2968 RMK CIG070
KVTN 011202Z AUTO 16012G24KT 10SM -RA FEW041 SCT120 18/15 A2998 RMK AO2 WSHFT 1142 P0001 T01830150
KWYS 011215Z AUTO 00000KT 10SM CLR 05/04 A3027 RMK AO2
ZSNJ 011200Z 10002MPS 9999 SCT046 31/25 Q1005 NOSIG
KEWN 011154Z 23007KT 10SM CLR 26/23 A3009 RMK AO2 SLP190 70022 T02610233 10261 20250 53006 $
RCTP 011200Z 27004KT 9999 FEW020 SCT040 31/27 Q1007 NOSIG RMK A2974
OBBI 011230Z 08011KT CAVOK 36/27 Q0998 NOSIG
EBBL 011155Z 30006KT 9999 BKN042 BKN300 23/14 Q1018 BLU BLU
FKKD 011200Z 21006KT 9999 BKN016 FEW020CB 29/23 Q1013 NOSIG
OPPS 011230Z 36006KT 7000 HZ FEW040 FEW100 30/21 Q1002
YCNY 011230Z AUTO 20005KT //// // ////// 20/06 Q1014
KAFW 011153Z 19010KT 10SM SCT150 BKN250 29/19 A3004 RMK AO2 SLP152 T02890194 10328 20289 53010
EDDL 011220Z AUTO 31007KT 270V340 9999 FEW033 25/15 Q1017 NOSIG
EHSA 011225Z AUTO 05007KT 9999 ///////// 18/14 Q1019 W20/H10
SANL 100120Z 36020G31KT 5000 BLDU 30/M09 Q1000
ENSR 011220Z AUTO 35012KT 9999 NCD 17/11 Q1010 RMK WIND RWY32 33010KT WIND 1118FT 06007KT
DAAY 011200Z 26006KT 7000 NSC 37/03 Q1023
KFAT 011153Z 27005KT 10SM BKN140 BKN170 BKN200 27/17 A2996 RMK AO2 SLP140 T02670172 10317 20267 53005
KARG 011156Z AUTO 19008KT 4SM BR OVC003 23/23 A3006 RMK AO2 SLP179 70001 T02330233 10233 20228 53005
LFMT 011230Z AUTO 20011KT CAVOK 34/16 Q1014 NOSIG
UTAM 011200Z 03008KT CAVOK 36/11 Q1003 R88/CLRD70 NOSIG
KMSY 011153Z 00000KT 10SM FEW020 FEW140 SCT250 26/25 A3012 RMK AO2 SLP202 CB DSNT SE AND S T02610250 10272 20261 53007
AYPY 011200Z 14005KT 9999 SCT050 26/25 Q1009
KCAK 011151Z 20007KT 8SM FEW050 SCT100 20/18 A3000 RMK AO2 SLP151 T02000178 10200 20183 58006
CYVR 011200Z 10009KT 20SM FEW045 FEW150 FEW240 17/16 A2987 RMK SC1AC1CI1 SC TR AC TR SLP118 DENSITY ALT 300FT
GCTS 011230Z 22006KT 150V260 9999 FEW015 25/19 Q1015 NOSIG
FOOB 011200Z /////KT 9999 SCT013 BKN030 26/20 Q////
KEVV 011220Z 22010KT 9SM OVC009 24/23 A3005 RMK AO2 T02440228 $
KPVC 011156Z AUTO 26006KT 10SM CLR 22/22 A3004 RMK AO2 RAE38 SLP171 P0002 60006 70006 T02220217 10222 20211 58003
KGZL 011215Z AUTO 22008KT 10SM SCT110 27/22 A3002 RMK AO2 LTG DSNT N AND W
KAJZ 011215Z AUTO 05005KT 10SM CLR 18/10 A3027 RMK AO2 T01820099
WIBB 011200Z 13007KT 7000 BKN012 FEW017CB 30/26 Q1005
KBKV 011153Z 12004KT 10SM CLR 26/24 A3018 RMK AO2 SLP219 T02560244 10267 20233 53004
OIMD 011100Z 06010KT 9999 FEW035 36/09 Q1005
KBOS 011154Z 20008KT 10SM FEW065 BKN110 BKN150 23/19 A3002 RMK AO2 SLP165 60001 70001 T02330194 10244 20217 58002
FNSO 011100Z 25010KT 9999 SCT014 27/20 Q////
KMJQ 011215Z AUTO 28006KT 10SM OVC009 17/16 A2997 RMK AO2 PWINO
ENWV 011220Z AUTO 19001KT 9999NDV NCD 17/09 Q1018 W///S3
SCCF 011200Z AUTO 11019KT 9999 NCD 07/M13 Q1026
LEMI 011200Z 12008KT 070V170 CAVOK 32/21 Q1017
SLRB 011200Z 36015KT 9999 OVC070 28/20 Q1016
FAKN 011200Z 24002KT 9000 FEW006 BKN015 OVC020 13/11 Q1032 NOSIG
LFOH 011230Z AUTO 32008KT 280V350 9999 FEW031 21/16 Q1020 NOSIG
MPSM 010100Z 00000KT 9999 FEW020 SCT100 24/23 Q1010
KFPY 011215Z AUTO 00000KT 10SM CLR 25/20 A3020 RMK AO2 T02510200
K7W4 011215Z AUTO 20009KT 10SM OVC004 22/22 A3004 RMK AO1 T02180216
KX26 011215Z AUTO 10SM CLR 27/25 A3019 RMK AO2 T02730250
LCRA 011220Z 25011KT 9999 FEW030 32/24 Q1002 NOSIG
PAWI 011153Z AUTO 07010KT 10SM OVC003 02/01 A3002 RMK AO2 SLP165 T00170006 10039 20017 58002 TSNO $
KYKM 011153Z AUTO 28007KT 10SM CLR 21/13 A2984 RMK AO2 SLP093 T02110133 10283 20211 51002 $
SBDN 011200Z 07008KT CAVOK 22/12 Q1018
LZKZ 011230Z 08008KT 050V110 CAVOK 25/12 Q1013 NOSIG
LICR 011220Z AUTO 36013KT 9999 NCD 34/11 Q1012
SBPA 011213Z VRB02KT 0800 R11/P2000 R29/P2000 FG BKN002 OVC009 13/13 Q1018
KI43 011215Z AUTO 00000KT 10SM BKN005 OVC031 20/20 A3005 RMK AO2
GMTN 011200Z 10010KT 6000 BKN012 SCT030 29/22 Q1016 NOSIG
VEJH 011230Z 04009KT 3000 HZ BKN018 OVC090 32/26 Q1001
LIPR 011220Z 09010KT 070V130 CAVOK 31/18 Q1014
KOLV 011150Z 18005KT 10SM VCSH SCT022 BKN036 OVC090 23/23 A3011
OERF 011200Z 01008KT CAVOK 46/M02 Q1000 NOSIG
KPDC 011235Z AUTO 00000KT 10SM SCT013 21/18 A2985 RMK AO2 T02140180
K2V6 011214Z AUTO 23008KT 10SM CLR 16/02 A3009 RMK AO2 LTG DSNT NE
MMCB 011231Z 00000KT 2SM BR SCT008 BKN015 BKN250 18/18 A3022 RMK 8/802 BC FG ALL AUAD
KRST 011228Z 32011KT 10SM SCT010 18/17 A2989 RMK AO2 T01830167
LTFO 011150Z 26010KT 9999 FEW015 BKN035 28/22 Q1007
KNZY 011152Z AUTO 34006KT 10SM BKN110 22/19 A2997 RMK AO2 SLP148 T02170194 10217 20206 56008
SPTN 011200Z 22005KT 9999 OVC017 12/09 Q1016 RMK TN11.3 PP000
KTTA 011215Z AUTO 00000KT 10SM SCT110 24/24 A3007 RMK AO2 T02400240
KF00 011215Z AUTO 18011KT 10SM -RA SCT024 BKN041 BKN050 27/20 A3008 RMK AO2 T02670205
FAHS 011200Z AUTO 18010KT //// // ////// 18/13 Q1029
KADU 011215Z AUTO 00000KT 10SM SCT004 SCT027 BKN048 18/16 A2998 RMK AO2 PWINO
KATY 011153Z AUTO 33003KT 10SM CLR 14/13 A2996 RMK AO2 SLP137 T01390133 10183 20122 55003
CWJO 011200Z AUTO 08002KT 21/17 RMK AO1 SLP109 T02090166 58005
KSBD 011220Z AUTO 24003KT 10SM BKN120 23/10 A3002 RMK AO2 T02330101
KQHY 011056Z AUTO 21004KT 10SM FEW029 29/24 A3014 RMK AO2 SLP213 T02900241
LELO 011200Z VRB04KT CAVOK 30/15 Q1018
K4BM 011215Z AUTO 24005KT 10SM CLR 11/02 A3069 RMK AO2
ULAA 011200Z 28002MPS 230V310 9000 -SHRA BKN015CB 17/16 Q1015 R08/290060 TEMPO 1000 TSRA RMK QFE760/1014
PABR 011231Z AUTO 06007KT 3SM BR OVC004 A3006 RMK AO2 TSNO $
YMPC 011230Z AUTO 36008KT 9999 // SCT067 11/07 Q1013
ELLX 011220Z VRB05KT 9999 FEW024 SCT050 22/15 Q1019 NOSIG
KE16 011215Z AUTO 34006KT 10SM FEW047 SCT060 BKN080 18/14 A3003 RMK AO2 PWINO PNO
CWDV 011200Z AUTO 33005KT 13/13 RMK AO1 3018 SLP081 T01320126 50010
PAHC 011156Z AUTO 02003KT 8SM -RA OVC034 13/12 A2973 RMK AO2 RAB44 SLP073 P0002 60005 70005 T01280122 10144 20128 58016 $
CYHM 011200Z 19005KT 15SM FEW040 FEW064 SCT080 SCT240 21/20 A2992 RMK CU1SC2AC1CI1 CU TR CI TR SLP132 DENSITY ALT 1700FT
YIFL 011230Z AUTO 24002KT 9999 // BKN011 OVC041 20/19 Q1016
KBCT 011153Z 12005KT 10SM CLR 30/25 A3016
GMME 011230Z 33006KT 300V020 5000 FEW010 SCT200 29/23 Q1012 NOSIG
USNN 011200Z 02006MPS CAVOK 19/07 Q1014 R03/0///65 NOSIG RMK QFE756
EDDN 011220Z AUTO 31007KT 270V360 9999 SCT048 25/14 Q1017 NOSIG
FAJB 011200Z AUTO 02003KT //// // ////// 19/05 Q1028
OIAH 011200Z 03008KT 9999 FEW035CB FEW040TCU SCT100 35/23 Q1002
MBPV 011200Z 07010KT 9999 FEW012 28/24 Q1019
EDGS 011220Z 28008KT 240V320 9999 SCT033 21/13 Q1019
CYUT 312000Z 31010G19KT 15SM -DZ BKN020 08/06 A2931 RMK SC7 LAST STFD OBS/NXT 011200Z SLP928
LFLW 011200Z AUTO 31008KT 250V010 CAVOK 30/10 Q1020 NOSIG
KBWD 162115Z AUTO 13005KT 10SM FEW075 35/15 A2997 RMK AO1
KI16 312003Z AUTO 4SM -RA SCT011 BKN021 OVC085 24/23 A3014 RMK AO2
ESMS 011220Z 28012KT 4000 BR BKN005 17/16 Q1013
CWSG 011200Z AUTO 00000KT 17/14 RMK AO1 SLP118 T01680140 53003
KTBR 011215Z AUTO 24003KT 10SM SCT002 26/21 A3019 RMK AO2 T02550210
CYPA 011200Z 04003KT 15SM FEW080 BKN270 10/10 A2996 RMK AC1CI6 AC TR SLP154
EGXW 011220Z 24009KT CAVOK 22/09 Q1018 NOSIG RMK BLU BLU
ENQA 011220Z AUTO 22011KT 9999NDV SCT110/// 15/09 Q1016 W20/S3
EGMC 011220Z 15006KT 050V220 9999 SCT025 23/15 Q1019
FGSL 011200Z 09010KT 9999 SCT010 29/24 Q1013 NOSIG
MDAB 011200Z 00000KT 9999 BKN016 25/24 Q1019
KNIP 011153Z 20008KT 10SM FEW015 SCT250 27/24 A3020 RMK AO2 SLP221 T02720244 10272 20261 53011
DAOL 011200Z 01008KT 9999 FEW020 33/21 Q1016
YCNM 011230Z AUTO 15004KT //// // ////// 06/06 Q1020
SAWU 121312Z 27015KT 8000 -SN BKN009 BKN058 BKN200 M02/M03 Q0995
KCDD 011213Z AUTO 35005KT 7SM SCT009 SCT014 OVC024 13/12 A2987 RMK AO2
LSMD 011220Z AUTO 29004KT 230V340 9999NDV FEW073 28/12 Q1018 RMK
KHIB 011203Z AUTO 33013KT 3SM BR BKN009 OVC019 14/13 A2985 RMK AO2 T01390133 TSNO
SBMY 011200Z AUTO VRB02KT CAVOK 25/23 Q1014
HTJN 011100Z AUTO 07707KT 022V123 //// 24/11 Q1023
OICJ 011100Z 30004KT 9999 SCT035TCU 37/06 Q1013
KVTP 011215Z AUTO 26009KT 10SM CLR 10/M01 A3057 RMK AO2
K41U 011215Z AUTO 01006KT 10SM CLR 16/12 A3025 RMK AO1 T01580117
FYWH 011200Z 36016KT 9999 FEW040TCU SCT045 20/M09 Q1019 NOSIG
YWBR 011230Z AUTO 03005KT //// // ////// 19/07 Q1012
ENBV 011220Z AUTO 10005KT 9999 NCD 14/11 Q1011
KMDD 011215Z AUTO 18012KT 10SM CLR 25/14 A3012 RMK AO2 T02510141
RKSP 010739Z 07008KT 6000 BR BKN025 BKN050 26/25 A2970 RMK CIG025
KSSF 011153Z 00000KT 10SM CLR 24/22 A3006 RMK AO2 SLP165 T02390222 10272 20239 53002 $
KVUJ 011215Z AUTO 22004KT 10SM SCT080 24/23 A3014 RMK AO2 T02370225
EKRK 011220Z AUTO 31013KT 270V340 9999 NCD 20/07 Q1014
CYWY 302100Z 05004KT 310V110 40SM SCT049 SCT083 SCT120 20/11 A3004 RMK CU3AC1AC1 AC TR SLP181 DENSITY ALT 1100FT
PFKT 011156Z AUTO VRB03KT 10SM OVC090 14/10 A2983 RMK AO2 SLP100 60000 T01390100 10139 20117 58008
KMLP 011153Z AUTO VRB03KT 10SM CLR 21/M04 A3016 RMK AO2 SLP091 T02111044 10228 20206 56003 $
CTNK 011200Z AUTO 00000KT 16/14 RMK AO1 SLP127 T01610135 58010
CWLX 011215Z AUTO ///// ////SM FEW002 BKN026 BKN032 06/06 A2958
KNQA 312350Z 21005KT 10SM OVC006 24/24 A3008
LFOV 011230Z AUTO /////KT 9999 ////// 24/15 Q1020
KBTV 011154Z 19005KT 10SM SCT050 BKN100 22/17 A2997 RMK AO2 SLP147 T02220172 10222 20183 58004
KMSS 011211Z AUTO 20006KT 10SM FEW002 22/17 A2994 RMK AO2 T02170172
KPSM 011156Z 25006KT 10SM FEW065 BKN140 BKN220 23/16 A2999 RMK AO2A SLP158 T02300163 10231 20193 57004
PASN 011200Z AUTO 30007KT 1/2SM FG VV002 08/08 A2978 RMK AO2 T00780078 TSNO $
HSOB 011100Z 21015KT 9999 SCT050 26/22 Q1013
LTFK 011150Z 34008KT CAVOK 30/18 Q1008
LFPV 011230Z AUTO 35006KT 300V040 9999 BKN037 BKN050 OVC190 24/15 Q1019 NOSIG
OIMB 011200Z 36010KT 9999 FEW040 35/02 Q1010 A2983
OICM 011100Z 24006KT CAVOK 46/20 Q0998
KS33 011215Z AUTO 19003KT 21/07 A3000 RMK AO2 PWINO
EPRZ 011230Z 30007KT 250V020 9999 FEW036 23/13 Q1014
EPKT 011230Z 23010KT 190V260 9999 SCT040 24/14 Q1014
KCON 011151Z AUTO 00000KT 10SM CLR 21/17 A3000 RMK AO2 SLP158 T02060172 10206 20167 58005
KAIO 011215Z AUTO 00000KT 10SM CLR 18/18 A2996 RMK AO2
LIEB 011155Z 09012KT 9999 FEW030 32/21 Q1015 RMK FEW QUK 2 QUL 0 VIS MAR 30 KM MON LIB VIS MIN 9999
LTBD 011150Z 19006KT 150V240 CAVOK 36/18 Q1003
UERP 011200Z 03004G09MPS 9999 OVC012CB 10/08 Q1006 R35/090060 NOSIG RMK QFE710
MHTR 011200Z 12004KT 9999 SCT022TCU FEW024CB SCT080 27/24
KRZT 011215Z AUTO 17004KT 10SM BKN009 BKN095 20/20 A3001 RMK AO2 PWINO
KAST 011228Z AUTO 18003KT 7SM SCT008 OVC012 15/14 A3000 RMK AO2 T01500144
YDBY 011230Z AUTO 31004KT 9999 // NCD 22/14 Q1012
LIMU 011155Z 15004KT CAVOK 29/26 Q1017 RMK SKC QUK 1 QUL 1 SE VIS MAR 20 KM VIS MIN 9999
NZPM 011200Z 33009KT 37KM BKN049 09/06 Q1025 RMK AUTO VATSIM USE ONLY
PANN 011153Z AUTO 00000KT 10SM CLR 09/08 A2983 RMK AO2 SLP106 T00940078 10156 20089 58016 TSNO
UNOO 011200Z 04008MPS 9999 BKN033 21/12 Q1008 R07/CLRD60 NOSIG RMK QFE748
PFNO 011156Z AUTO 04005KT 10SM CLR 07/06 A2987 RMK AO2 SLP198 T00670061 10156 20067 58006
CWQV 011200Z AUTO 09002KT 18/ RMK AO1 T0177
CZBF 011200Z AUTO 20003KT 9SM CLR 21/17 A2992 RMK SLP132 DENSITY ALT 900FT
URMN 011200Z 14003MPS 9999 NSC 33/13 Q1007 R24/010070 NOSIG RMK QFE719
KBFI 011153Z 00000KT 10SM CLR 19/15 A2992 RMK AO2 SLP131 T01940150 10267 20194 53011
CWSS 011200Z AUTO 06001KT 20/17 RMK AO1 SLP148 T02000167 58004
KTUS 011153Z 14006KT 10SM CLR 22/18 A3010 RMK AO2 SLP145 70024 T02220183 10250 20222 58005
KMEZ 301835Z AUTO 09004KT 10SM TS BKN026 BKN065 29/25 A3011 RMK AO2 LTG DSNT SW THRU NE
KFMN 011153Z AUTO 02003KT 10SM CLR 18/13 A3028 RMK AO2 SLP186 70006 T01830133 10217 20183 53007
PACD 011153Z AUTO 32005KT 10SM FEW024 OVC036 09/ A2995 RMK AO2 SLP141 60002 70002 T0094 10117 20089 53012 TSNO $
KVNY 011151Z AUTO 00000KT 10SM BKN110 23/12 A2999 RMK AO2 SLP144 60000 T02280117 10250 20228 58010
PAOU 011156Z AUTO 21010KT SCT019 OVC032 09/08 A2994 RMK AO2 SLP139 T00940078 10111 20089 53008 PWINO $
WIPP 011200Z 00000KT 8000 SCT010 28/25 Q1007 NOSIG
KARM 011215Z AUTO 00000KT 10SM CLR 24/24 A3008 RMK AO2 T02410235
YBDG 011230Z AUTO 32007KT 9999 // SCT039 BKN053 OVC062 09/06 Q1016
CPRY 011200Z AUTO 36005KT 15/14 RMK AO1 T01540135
SBNT 011200Z 15010KT 9999 BKN019 28/24 Q1015
KCPT 011215Z AUTO 17007KT 10SM CLR 26/21 A3008 RMK A01
KBPI 011153Z AUTO 00000KT 10SM CLR 09/M01 A3032 RMK AO2 SLP164 T00891006 10178 20089 53004
RJFR 011200Z 15012KT 9999 FEW030 SCT050 29/25 Q1011
SERB 292100Z 04020KT 9999 SCT040 20/10 Q1026
K5SM 011214Z AUTO 30004KT 10SM SCT075 SCT090 11/04 A3068 RMK AO2
CWND 011200Z AUTO 36007KT 06/06 RMK AO1 SLP135 T00590058 57004
NZQN 011200Z 20004KT 130V280 50KM NCD 06/00 Q1010 RMK AUTO VATSIM USE ONLY
DAAE 011200Z 11005KT 9999 FEW020 31/21 Q1016
RJSR 011000Z 30003KT 9999 FEW015 BKN/// 27/26 Q1012
CWVQ 011200Z AUTO 26003KT 22/18 RMK AO1 SLP134 T02150178 58007
KOKV 011215Z AUTO 00000KT 10SM SCT009 BKN028 20/18 A3002 RMK AO2
FASI 011200Z AUTO 06005KT //// // ////// 19/07 Q1032
EKEB 011220Z AUTO 30014KT 9999 FEW029/// 17/10 Q1017
CWBO 011200Z AUTO 35004KT 13/13 RMK AO1 SLP126 T01250126 51010
KFSE 011215Z AUTO 00000KT 4SM BR BKN002 12/12 A2994 RMK AO2
TNCM 011200Z 06011KT 030V090 9999 SCT016 29/24 Q1018 NOSIG
KLSF 011156Z AUTO 00000KT 10SM CLR 23/23 A3016 RMK AO2 SLP216 T02340225 10234 20214 52011 $
KMZH 011215Z AUTO 31006KT 10SM SCT016 OVC029 18/15 A2984 RMK AO2
ETNN 011220Z 28010KT 9999 SCT040 SCT090 25/14 Q1018 BLU+BLU+
KECG 011154Z 22008KT 10SM CLR 26/24 A3004 RMK AO2 SLP170 60001 70038 T02560239 10256 20244 53007
EGDY 011220Z 26006KT 9999 FEW040 SCT200 24/12 Q1019 NOSIG RMK BLU BLU
CYOJ 011200Z AUTO 08005KT 9SM BKN096 13/10 A2984 RMK SLP113 DENSITY ALT 1300FT
CXEC 011200Z AUTO 18002KT 15/14 RMK AO1 SLP121 T01450142 56007
CWWK 011200Z AUTO 10001KT 17/13 RMK AO1 SLP126 T01650131 51008
K2I0 011215Z AUTO 22004KT 10SM SCT011 OVC023 24/22 A3007 RMK AO2 T02430221
EDAH 011220Z VRB03KT 9999 SCT022 22/17 Q1013
KPTV 011156Z AUTO 14003KT 10SM CLR 24/17 A2997 RMK AO2 SLP144 70003 T02440167 10283 20244 53005
YAMB 011230Z AUTO 20004KT 9999 // SCT089 12/11 Q1020
YCUN 011233Z AUTO 28024G40KT 5000 -SHRA SCT012 BKN017 BKN022 13/12 Q0996 RESHRA
KCKP 011215Z AUTO 00000KT 10SM CLR 16/16 A2998 RMK AO2 T01620162
LFMO 011230Z AUTO 34011KT 300V020 CAVOK 37/10 Q1013 BECMG 35015G25KT
KGGW 011153Z AUTO 07012KT 10SM CLR 19/11 A2979 RMK AO2 SLP072 T01890111 10261 20183 55007
KSEZ 011215Z AUTO 04008KT 10SM SCT120 21/15 A3025 RMK AO2
CXWN 011200Z AUTO 22003KT 16/13 RMK AO1 SLP118 T01580128
UUBC 011200Z 14003MPS 080V170 CAVOK 25/10 Q1017 R13/CLRD60 NOSIG RMK QFE744/0992
KSLH 011215Z AUTO 15006KT 10SM OVC080 20/17 A2971 RMK AO2
KASG 011148Z 16004KT 10SM FEW095 24/24 A3008
YBAS 011230Z AUTO 08008KT 9999 // NCD 17/00 Q1017
KEKM 011215Z AUTO 21010KT 5SM BR OVC006 22/21 A2987 RMK AO2 CIG 005V007 T02230214 $
UWKD 011200Z 33006MPS CAVOK 26/07 Q1015 R29/70D NOSIG RMK QFE750/1001
YMES 011230Z AUTO 33011KT 9999 // BKN068 BKN091 12/06 Q1012
CYBB 011200Z 02012KT 8SM OVC007 05/04 A2929 RMK SF8 3.4 AFT 23Z SLP922
YANG 011230Z AUTO 35013KT 330V030 9999 // SCT074 BKN100 22/08 Q1011
CZUM 011200Z AUTO VRB02KT 9SM CLR 14/08 A2990 RMK SLP134 DENSITY ALT 1700FT
KUXL 011215Z AUTO 00000KT 10SM SCT060 26/24 A3010 RMK AO2 T02640242
KABE 011151Z AUTO 04006KT 10SM BKN005 OVC010 19/18 A3001 RMK AO2 SLP159 60014 70019 T01890178 10200 20183 55001
FQVL 011200Z 13009KT 9999 FEW020 26/18 Q1024
SBMS 011200Z 14005KT 9999 FEW025 29/22 Q1015
CWHV 011100Z AUTO 15002KT 17/15 RMK AO1 SLP146 T01680154 50000
PAVC 011156Z AUTO 25006KT 10SM BKN018 OVC022 11/08 A2998 RMK AO2 SLP151 60000 T01060083 10117 20106 51007
GOSS 011200Z 24008KT 200V300 9999 SCT011 31/23 Q1013
LIPL 011155Z 25004KT CAVOK 32/18 Q1014 RMK SKC VIS MIN 9999 WIND THR31 22006KT WIND THR13 23005KT BLU
EGXU 041050Z 28012KT 9999 OVC032 17/09 Q1020 RMK BLU
RJOE 300218Z 18010KT 9999 -SHRA FEW015 SCT025 30/26 Q1015 RMK 2CU015 4CU025 A2998
ROMD 011200Z AUTO 14003KT 080V200 9999 SCT016 28/27 Q1011
KCXO 011153Z 00000KT 6SM BR CLR 23/23 A3009 RMK AO2 SLP184 60000 T02280228 10250 20228 53003
KCNU 011152Z AUTO 16008KT 10SM CLR 24/22 A2999 RMK AO2 SLP142 T02390222 10261 20233 55003
MEBA 031500Z 35010KT CAVOK 30/21 Q1005 NOSIG
KACB 011215Z AUTO 33003KT 7SM +RA BKN020 OVC042 20/19 A2975 RMK AO2 T02020190
KSDB 011153Z AUTO 10SM CLR 21/13 A3020 RMK AO2 SLP167 T02060133 10228 20200 56006 $
KRDD 011153Z AUTO 12004KT 10SM CLR 26/16 A2995 RMK AO2 SLP135 60000 T02560161 10283 20256 51002 $
SETU 292100Z 08010KT 9999 BKN020 15/08 Q1030
K1R8 011215Z AUTO 00000KT 10SM CLR 25/24 A3015 RMK AO2
KPEX 011215Z AUTO 32006KT 10SM OVC018 16/14 A2992 RMK AO2
SAZM 011226Z 30003KT 7000 NSC 08/08 Q1019
KNKX 011055Z 32004KT 10SM CLR 20/19 A2999 RMK AO2 SLP149 T02000189
KDED 011210Z AUTO 17007KT 10SM CLR 27/25 A3020 RMK AO2 T02720247
VASU 011200Z 22008KT 6000 SCT025 30/26 Q1004 NOSIG
SBSG 011200Z 19009KT 150V220 9999 BKN020 27/23 Q1015
KRPD 011235Z AUTO 30009KT 10SM 19/16 A2985 RMK AO2 T01860157
KPSP 011153Z AUTO 34007KT 10SM CLR 30/12 A2996 RMK AO2 SLP140 T03000117 10350 20300 58000
KSZT 011215Z AUTO 00000KT 10SM CLR 11/06 A2990 RMK AO2
SBMN 011200Z 06003KT 030V090 9999 FEW010 BKN100 27/23 Q1013
KSCX 271815Z AUTO 00000G12KT 10SM CLR 26/15 A3018 RMK A01
KPBF 011153Z AUTO 17004KT 10SM CLR 24/23 A3009 RMK AO2 SLP187 70022 T02440228 10250 20244 53012
OKBK 011200Z 14013KT CAVOK 39/25 Q0998 NOSIG
CYKG 011200Z 30006KT 15SM FEW030 FEW250 09/04 A2967 RMK SC1CI1 CI TR SLP058
YBYU 011230Z AUTO 10012KT 9999 // SCT018 BKN027 27/23 Q1012
OETR 011200Z 22010KT CAVOK 39/09 Q1006 NOSIG
KHYR 011153Z AUTO VRB05KT 10SM BKN014 OVC021 18/16 A2981 RMK AO2 SLP090 70018 T01780161 10200 20178 53015
CWEB 011200Z AUTO 32006KT 14/13 RMK AO1 SLP132 T01380133 50000
KOPF 011153Z 11004KT 10SM FEW023 28/25 A3016 RMK AO2 SLP213 60000 T02830250 10289 20256 53000
KHTH 011215Z AUTO 00000KT 10SM SCT120 21/16 A3014 RMK A01
KGNV 011153Z 00000KT 10SM CLR 26/24 A3021 RMK AO2 SLP226 T02560239 10261 20244 51007
LGSA 011220Z 07005KT 9999 FEW020 33/19 Q1008
KOQU 312150Z 21012KT 10SM BKN250 29/16 A3010
PATG 011156Z AUTO 22015G19KT 10SM FEW012 OVC020 11/09 A2978 RMK AO2 RAE40 SLP085 P0002 60013 70017 T01060094 10128 20100 53004
DNKN 010800Z 20010KT 9999 FEW009 23/21 Q1015 NOSIG
PATE 011156Z AUTO 11005KT 10SM OVC075 12/09 A2982 RMK AO2 SLP102 T01170089 10133 20111 58006
KAXS 011215Z AUTO 19008KT 5SM HZ SCT095 SCT120 27/16 A3005 RMK AO2 T02710156
KTTF 011215Z AUTO 20007G15KT 10SM SCT065 SCT080 22/19 A2989 RMK AO2 T02170193
KMYV 011153Z AUTO 17006KT 10SM CLR 20/14 A2996 RMK AO2 SLP150 60000 T02000139 10239 20200 53009 $
LGRX 011220Z 26004KT 9999 FEW030 32/21 Q1008
TTPP 011200Z 09006KT 9999 VCSH FEW012CB 29/24 Q1013 NOSIG RMK CB-S/SSW/ VCSH SE
K3U3 011230Z AUTO 23004KT 10SM 16/05 A3013
KFMY 011153Z 09004KT 10SM CLR 27/24 A3015 RMK AO2 SLP212 T02670239 10272 20256 53005
KP60 011156Z AUTO 00000KT 06/02 A3038 RMK AO1 SLP205 T00610022 10111 20061 55002
KJRB 280756Z AUTO 27003KT 10SM -RA FEW008 SCT024 BKN042 23/22 A2987 RMK AO2 LTG DSNT SE TSB03E26B35E50RAB18 SLP113 P0015 T02330222
K1DM 011158Z AUTO 18006KT 10SM CLR 18/03 A2993 RMK AO2 SLP105 T01780025 10206 20159 52008 $
EHLW 011225Z AUTO 36006KT 290V100 9999 OVC250 19/11 Q1019 BLU
KTOL 011233Z 20007KT 10SM BKN010 OVC038 22/19 A2991 RMK AO2 T02220194
EDDK 011220Z AUTO 35008KT 320V020 9999 SCT039 25/15 Q1017 NOSIG
DNKA 010800Z 20010KT 9999 BKN008 21/20 Q1016
KDVP 011233Z AUTO 29005KT 10SM CLR 17/14 A2999 RMK AO2 T01710143
CWGT 011200Z AUTO 32013KT 19/16 RMK AO1 SLP125 T01920155 52003
KFOA 011215Z AUTO 22007KT 10SM CLR 24/23 A3002 RMK AO2
PFCL 011203Z AUTO 24013G21KT 10SM OVC007 11/10 A2979 RMK AO2 RAE03 CIG 004V011 P0000 TSNO
KCXP 011210Z AUTO 00000KT 10SM SCT110 21/11 A3018 RMK AO2
KLFI 011156Z 27008KT 10SM SCT015 25/25 A3001 RMK AO2A BKN V SCT SLP169 60001 70011 T02530251 10253 20237 51007 $
KOLS 011154Z AUTO 16003KT 10SM CLR 18/18 A3017 RMK AO2 SLP155 70052 T01830178 10194 20183 58004 $
CYQT 011218Z 31009G16KT 15SM OVC016 17/15 A2968 RMK SC8 SLP053 DENSITY ALT 1400FT
KFFA 011215Z AUTO 23006KT 10SM CLR 26/23 A3003 RMK AO2 T02630231
LPLA 011200Z /////KT 9999 FEW025 25/20 Q1024
KBHB 011156Z AUTO 00000KT 10SM CLR 20/18 A2998 RMK AO2 SLPNO T02000183 10200 20167 57004 $
SAVC 011200Z VRB02KT CAVOK 02/M04 Q1016 RMK PP000
ENGC 011220Z 22016KT 9999 FEW020TCU BKN070 12/09 Q1014 W11/S4
EGAA 011220Z AUTO 18009KT 150V210 9999 BKN034 OVC048 19/11 Q1014
SLSV 011200Z 00000KT 9999 NSC 20/19 Q1014
KVGT 011153Z AUTO 00000KT 10SM CLR 27/19 A3004 RMK AO2 SLP164 T02720189 10289 20272 55003
SLPS 011200Z 00000KT 9999 NSC 27/21 Q1019
VTUW 011200Z 13006KT 9999 FEW030 28/25 Q1005 NOSIG
CYQG 011200Z AUTO 21009G16KT 9SM CLR 22/19 A2990 RMK SLP123 DENSITY ALT 1600FT
KRYW 011215Z AUTO 19005KT 10SM CLR 23/21 A3011 RMK AO2 T02340206
KNID 011156Z 00000KT 10SM SCT090 BKN120 25/19 A3005 RMK AO2 RAB24E45 SLP156 P0000 60000 T02500194 10267 20250 58008 $
YSGE 011230Z AUTO 00000KT 0500 FG OVC001 09/08 Q1019
PKMR 011153Z 08005KT 15SM FEW015 SCT050 BKN120 BKN300 28/24 A2984 RMK SLP105 70015 8/871 T02750240 10275 20266 50002
EDTY 011220Z 29007KT 240V330 9999 SCT046 25/14 Q1018
KFRI 011156Z AUTO 00000KT 10SM CLR 22/22 A2997 RMK AO2 SLP136 T02240215 10269 20217 51006 FZRANO TSNO $
UMBB 011200Z 30003MPS 8000 OVC014CB 19/15 Q1012 NOSIG
CWXC 011200Z AUTO 20004KT 21/16 RMK AO1 SLP094 T02100155 58007
YBTH 011230Z AUTO 04004KT 9999 // NCD 02/02 Q1020
K1DN 290956Z AUTO 16003KT 10SM CLR 12/11 A2856 RMK AO2 SLP667 T01240108 $
YCWA 011230Z AUTO 35008KT 9999 // SCT100 21/09 Q1011
KDAG 311922Z AUTO 20020G25KT 10SM -TSRA BKN065 OVC090 29/21 A3000 RMK AO2 WSHFT 1905 LTG DSNT SW AND W RAB17 TSE07B22 P0000 T02940211
CZMJ 011200Z AUTO 03004KT 16/15 RMK AO1 3008 SLP128 T01610153 50009
PAEN 011153Z AUTO 13003KT 10SM SCT033 BKN085 12/11 A2989 RMK AO2 SLP123 T01220111 10128 20111 58019 TSNO
KMPO 011153Z AUTO VRB04KT 2SM BR OVC002 16/16 A3006 RMK AO2 SLP170 60008 70051 T01610161 10167 20156 55002
LIVE 011155Z 36006KT 9999 FEW040 20/06 Q1022 RMK FEW VIS MIN 9999
LFOT 011230Z AUTO 28006KT 230V340 9999 FEW040 26/16 Q1019 NOSIG
K1OM 220858Z AUTO M M M M M M RMK AO2 SLPNO RVRNO $
ESGT 011220Z AUTO 23012KT 9999 FEW039/// 20/11 Q1010
LLER 011150Z 02012KT CAVOK 39/11 Q1002
OISR 011200Z 35004KT 9999 FEW035CB 40/20 Q1002 A2960 NOSIG
PAFM 011156Z AUTO 03005KT 10SM CLR 09/07 A2990 RMK AO2 SLP129 T00940072 10178 20089 58004
YBRY 011230Z AUTO 35015KT 9999 // OVC120 22/11 Q1011
K1A6 011215Z AUTO 00000KT 10SM OVC020 22/22 A3014 RMK AO2 T02220222
PGUM 011154Z 06008KT 10SM FEW027 SCT050 28/26 A2990 RMK AO2 RAB33E48 SLP116 P0001 60001 70001 T02780261 10306 20278 53015
PACM 011156Z AUTO 00000KT 10SM OVC008 11/ A2977 RMK AO2 RAE27 CIG 005V011 SLP077 6//// 7//// T0106 10117 20106 57004 PNO $
CWMM 011200Z AUTO 11003KT 18/15 RMK AO1 SLP123 T01820151
KDFW 011153Z 19013KT 10SM SCT140 BKN180 28/19 A3004 RMK AO2 SLP161 T02830194 10328 20283 53010
URMG 011200Z 10010MPS CAVOK 35/14 Q1006 R08/090070 NOSIG RMK QFE740/0987
KDTL 011215Z AUTO 35005KT 8SM OVC003 13/13 A2994 RMK AO2
KEEN 011156Z AUTO 00000KT 10SM CLR 20/18 RMK AO2 SLPNO 60000 T02000178 10200 20172 $
CYAY 011200Z AUTO 24013KT 9SM OVC066 18/13 A2985 RMK SLP110 DENSITY ALT 600FT
KAMW 011153Z AUTO 31007KT 10SM CLR 20/18 A2994 RMK AO2 SLP129 T02000178 10250 20183 53012
YLBD 011230Z AUTO 00000KT 9999 // NCD 18/10 Q1012
KMGM 011153Z 00000KT 10SM CLR 25/23 A3017 RMK AO2 SLP214 T02500233 10256 20233 53013
PADK 011156Z AUTO 26010KT OVC004 08/08 A3016 RMK AO2 SLP215 70001 T00830078 10094 20083 50009 PWINO $
PANC 011153Z 00000KT 10SM FEW012 BKN025 BKN250 13/12 A2990 RMK AO2 SLP126 T01280117 10144 20111 58012
KAUG 011153Z AUTO 00000KT 10SM CLR 22/17 A2999 RMK AO2 SLP153 T02220172 10228 20183 58005
YTRA 011230Z AUTO 36008KT 9999 // NCD 18/06 Q1005
RKNY 011200Z 13002KT 9000 FEW050 BKN110 BKN200 25/24 Q1007 NOSIG
KBDH 011215Z AUTO 30006KT 10SM OVC012 17/16 A2996 RMK AO2
FYRU 011200Z 01009KT CAVOK 29/01 Q1019
LGEL 011220Z 12005KT 9999 FEW020 BKN025 33/16 Q1008
KCDW 011153Z 05006KT 10SM BKN009 OVC035 21/19 A3001 RMK AO2 SLP165 60031 70032 T02110189 10222 20200 56012
KGEU 010151Z 21017G25KT 10SM FEW120 FEW200 32/20 A2992 RMK LAST
SAOC 011200Z 32004KT CAVOK 08/00 Q1015
KJWG 011215Z AUTO 18007KT 10SM CLR 28/16 A3001 RMK AO2 T02770157
YGLI 011230Z AUTO 31009KT 9999 // BKN003 OVC010 08/08 Q1021
YEML 011230Z AUTO 15008KT 9999 // NCD 15/13 Q1019
SYCJ 011200Z 20006KT 9999 -SHRA FEW016CB 25/24 Q1013 NOSIG RMK CB NW-N&E-SSW
OIKM 301700Z 36010KT 7000 SCT045 37/09 Q1006
UHMD 010500Z 24001MPS CAVOK 09/05 Q1012 RMK QFE758/1011
KSMX 011151Z AUTO 00000KT 10SM CLR 17/14 A3000 RMK AO2 SLP160 T01670139 10183 20161 55001
KIJX 011215Z AUTO 18003KT 22/22 A2996 RMK AO2 T02220222
K3R7 011215Z AUTO 13003KT 10SM CLR 25/25 A3011 RMK AO2 T02530253
KLBF 011153Z AUTO 11004KT 10SM CLR 16/14 A3002 RMK AO2 SLP137 T01610139 10194 20161 56005
LFSM 011230Z AUTO 25009G20KT 220V320 CAVOK 30/12 Q1017
KCAR 011154Z AUTO 21005KT 10SM CLR 19/16 A2993 RMK AO2 SLP137 T01890156 10189 20161 58003
KIGQ 011215Z AUTO 22009G17KT 10SM BKN042 BKN050 23/21 A2985 RMK AO2 LTG DSNT SE T02250209
DAAP 011200Z 08010KT CAVOK 39/// Q1013
KMKL 011153Z AUTO 21006KT 10SM SCT065 OVC090 23/22 A3011 RMK AO2 SLP193 60000 70021 T02330222 10233 20217 51008
MBGT 011000Z 07010KT 9999 SCT015 27/24 Q1020
ETGG 011220Z AUTO 32015KT 9999 // ////// 19/10 Q1016 ///
K2P2 011215Z AUTO 19007KT 10SM BKN024 OVC029 19/19 A2968 RMK AO2 T01890189
KCSV 011203Z AUTO VRB04KT 9SM SCT007 BKN013 OVC120 21/21 A3019 RMK AO2 T02060206
LSGS 011220Z 25010KT 9999 FEW100 32/11 Q1015
KCWC 011215Z AUTO 16007KT 10SM CLR 28/15 A3004 RMK AO2 T02780151
KESC 011156Z AUTO 21009KT 10SM -RA FEW005 BKN042 OVC050 19/19 A2967 RMK AO2 RAB04 SLP049 P0000 60006 70006 T01940194 10217 20183 55007
KJWY 011215Z AUTO 18005KT 10SM OVC100 25/21 A3009 RMK AO2 T02510206
YBCK 011230Z AUTO 13005KT //// // ////// 14/14 Q1018
EYVI 011220Z 20009KT 9999 BKN007 BKN023 18/16 Q1011 TEMPO 3000 RA OVC005
ESTL 011220Z AUTO 30010KT 9000 BR FEW009/// SCT012/// BKN015/// 16/16 Q1013
CAHR 011200Z AUTO 21008KT 21/18 RMK AO1 SLP150 T02120178 53004
KPHP 011155Z AUTO 08006KT 10SM CLR 16/13 A2995 RMK AO2 SLP120 T01560133 10206 20139 56013
KEVM 011222Z AUTO 32010G15KT 7SM OVC008 14/13 A2985 RMK AO2
KEYW 011153Z 11009KT 10SM FEW022 BKN032 27/26 A3013 RMK AO2 SLP203 60015 70015 T02720256 10289 20261 53005 $
LEAB 011200Z 14008KT 100V200 9999 FEW070TCU 35/16 Q1019 NOSIG
KAMA 011153Z 24015G24KT 10SM BKN110 26/11 A3009 RMK AO2 PK WND 23030/1117 SLP122 T02560111 10261 20228 51002 $
LFPN 011230Z AUTO 29006KT 240V040 9999 BKN037 BKN044 26/16 Q1019 NOSIG
ETWM 011220Z 33004KT 9999 SCT032 BKN260 21/11 Q1018 BLU+
KIMS 011215Z AUTO 20007KT 7SM OVC007 22/22 A3004 RMK AO2
KGYH 011147Z 22009KT 10SM BKN080 24/21 A3015
PGRO 010755Z 06011KT 7SM BKN015 BKN100 28/23 A2980 RMK LAST
KP69 011152Z AUTO 00000KT 16/14 A2996 RMK AO1 SLP119 T01610144 10211 20161 53009
MPPA 011200Z 00000KT 9000 FEW008 SCT080 27/26 Q1010
KRBG 011153Z AUTO 36004KT 10SM CLR 21/16 A2998 RMK AO2 SLP146 T02060156 10256 20206 53005
ESCM 011220Z 21009KT CAVOK 22/10 Q1010
KGBK 011215Z AUTO 16010KT 9SM CLR 29/23 A3010 RMK A01
KGMU 011153Z 23007KT 10SM BKN075 26/21 A3015 RMK AO2 SLP197 T02610206 10261 20239 53008
EFMA 011220Z AUTO 17009KT 140V210 CAVOK 21/13 Q1011
SBTD 011200Z 09006KT 9999 FEW035 SCT080 20/14 Q1018
RJDT 011100Z VRB08KT 9999 FEW008 SCT010 BKN015 27/26 Q1009
KGTF 011153Z 20010KT 10SM CLR 17/02 A2995 RMK AO2 SLP101 T01670022 10222 20150 50003 $
KNQX 011153Z 11008KT 10SM FEW024 BKN250 32/26 A3013 RMK AO2 SLP201 60001 70001 T03170256 10317 20300 53004 $
KMEM 011154Z 20005KT 10SM OVC090 24/23 A3011 RMK AO2 RAB15E24 SLP190 P0000 60000 70150 T02440228 10244 20239 53008
YWLM 011230Z AUTO 31007KT 9999 // NCD 09/09 Q1018
YBMK 011230Z AUTO 20005KT 9999 // SCT007 15/15 Q1018
VTCP 011100Z 22007KT 190V250 9999 FEW023 31/25 Q1002 NOSIG
VOTK 011200Z 22010G20KT 6000 FEW020 FEW030CB BKN100 30/23 Q1004 NOSIG
KBKB 011152Z AUTO 00000KT 10SM CLR 24/23 A3009 RMK AO2 SLP214 T02390228 10256 20239 53006
LTBT 241623Z 01018G28KT 9999 4000NE FU NSC 34/10 Q1008 RMK RWY13 36013KT SKC
KTMT 011215Z AUTO 17005KT 10SM SCT110 13/08 A3025 RMK AO2 T01320077
RJSI 011000Z 19012KT 9999 FEW030 SCT120 BKN/// 28/25 Q1012
K20V 011215Z AUTO 00000KT 10SM CLR 07/06 A3045 RMK AO2
KY70 011215Z AUTO 20009KT 10SM SCT012 BKN039 22/19 A2983 RMK AO2 T02160191
EFRO 011220Z AUTO 21004KT 150V300 9999 BKN041 20/10 Q1012
UMMS 011200Z 17006G09MPS CAVOK 26/15 Q1010 NOSIG
HTMT 011100Z 09010KT 9999 BKN024 28/20 Q1018 NOSIG
KFLG 011157Z AUTO 00000KT 10SM CLR 11/11 A3040 RMK AO2 SLP198 T01110111 10156 20111 53001 $
OICC 011200Z 30010KT 9999 FEW080 40/M10 Q1009 A2982
KDYR 011156Z AUTO 00000KT 10SM SCT090 23/ A3010 RMK AO2 SLP196 7//// T0233 10233 20228 53007
LIBN 011155Z 36016KT CAVOK 32/16 Q1011 RMK SKC VIS MIN 9999 WIND THR14 03015KT WIND THR32 01018KT BLU
EGHI 011220Z 32003KT 220V020 9999 SCT035 24/14 Q1018
SAAJ 262015Z 14008KT 7000 TS SCT035 FEW045CB BKN100 24/18 Q1013 RESHRA
KGYB 011215Z AUTO 00000KT 10SM CLR 23/21 A3009 RMK AO2 T02250208
OERR 011200Z 18009KT CAVOK 45/M01 Q1001 NOSIG
KCLM 011208Z AUTO 25005KT 9SM OVC002 13/12 A2993 RMK AO2 T01280117
KFLP 011201Z AUTO 00000KT 3SM BR SCT001 BKN095 22/22 A3007 RMK AO2
MMMZ 011146Z 00000KT 12SM FEW032 SCT080 BKN240 25/24 A2994 RMK SLP134 52003 978 8/472
CWKK 011200Z AUTO 34018KT 15/ RMK AO1 PK WND 33022/1154 SLP052 T0151 53014
VTPO 011200Z 20007KT 130V230 9999 FEW020TCU SCT025 27/24 Q1003 RETS NOSIG
YCOE 011230Z AUTO 15009KT 9999 // BKN022 OVC027 23/19 Q1013
KOGA 011215Z AUTO 00000KT 7SM CLR 16/15 A3005 RMK AO2 LTG DSNT NE T01550153
UTDK 011200Z 20003MPS 150V230 9999 NSC 36/08 Q1005 R01/09//70 RMK QFE697/0929
KEZF 011215Z AUTO 00000KT 10SM OVC008 23/23 A3001 RMK AO2 T02250225
FYWW 011200Z 36012KT 9999 FEW060TCU SCT090 16/M09 Q1018
KTOI 011153Z AUTO 00000KT 9SM CLR 24/22 A3018 RMK AO2 SLP214 T02390217 10250 20228 53008
KLPR 011153Z AUTO 21008KT 10SM CLR 20/18 A2997 RMK AO2 SLP143 T02000178 10200 20178 56013
K1F0 011215Z AUTO 18007KT 10SM SCT120 28/20 A3004 RMK AO2 T02770196
KHNZ 011215Z AUTO 23005KT 10SM CLR 23/23 A3007 RMK AO2 T02270226
OEHL 011200Z 06010KT CAVOK 43/04 Q1006
ENHE 011220Z 28009KT 9999 FEW010 BKN025 11/07 Q1012 W///S/
KMHP 011215Z AUTO 20004KT 10SM CLR 25/24 A3018 RMK AO2 T02510243
KL52 011215Z AUTO 00000KT 10SM SCT003 15/15 A3001 RMK A01
CPSV 011200Z AUTO 04007KT 15/14 RMK AO1 T01470140
CWSF 011200Z AUTO 28009G15KT 18/14 RMK AO1 SLP112 T01840143 53002
KCQX 011152Z AUTO 27004KT 10SM FEW011 23/22 A3004 RMK AO2 RAE22 SLP172 P0001 60004 70004 T02330217 10244 20233 56005
EDHI 011220Z 28015KT 9999 FEW035 20/13 Q1017
KBYL 011215Z AUTO 22003KT 10SM OVC025 22/22 A3013 RMK AO1
YRMD 011230Z AUTO 16007KT 9999 // NCD 17/05 Q1015
SLSM 272000Z 33006KT 9999 NSC 31/18 Q1010
KPBX 011215Z AUTO 20003KT 10SM SCT003 OVC008 21/21 A3010 RMK AO2 T02100210
LIMA 011150Z 04005KT 290V090 CAVOK 32/12 Q1014
KRYN 010245Z 13004KT 10SM CLR 25/22 A3005 RMK LAST
KMOP 011215Z AUTO 18007KT 10SM SCT017 SCT027 SCT033 21/18 A2980 RMK AO2 T02060175
RKSD 252344Z 35001KT 6000 BR SCT010 26/23 A2987
KVYS 011215Z AUTO 22004KT 10SM OVC033 21/19 A2987 RMK AO2 T02060191
K81R 011215Z AUTO 17003KT 10SM CLR 25/18 A3010 RMK AO2 T02480182
HESW 011200Z 31005KT CAVOK 37/09 Q1007
KOWA 011233Z AUTO 31009KT 10SM CLR 18/16 A2989 RMK AO2
OMSJ 011200Z 29014KT 8000 NSC 40/21 Q0999 NOSIG
KBRO 011153Z 10003KT 10SM FEW021 26/24 A3003 RMK AO2 SLP168 T02560239 10261 20250 53007
HDAM 010900Z 280/26KT 7000M SA 39/24 Q1005
CYOO 011200Z AUTO 13003KT 090V160 9SM SCT066 20/18 A2991 RMK SLP130 DENSITY ALT 1200FT
KSSI 011153Z AUTO 23007KT 10SM CLR 27/24 A3018 RMK AO2 SLP222 T02670239 10272 20261 53012
KDKR 011215Z AUTO 00000KT 10SM BKN030 24/24 A3009 RMK AO2
KAUN 011215Z AUTO 14005KT 10SM CLR 20/11 A3003 RMK A01
EGKB 011220Z 17006KT 120V210 9999 SCT027 23/15 Q1019
KMIW 011153Z AUTO 27006KT 7SM CLR 18/17 A2993 RMK AO2 SLP128 70002 T01780172 10239 20178 53016
CWKD 011200Z AUTO 14007KT 15/13 RMK AO1 SLP101 T01460133 58014
VOML 011230Z 33010KT 6000 FEW006 SCT012 FEW025CB BKN080 26/23 Q1005 NOSIG
KIOB 011215Z AUTO 27004KT 10SM OVC008 22/22 A3009 RMK AO2 PWINO
VTBS 011200Z 16006KT 9999 FEW009 BKN080 28/25 Q1004 NOSIG
TUPJ 011200Z 06010KT FEW020 29/25 A3006 RMK Q1018 VIS16KM
WBKL 011200Z VRB02KT 9999 FEW014 FEW017CB 27/24 Q1008
LIMG 011150Z 05013KT CAVOK 31/19 Q1014
KSOW 011215Z AUTO 11003KT 10SM CLR 15/14 A3037 RMK AO2
KMRY 011154Z AUTO 00000KT 10SM CLR 17/13 A3001 RMK AO2 SLP173 T01670133 10183 20161 52005
PAYA 011209Z AUTO 27003KT 9SM OVC004 13/13 A3006 RMK AO2 T01330133 TSNO $
KHUA 291959Z 27008KT 7SM FEW032 36/22 A3001
KDNA 011215Z AUTO 00000KT 10SM CLR 24/12 A3016 RMK AO2
LKKU 011200Z 20004KT 150V240 9999 FEW040 24/16 Q1014
EKYT 011220Z AUTO 27018KT 9999 FEW190/// 18/09 Q1013
KY23 011215Z AUTO 29004KT 10SM SCT017 OVC027 20/17 A2983 RMK AO2 T01950165
RJOH 011200Z 17006KT 9999 FEW060 SCT/// 30/24 Q1011
CWEP 011200Z AUTO 20009KT 22/18 RMK AO1 SLP145 T02160183 53002
KSYN 011215Z AUTO 00000KT 10SM CLR 19/16 A2988 RMK AO2 T01850164
EGPF 011220Z AUTO 23011KT 9999 BKN037 17/08 Q1015
KCOD 011156Z AUTO 21008KT 10SM CLR 20/03 A3012 RMK AO2 SLP143 T02000028 10239 20200 53002
FTTY 010900Z 22008KT CAVOK 34/19 Q1012
KIAB 011156Z 19006KT 10SM CLR 23/21 A2996 RMK AO2A SLPNO ALSTG ESTMD 54000 $
PTTP 011153Z 00000KT 15SM BKN018 BKN130 OVC300 26/25 A2986 RMK SLP112 60027 70045 8/171 T02580251 10300 20255 50005
VANP 011230Z 31003KT 4000 HZ SCT018 BKN090 32/25 Q1003 NOSIG
CYAS 011200Z 26013KT 15SM SCT018 BKN097 10/07 A2973 RMK SC4AC2 SLP076
EDMO 011220Z 27008KT 230V320 9999 FEW059 26/13 Q1018
KDWU 011156Z AUTO 00000KT 10SM BKN007 BKN011 OVC028 21/ A3005 RMK AO2 SLP172 70074 T0211 10211 20189 50001
SLET 011200Z 25003KT 9999 FEW025 BKN070 24/20 Q1013
KDCU 011153Z AUTO 19007KT 10SM SCT049 OVC060 23/22 A3016 RMK AO2 RAB24E33 SLP207 P0000 60002 70004 T02330222 10239 20228 53010
YTTI 011230Z AUTO 36002KT //// // ////// 23/22 Q1013
K1FN 290956Z AUTO 19006KT 10SM CLR 12/10 A2998 RMK AO2 SLP188 T01190103 $
LFSO 011230Z AUTO 30011KT CAVOK 26/14 Q1019 TEMPO SCT060TCU
SPCL 010400Z 18003KT 9999 SCT015 25/24 Q1012 RMK PP000
KOMH 011215Z AUTO 00000KT 1/2SM FG OVC003 20/20 A3006 RMK AO2
KFYV 011153Z 22004KT 10SM CLR 24/21 A3007 RMK AO2 SLP166 7//// T02440211 10250 20233 53007
KMYR 011156Z 24009KT 10SM CLR 27/24 A3014 RMK AO2 SLP205 7//// T02720244 10278 20261 51007
LEMD 011200Z 07003G14KT CAVOK 37/11 Q1017 NOSIG
CWOY 011200Z AUTO 08003KT 15/12 RMK AO1 SLP137 T01510123 53004
LPPD 011200Z 13008KT 090V150 9999 FEW025 BKN035 24/19 Q1025
OITL 011230Z 07017KT 9999 FEW015 FEW045CB 25/17 Q1012
MSAC 312050Z 21004KT 9999 BKN030 32/22 Q1011 A2987
EFJY 011220Z 23007KT 170V270 CAVOK 23/10 Q1013
CYLJ 011200Z 20002KT 10SM FEW120 FEW250 09/09 A2993 RMK AC2CI1 CI TR BR SLP145
UMMG 011200Z 26003G06MPS 9999 BKN015 BKN030 19/16 Q1011 NOSIG
VTSR 011200Z 19007KT 160V220 6000 -RA BKN020 25/25 Q1007 NOSIG
KHTL 011153Z AUTO 18005KT 10SM SCT027 BKN034 BKN050 19/16 A2981 RMK AO2 SLP089 T01940161 10211 20189 55012
KF70 011215Z AUTO 00000KT 10SM SCT100 OVC120 23/11 A3002 RMK AO2
KCPR 011153Z 27006KT 10SM CLR 14/06 A3013 RMK AO2 SLP127 T01390056 10222 20139 53005
OIHR 011000Z 01008KT 8000 SCT035TCU 33/13 Q1013
ETHC 011220Z 33007KT 9999 FEW028 BKN036 22/13 Q1017 BLU BLU
MUGM 011151Z 32008KT 10SM FEW250 28/24 A3006 RMK AO2 SLP179 T02830239 10289 20261 53009 $
KOXV 011215Z AUTO 32007KT 10SM CLR 22/19 A2994 RMK AO2
KTHM 010955Z AUTO 00000KT 10SM 13/06 A2998 RMK Thompson Falls
KYIP 011153Z 19010KT 10SM BKN065 22/18 A2989 RMK AO2 SLP114 T02220178 10222 20200 57020
KSUZ 011215Z AUTO 21004KT 8SM BKN110 25/M36 A3009 RMK A01
FIMA 040300Z 15004KT 9999 SCT017 25/21 Q1015
LTCA 011150Z 02003KT 270V080 CAVOK 38/04 Q1005 NOSIG
ENMH 011220Z 02006KT 9999 FEW036 16/12 Q1011
KBGE 011215Z AUTO 00000KT 10SM CLR 25/24 A3018 RMK AO2 T02460236
KAPN 011154Z AUTO 19005KT 10SM SCT070 SCT110 21/16 A2979 RMK AO2 SLP082 T02060156 10206 20144 56010
MGMT 011200Z 00000KT CAVOK 24/23 BKN200
SLJO 011200Z 00000KT 9999 NSC 19/19 Q////
LELC 011200Z 09006KT 040V140 9999 FEW020 31/22 Q1017 NOSIG
YMER 011230Z AUTO 36007KT 9999 // NCD 11/02 Q1014
EBAW 011220Z 31007KT 260V350 9999 SCT039 23/13 Q1019 NOSIG
KNGP 011156Z 18004KT 10SM FEW018 FEW200 SCT250 28/24 A3004 RMK AO2 SLP171 CB DSNT SE AND S TCU DSNT SE T02830244 10294 20278 53003
KMTP 011154Z AUTO 00000KT 20/18 A3005 RMK AO1 SLP175 P0005 60017 70017 T02000183 10239 20200 56009
LJCE 011230Z VRB04KT CAVOK 31/12 Q1014 RMK BLU
WSSS 011230Z 09004KT 060V140 9999 FEW018 SCT160 BKN300 28/25 Q1007 NOSIG
KSCK 011155Z 32003KT 10SM CLR 19/13 A2996 RMK AO2 SLP146 T01940133 10239 20194 51004 $
CXTV 011200Z AUTO 34009KT 08/07 RMK AO1 SLP155 T00760074 50000
EHJR 011225Z AUTO 11004KT //// // ///////// 17/12 Q1020 RE// W18/H10
MRPV 011200Z 12009KT CAVOK 20/15 A3002 NOSIG
GMTT 011230Z 03017KT CAVOK 32/24 Q1013 NOSIG
LFQG 011200Z AUTO 30007KT 220V350 CAVOK 29/15 Q1018
OISA 011100Z 10008KT 9999 SCT035TCU 30/10 Q1015 A2998
CWRN 011200Z AUTO 20005KT 20/18 RMK AO1 SLP163 T02040176 50003
SCQP 011200Z 01002KT 9999 OVC035 06/06 Q1019
YTMO 011230Z AUTO 00000KT 9999 // NCD 15/04 Q1018
CXDK 011200Z AUTO 00000KT 15/15 RMK AO1 0PAST HR 6004 SLP095 P0004 T01470146 50035
KRPJ 011215Z AUTO 23007KT 10SM CLR 20/19 A2986 RMK AO2 T01950189 TSNO
K1CM 011158Z AUTO 27006KT 10SM CLR 20/02 A2999 RMK AO2 SLP102 T02010015 10256 20193 52010
YMRB 011230Z AUTO 16006KT 9999 // NCD 15/13 Q1018
KH71 011215Z AUTO 17008G14KT 140V200 10SM 27/22 A3000 RMK AO2
CXRH 011200Z AUTO 25006KT 20/15 RMK AO1 SOG 03 0012 SLP121 T01980152
VEGY 011200Z 00000KT 3500 -RABR BKN016 BKN090 27/25 Q1000
MMMT 011155Z 04006KT 4SM BKN045 25/24 A2997 RMK SLP224 900 8/500 HZY RTS
FHAW 011150Z 13017KT 9999 SCT020 26/19 Q1017 RMK WHT
KFOZ 011233Z AUTO 32004KT 10SM OVC020 16/12 A2994 RMK AO2
KQEY 011230Z AUTO 15003KT 6000 -SHRA OVC023 26/25 A2946 RMK A02 TSNO
KDPA 011152Z 23012KT 10SM SCT044 22/21 A2982 RMK AO2 SLP092 60012 70012 T02220206 10233 20217 55004
SBBI 011200Z 11003KT 080V170 CAVOK 13/09 Q1020
PANV 011156Z AUTO 09005KT 4SM BR BKN003 OVC023 13/12 A2973 RMK AO2 SLP119 60001 70006 T01280122 10144 20128 58013 TSNO
UTAA 011200Z 15004KT 9999 SCT050 BKN100 33/16 Q1006 R88/70D NOSIG
LBGO 011230Z AUTO 28015KT 9999 FEW073/// 29/13 Q1010 NOSIG
VASD 011030Z 31009KT 5000 HZ SCT025 31/18 Q1006 NOSIG
ETSB 011220Z 33006KT 9999 SCT030 BKN050 22/14 Q1018 BLU BLU TEMPO WHT
KXLL 011215Z AUTO 00000KT 10SM OVC007 20/18 A3002 RMK AO2
LRBO 011200Z 17004KT 9999 FEW060 BKN090 25/16 Q1010 BLU BLU
ENHD 011220Z 31009KT 270V340 9999 FEW027 16/08 Q1016
CWME 011200Z AUTO 24014KT 16/15 RMK AO1 PK WND 24020/1101 SLP144 T01630152 53002
SBTT 011200Z VRB02KT CAVOK 25/23 Q1013
KBQK 011215Z AUTO 22009KT 10SM CLR 26/24 A3019 RMK AO2 T02650243
YHSM 011230Z AUTO 31009KT 9999 // OVC059 10/08 Q1015
EDTL 011220Z 30008KT 250V330 CAVOK 29/14 Q1016
KHFY 011235Z AUTO 20007KT 2SM OVC007 23/23 A2999 RMK AO2 T02340230
KLNS 011233Z 01003KT 10SM OVC005 21/18 A3001 RMK AO2 T02110183
YTWB 011230Z AUTO 24003KT 9999 // SCT022 10/10 Q1022
YWHA 011230Z AUTO 35006KT 9999 // NCD 08/02 Q1016
NVVV 011200Z 09009KT 9999 -SHRA SCT018 BKN040 24/23 Q1015
KJFZ 271815Z AUTO 26006KT 10SM VCTS SCT021 BKN032 BKN038 26/22 A3014 RMK AO2 LTG DSNT NE AND NW T02610218
KIML 011153Z AUTO 34007KT 10SM CLR 17/16 A3005 RMK AO2 SLP142 70001 T01720156 10233 20167 55000
KSAA 011215Z AUTO 14009KT 10SM CLR 16/07 A3032 RMK AO2
KCKM 011215Z AUTO 19004KT 10SM OVC095 25/25 A3013 RMK A01
LHPP 011215Z AUTO 35011G25KT 310V030 CAVOK 31/12 Q1014
LFMH 011230Z AUTO 34007KT 290V030 CAVOK 32/08 Q1018
KT20 011215Z AUTO 00000KT 5SM BR CLR 23/22 A3007 RMK AO2 T02320221
CYMM 011200Z AUTO 09006KT 9SM SCT086 OVC100 13/07 A2990 RMK SLP134 DENSITY ALT 1300FT
VERP 011200Z 32003KT 5000 HZ FEW020 SCT025 32/27 Q1002 NOSIG
KGON 011156Z 00000KT 10SM BKN060 OVC075 23/19 A3002 RMK AO2 RAB1059E51 SLP166 P0001 60018 70018 T02280194 10244 20211 56012
PANI 011156Z AUTO 13005KT 9SM -RA OVC024 12/11 A2979 RMK AO2 SLP080 P0001 60008 70009 T01170106 10150 20117 56010 $
KBAF 011153Z 17003KT 4SM BR BKN005 21/19 A3002 RMK AO2 RAE14 SLP164 P0001 60009 70009 T02060194 10211 20194 58001
MMLP 010442Z 18009KT 10SM SCT100 SCT200 29/17 A3000 NOSIG RMK 8/028
KCRP 011151Z 00000KT 10SM FEW018 FEW026 FEW250 24/23 A3004 RMK AO2 SLP172 CB DSNT SE T02440233 10272 20244 53005
MWCR 011200Z 10008KT 9999 FEW018 29/26 Q1017
CWZZ 011200Z AUTO 29021KT ////SM NCD ///// A2969
KIER 011215Z AUTO 00000KT 10SM CLR 24/23 A3011 RMK AO2 T02350230
LIRP 011215Z 27011KT CAVOK 35/12 Q1014 NOSIG
KEHA 011215Z AUTO 25003KT 3SM BR CLR 20/19 A3010 RMK AO2 T01960187
RPVD 011200Z 25004KT 9999 FEW015 SCT220 28/25 Q1009 RMK A2980
KHDC 011223Z AUTO 00000KT 10SM CLR 24/24 A3013 RMK AO2
YROM 011230Z AUTO 02002KT 0600 // OVC001 08/08 Q1020
ASZM 280700Z 28004KT CAVOK 02/01 Q1013 RMK PP///
UTFF 011200Z 34004KT 300V360 9999 NSC 33/08 Q1004 R18/CLRD70
RPVP 011200Z 18004KT 9999 FEW019 BKN080 28/23 Q1009 RMK A2980
LETL 011200Z AUTO 25014KT CAVOK 23/18 Q1021
KMXF 011156Z AUTO 00000KT 10SM CLR 24/22 A3015 RMK AO2 SLP211 T02420221 10248 20229 52012
KMKG 011158Z 19015G24KT 10SM BKN009 BKN055 24/21 A2976 RMK AO2 LTG DSNT N AND NE T02440211
KOKM 011215Z AUTO 13004KT BKN110 24/24 A3002 RMK AO2 LTG DSNT E AND S T02440244 PWINO
KACQ 011215Z AUTO 30006KT 10SM SCT006 SCT012 17/16 A2992 RMK AO2
CYYQ 011200Z 30011KT 15SM BKN046 10/07 A2977 RMK SC7 SLP085
KSXT 011156Z AUTO 35003KT 10SM CLR 21/17 A3010 RMK AO2 SLP127 60000 T02060167 10233 20200 51003
PAUT 011215Z AUTO 20006KT 10SM BKN026 OVC033 A3000 RMK AO2
PABE 011202Z 08007KT 5SM -RA BR BKN004 OVC036 12/11 A2972 RMK AO2 P0000 T01170111
SKRM 140400Z 28005KT 9999 SCT023 26/24 Q1012 RMK A2990
ENSH 011150Z 01014KT CAVOK 19/12 Q1007 RMK WIND 150FT 01017KT
OIBV 011200Z 36004KT 7000 NSC 38/24 Q0997
RJFF 011200Z 18012KT 160V220 9999 FEW030 SCT050 BKN070 31/23 Q1011 NOSIG RMK 1CU030 3SC050 6AC070 A2986
KHSV 011153Z 00000KT 10SM FEW050 OVC065 23/23 A3016 RMK AO2 RAE15 SLP207 P0001 60001 70013 T02330228 10233 20233 53011 $
K00U 011215Z AUTO 18006KT 10SM CLR 16/08 A2988 RMK A01
RORS 011000Z 15002KT 9999 FEW015 SCT160 BKN/// 27/26 Q1007
KNJW 011157Z AUTO 21004KT 10SM CLR 24/22 A3019 RMK AO2 SLP134 T02390217 10239 20222 53010
K1U7 011225Z AUTO VRB05KT 10SM CLR 08/08 A3023 RMK A01
KCVX 011215Z AUTO 18008KT 7SM RA BKN047 BKN070 OVC110 19/19 A2973 RMK AO2 T01900185
KACY 011225Z AUTO 02003KT 10SM BKN007 OVC011 22/21 A2997 RMK AO2 T02220206
FAUP 011200Z 14011KT 9999 FEW050 SCT100 21/04 Q1021 RERA NOSIG
KDMN 011153Z AUTO 23007KT 10SM BKN120 23/17 A3017 RMK AO2 SLP127 60000 T02330167 10272 20233 55003
UHHH 011200Z 16003MPS 9999 BKN002 OVC030CB 21/21 Q1004 R23R/290045 TEMPO BKN002 RMK QBB060 OBST OBSC QFE747/0996
KCEU 011154Z AUTO 24004KT 10SM BKN080 23/21 A3015 RMK AO2 SLP199 70013 T02280211 10239 20217 53008
KCHO 011233Z 03004KT 3SM BR OVC002 22/21 A3004 RMK AO2 T02220206
CBAR 011200Z AUTO 14008KT ////SM FEW060 BKN140 07/06 A2998
KMUO 011158Z AUTO 11005KT 10SM CLR 18/05 A2993 RMK AO2 SLP102 T01830048 10282 20181 51008 $
KD39 011215Z AUTO 32008KT 10SM BKN017 17/14 A2991 RMK AO2 T01710140
VHHH 011230Z 16008KT 9999 FEW030 32/24 Q1005 NOSIG
LKCV 011230Z 30012KT 9999 SCT044 26/16 Q1015 NOSIG RMK BLU BLU
KNYG 011159Z 34005KT 7SM FEW010 24/20 A3002 RMK AO2 T02390200
KAGC 011206Z 19004KT 1SM R28/5500VP6000FT BR OVC002 18/17 A3005 RMK AO2 T01780172
KGBG 011215Z AUTO 23005KT BKN013 21/21 A2992 RMK AO2 T02050205 PWINO TSNO
OTBD 011230Z 03010KT 010V070 CAVOK 36/27 Q0998 NOSIG
KTVF 011212Z AUTO 00000KT 5SM BR CLR 12/12 A2994 RMK AO2
KW63 011235Z AUTO 20004KT 10SM SCT004 SCT043 SCT070 A3005 RMK AO1
KACV 011225Z AUTO 00000KT 4SM BR OVC005 14/13 A3001 RMK AO2 T01440133
KOBE 250835Z AUTO 00000KT 10SM CLR 23/23 A3006 RMK AO2
LRSB 011200Z 06007KT 360V090 9999 FEW035CB SCT047 BKN075 20/15 Q1014 NOSIG
SKPV 011200Z 07017KT 9999 FEW017 BKN200 28/25 Q1013 RMK A2992
FZIC 010800Z 14004KT 7000 SCT005 BKN080 22/21 Q1018 NOSIG
KBFF 011153Z AUTO 00000KT 10SM CLR 17/12 A3005 RMK AO2 SLP122 T01670122 10206 20161 55006
FKKR 011200Z 27009KT 240V310 9999 BKN017 32/22 Q1012 NOSIG
ETSH 011220Z 30009KT 9999 SCT025 BKN043 23/17 Q1015 BLU BLU TEMPO WHT
PECI 280348Z 36005KT 7SM TSRA OVC20CB 16/14 A3032 RMK 8/3//
RJAI 010502Z 16004G17KT 9999 FEW030 BKN230 35/24 Q1010 RMK 1CU030 5CI230 A2985
LIVF 011155Z 06003KT CAVOK 31/07 Q1016
KPTN 011156Z AUTO 00000KT 10SM CLR RMK AO2 SLPNO 6//// 7//// FZRANO $
SCTE 011200Z 00000KT 9999 BKN043 04/04 Q1019 NOSIG
KP68 011153Z AUTO 00000KT 15/08 A3025 RMK AO1 SLP157 T01500078 10228 20150 58002
FACT 011200Z 17005KT 120V260 CAVOK 17/03 Q1026 NOSIG
RPVM 011200Z 04003KT 9999 FEW020 SCT300 28/24 Q1010 RMK A2983
SGAS 011230Z 17003KT 9999 SCT040 22/14 Q1016
HTIR 011100Z 18015KT 9999 SCT027 24/12 Q1022
CYER 011200Z AUTO 25006KT 9SM BKN076 OVC091 13/09 A2970 RMK SLP062 DENSITY ALT 100FT
KCMX 011200Z AUTO 29013KT 10SM OVC004 18/17 A2966 RMK AO2 T01830172
VTCN 011200Z 16007KT 9999 FEW035 BKN040 28/24 Q1003 NOSIG
ESOW 011220Z 28003KT CAVOK 18/13 Q1011
KHYX 011215Z AUTO 20008KT 10SM SCT070 22/17 A2983 RMK AO2 T02190168
K0A0 011215Z AUTO 32007KT 10SM CLR 20/15 A3019 RMK AO2
LRCV 011200Z 26013KT CAVOK 30/06 Q1010
KVBT 281156Z AUTO 00000KT 10SM CLR 24/23 A3001 RMK AO2 SLP152 6//// 7//// T02440228 10244 20239
YAYE 011230Z AUTO 09005KT 9999 // SCT110 17/01 Q1014
KLWA 011215Z AUTO 17009KT 10SM OVC010 23/21 A2981 RMK AO2 T02290205
KBKW 011203Z AUTO 27003KT 10SM BKN006 OVC011 21/20 A3013 RMK AO2 T02060200
KCGI 011221Z 21006KT 10SM OVC009 24/24 A3006 RMK AO2 CIG 007V011 T02440239
KLHQ 011153Z AUTO 17003KT 8SM FEW004 OVC039 20/19 A3002 RMK AO2 SLP159 70007 T02000194 10200 20172 56004
KU52 011215Z AUTO 00000KT 10SM CLR 17/14 A3028 RMK AO2
OINB 011100Z 02002KT CAVOK 31/24 Q1005
EKOD 011150Z 29012KT 230V340 9999 NSC 19/09 Q1015
KTOA 010247Z 27011KT 10SM FEW010 SCT150 22/19 A2997
MMZO 010146Z 30005KT 10SM BKN020 BKN210 28/25 A2991 RMK 8/109
KGRD 011156Z AUTO 24006KT 10SM CLR 23/22 A3017 RMK AO2 SLP207 70002 T02330217 10233 20217 51011
KNXP 011156Z AUTO 30006KT 10SM CLR 27/20 A3010 RMK AO2 SLP155 T02720200 10278 20267 58004
KCFS 011215Z AUTO 20006KT 10SM SCT055 SCT070 SCT120 23/17 A2984 RMK AO2 T02250171
UBBN 011230Z 15010KT 9999 NSC 38/07 Q1004 NOSIG RMK MT OP QFE679
YPAD 011230Z 03008KT 9999 FEW040 BKN061 11/08 Q1016
YCBA 011230Z AUTO 06003KT 9999 // NCD 05/03 Q1020
CYQH 011200Z 00000KT 5SM R09/1600V2400FT/N BR BKN004 OVC014 11/11 A2986 RMK SF6SC2 CLIMAT12.2/10.7/0.0 SLP121 DENSITY ALT 2400FT
KGJT 011153Z 12009KT 10SM CLR 22/11 A3019 RMK AO2 SLP142 T02220106 10256 20217 53006
K1IW 011158Z AUTO 24008KT 10SM CLR 17/13 A3006 RMK AO2 SLP139 T01720129 10223 20170 55008 $
KLEW 011156Z AUTO 00000KT 10SM CLR 20/19 A2999 RMK AO2 SLP161 T02000189 10200 20161 58004
OIMJ 011200Z 01018KT 9999 FEW030 31/09 Q1011
CYXP 011200Z 00000KT 15SM FEW025 SCT150 SCT220 09/07 A2963 RMK CU1AC3CI1 CU TR CI TR SLP037
KCQM 011216Z AUTO 30006KT 7SM -DZ 14/13 A2985 RMK AO2
EGHC 011220Z 22009KT 9999 SCT008 19/16 Q1020
LFLN 011230Z AUTO VRB08KT CAVOK 31/13 Q1018 NOSIG
KDTA 011215Z AUTO 16009KT 10SM 20/13 A3018 RMK AO1
KCUB 011153Z AUTO 00000KT 9SM CLR 24/21 A3015 RMK AO2 SLP206 T02440211 10250 20228 51010
FAIR 251030Z 34006KT CAVOK 18/05 Q1028
CWWL 011200Z AUTO 31018KT 14/12 RMK AO1 PK WND 30020/1108 SLP170 T01360121 56002
RJAW 011200Z 09005KT 9999 FEW010 SCT015 28/25 Q1014 RMK 1CU010 3CU015 A2995
KQFW 011230Z AUTO 00000KT 6000 BKN040 OVC130 25/27 A2960 RMK A02 TSNO
KPEA 011215Z AUTO 31008KT 10SM CLR 21/18 A2995 RMK AO2 T02120181
PAGS 011231Z AUTO 09003KT 10SM SCT004 SCT010 OVC030 12/12 A3005 RMK AO2
CYXL 011200Z 36006KT 15SM BKN018 13/11 A2984 RMK SC7 SLP112 DENSITY ALT 1400FT
KRIL 011153Z AUTO 13004KT 10SM CLR 16/10 A3027 RMK AO2 SLP175 T01560100 10217 20150 53006
KKNB 011210Z AUTO 00000KT 10SM CLR 17/17 A3029 RMK A01
KOUN 011215Z AUTO 17010KT 10SM BKN120 27/17 A3000 RMK AO2 T02690170
ENFL 011220Z 23009KT 200V260 9999 FEW020TCU FEW030 15/08 Q1015
LIEE 011220Z 18012KT 9999 FEW050 31/22 Q1014
LIRS 011155Z 23014KT 9999 FEW030 34/13 Q1013 RMK FEW VIS MIN 9999 WIND THR03 23014KT WIND THR21 24015KT BLU
KCDC 011153Z AUTO 19006KT 10SM CLR 18/16 A3027 RMK AO2 SLP185 70029 T01780161 10178 20161 55002
DNBE 081400Z 27006KT 4000 -TSRA BKN009 FEW018CB 24/24 Q1014
FXMM 221000Z 27004KT 9999 FEW035 17/03 Q1029 NOSIG
NVVA 010900Z AUTO 02008KT //// // NCD 23/20 Q1016
KUGN 011155Z 24010KT 10SM FEW013 BKN020 23/21 A2978 RMK AO2 SLP071 T02330211 10233 20222 55010
NZKK 011200Z 19003KT 20KM OVC240 08/06 Q1029 RMK AUTO VATSIM USE ONLY
UBBB 011230Z 04010KT CAVOK 31/21 Q1007 WS R35 NOSIG
CWAV 011200Z AUTO 19004KT 13/13 RMK AO1 SLP136 T01320127 58008
KM25 011235Z AUTO 22007KT 10SM OVC008 23/22 A3010 RMK AO2 PWINO
ENCN 011220Z 29010KT 240V350 CAVOK 21/02 Q1012
KQAZ 011156Z AUTO 25009G14KT 9999 CLR 33/19 A2991 RMK AO2 SLP124 WND DATA ESTMD T03310187 10334 20251 58011
FADY 300741Z 20001KT CAVOK 09/00 Q1021
KRGA 011215Z AUTO 00000KT 10SM 22/22 A3010 RMK AO2
CZOL 011200Z AUTO 13001KT 13/13 RMK AO1 T01340133
KK82 011215Z AUTO 00000KT 10SM 21/19 A2999 RMK AO2
KMBG 011152Z AUTO 03003KT 10SM CLR 17/15 A2995 RMK AO2 SLP130 T01670150 10189 20150 55002
CWPX 011200Z AUTO 34020G26KT ////SM //// NCD 06/04 A2981
LTFA 010831Z 33010KT 310V010 CAVOK 32/18 Q1006 RMK RWY17 33008KT 300V360
KFEW 290458Z 18005KT 10SM CLR 17/14 A3027 RMK SLPNO AO2A WND DATA ESTMD ALTSG ESTMD $
VTBU 011200Z 20005KT 9000 -SHRA VCTS FEW018CB SCT035 BKN100 27/26 Q1005 RESHRA RETS BECMG TL1230 NSW
CYTL 011200Z AUTO 24005KT 9SM BKN130 BKN150 13/12 A2977 RMK SLP088 DENSITY ALT 800FT
KMSL 011211Z AUTO 00000KT 4SM RA BR FEW041 SCT050 OVC065 24/23 A3015 RMK AO2 P0005 T02390228 $
K1MM 011158Z AUTO 29003KT 10SM BKN140 18/02 A2986 RMK AO2 SLP064 T01760023 10227 20142 53008 $
MMTM 011144Z 00000KT 7SM SKC 26/23 A3002 RMK SLP164 5//// 900 CB DSTN NE E SE HZY
KPUW 011153Z AUTO 00000KT 10SM CLR 17/10 A2994 RMK AO2 SLP116 T01670100 10200 20156 52002
HRZA 011100Z 26004KT 9999 BKN023 SCT100 22/16 Q1021 NOSIG
LKLN 011200Z AUTO 25008KT 220V290 9999 SCT057 BKN076 26/12 Q1016
PAFA 011153Z 36003KT 10SM SCT045 BKN090 BKN180 12/09 A2987 RMK AO2 SLP117 70002 T01170094 10183 20117 58010
ENNM 011220Z 34005KT 300V020 9999 SCT021 BKN042 13/08 Q1012
CYQK 011200Z 31005KT 15SM FEW004 FEW140 FEW210 12/12 A2989 RMK SF1AC1CC2 SF TR AC TR SLP129 DENSITY ALT 1400FT
MROC 011200Z 10008KT CAVOK 21/16 A3003 NOSIG
KTPL 011151Z AUTO 16007KT 10SM CLR 24/22 A3009 RMK AO2 SLP174 7//// T02390222 10289 20239 53005
KPKD 011153Z AUTO 31005KT 10SM CLR 13/12 A2992 RMK AO2 SLP131 70029 T01330122 10178 20122 53013 $
KUAO 011153Z AUTO 24004KT 10SM CLR 19/14 A2996 RMK AO2 SLP144 T01890144 10250 20189 51011 $
KBAD 011156Z AUTO 00000KT 10SM CLR 24/22 A3009 RMK AO2 SLP192 T02370219 10269 20234 53011
CWNZ 011200Z AUTO 21002KT 17/16 RMK AO1 6PAST HR 6010 SLP020 P0002 T01690155 50043
CXDW 011200Z AUTO 25007KT 16/13 RMK AO1 SLP126 T01600134 55000
KPSK 011215Z AUTO 23006KT 10SM SCT025 SCT045 BKN050 22/21 A3014 RMK AO2 T02210211
MMPE 311453Z 14009KT 10SM OVC060 31/19 A2993 RMK 8/05/ RTS
PAIK 011156Z AUTO 35005KT 10SM CLR 07/04 A2990 RMK AO2 SLP126 T00720039 10161 20067 58004
KHUF 011232Z 20003KT 2SM TSRA BR FEW011 BKN042 OVC110 21/19 A3003 RMK AO2 PK WND 33031/1212 WSHFT 1159 LTG DSNT ALQDS RAB13 TSB16 P0030 T02060189
K4I3 011215Z AUTO 15004KT 1/4SM FG OVC002 17/17 A3001 RMK AO2
RKTY 011134Z 10003KT 9999 BKN040 27/26 A2976 RMK CIG040
KRIW 011153Z AUTO 31008KT 10SM CLR 17/03 A3016 RMK AO2 SLP135 T01670033 10244 20167 51005 $
KLRU 011215Z AUTO 35004KT 10SM CLR 23/12 A3017 RMK AO2 T02250120
KBHC 011215Z AUTO 24003KT 10SM CLR 25/21 A3019 RMK AO2
KETH 011233Z AUTO 34004KT 10SM CLR 16/13 A2996 RMK AO2
FYWB 010900Z AUTO 01009KT //// // ////// 14/05 Q1021
ROTM 011156Z 19006KT 9999 SCT020 BKN050 BKN160 28/25 A2977 RMK SLP080 60000 70130 T02820252 10294 20282 52007
KCNB 011222Z AUTO 32005KT 10SM CLR 17/14 A2997 RMK AO2
VOKU 011030Z 28007KT 5000 HZ SCT015 SCT100 30/24 Q1004
OPIS 011230Z 30008KT 6000 FEW040 30/23 Q1002 NOSIG
EGUL 011213Z AUTO 28004KT 9999 -DZ SCT034 23/15 A3006 RMK AO2 DZB13 SLP183 $
AERF 131400Z 09012KT CAVOK 15/09 Q1017
KGFK 011153Z 21004KT 8SM FEW100 FEW220 12/12 A2992 RMK AO2 SLP131 T01220117 10144 20111 55003
LFBY 011230Z AUTO VRB04KT 9999 // ////// 31/16 Q1018
ESNU 011220Z 17008KT CAVOK 18/15 Q1010
UTAT 011200Z 22010KT CAVOK 32/15 Q1007 R26/CLRD70 NOSIG
EBBR 011220Z 35005KT 280V050 9999 FEW040 24/14 Q1019 NOSIG
ENSB 011220Z 26005KT 9999 FEW020 BKN050 12/06 Q1015 BECMG 12010KT RMK WIND 1400FT 12011KT RMK WIND THR28 13010KT
KAAA 011215Z AUTO 00000KT 10SM SCT049 BKN060 BKN120 20/20 A2992 RMK AO2 LTG DSNT E AND SE T01950195
EQYR 051159Z AUTO 22010KT 10SM BKN015 26/18 A3007 RMK AO2 T02610178 $
KM19 010456Z AUTO 18003KT 10SM CLR 24/23 A3006 RMK AO2 SLP177 T02390233
CXMY 011200Z AUTO 20/17 RMK AO1 T01990168
MMAA 011151Z 35004KT 6SM SCT080 BKN300 26/21 A2989 RMK SLP120 57010 954 8/062 HZY DSNT CB S SW
DTTX 011200Z 09008KT 060V120 CAVOK 34/16 Q1013 NOSIG
KCIR 011215Z AUTO 24005KT 7SM OVC008 24/23 A3007 RMK AO2 T02420231
VTUV 011200Z VRB01KT 9999 FEW030 SCT100 29/25 Q1004 NOSIG
CYCS 312000Z 30021KT 15SM SCT060 BKN150 BKN240 12/06 A2957 RMK SC3AC2CI2 LAST STFD OBS/NEXT 01/1200 SLP014 DENSITY ALT 100FT
PGSN 011154Z 06006KT 10SM FEW020 FEW100 28/26 A2990 RMK AO2 RAB28E38 SLP146 P0000 60001 70001 T02780261 10289 20261 53015 $
KHYI 011156Z 00000KT 10SM SCT017 22/21 A3009 RMK AO2 SLP180 T02220211 10272 20217 53005
YREN 011230Z AUTO 32005KT 9999 // NCD 06/02 Q1017
OEGS 011200Z 27003KT 9999 FEW040 42/19 Q1001
KAYS 011215Z AUTO 20004KT 10SM CLR 26/25 A3019 RMK AO2 T02590252
KPMU 011215Z AUTO 00000KT 6SM BR FEW120 24/23 A3013 RMK AO2
LFSG 011230Z AUTO 30008KT 260V340 CAVOK 27/14 Q1018
YLIS 011230Z AUTO 36005KT 9999 // NCD 12/12 Q1018
KBVN 011215Z AUTO 00000KT 7SM CLR 18/18 A2999 RMK AO2 T01820178
KXBP 011215Z AUTO 19008KT 10SM CLR 28/18 A3007 RMK AO2 T02780178
FOGR 011200Z /////KT 9999 SCT010 27/22 Q////
KW43 011215Z AUTO 21009KT 10SM CLR 22/08 A3002 RMK AO2
K19S 011210Z AUTO 00000KT 3 1/2SM BR CLR 19/ A3004 RMK AO2 T0188////
KMWM 011215Z AUTO 25004KT 10SM BKN007 16/15 A2996 RMK AO2
FKKN 011200Z 20008KT 9999 BKN017 23/19 Q1018
KDYS 011156Z AUTO 18012KT 10SM CLR 27/13 A3005 RMK AO2 SLP120 T02650132 10297 20265 52008 $
ETMN 011220Z 32011KT 9999 SCT034 SCT300 18/08 Q1018 BLU+BLU+ TEMPO BLU
LFBX 011230Z AUTO 30005KT 190V350 CAVOK 33/13 Q1018
SBIH 011200Z 00000KT 9999 FEW015 28/24 Q1013
K1P1 011215Z AUTO 00000KT 10SM CLR 18/17 A3001 RMK AO2 T01800169
KQQJ 060655Z 22003KT 7SM CLR 26/08 A2981 RMK SLPNO WND DATA ESTMD ALSTG ESTMD LAST PA+2520 DA+4520
YLTV 011230Z AUTO 29014KT 9999 // SCT048 BKN067 OVC083 12/07 Q1012
KBMC 011215Z AUTO 10SM CLR 25/09 A3011 RMK AO1 T02490091
EETU 011220Z 07009KT 5000 -RA OVC004 15/14 Q1009
KONO 011153Z AUTO 27005KT 10SM CLR 24/09 A2990 RMK AO2 SLP099 T02390089 10289 20239 53004
KP92 282059Z AUTO VRB04KT 32/24 A3002 RMK AO1 SLP166 6//// T03170244 $
CWRU 011200Z AUTO 32034KT 13/ RMK AO1 PK WND 32036/1146 SLP136 T0131 55004
KHII 011215Z AUTO 00000KT 10SM FEW060 28/22 A2997 RMK AO2
KJFX 011215Z AUTO 00000KT 6SM BR SCT090 24/24 A3018 RMK AO2 PWINO
KMWA 011145Z 22007KT 10SM BKN010 24/23 A3004
SVBI 011203Z AUTO 30002KT NCD 23/23 Q1017
KSOA 011215Z AUTO 15006KT 10SM CLR 24/17 A3016 RMK AO2
KLWD 011153Z AUTO 26003KT 5SM BR CLR 23/22 A2996 RMK AO2 SLP135 T02280217 10250 20228 53007
EVVA 011220Z AUTO 01012KT 9999 FEW017 OVC029 19/16 Q1010
SKPE 011215Z 00000KT 2000 BR OVC006 19/18 Q1018 RMK A3009
KBJJ 011224Z AUTO 19007KT 8SM FEW006 19/18 A3000 RMK AO2 T01940183
KSDY 011156Z AUTO 07005KT 10SM CLR 18/14 A2987 RMK AO2 SLP105 T01780144 10200 20161 53001
KNBC 011156Z 21005KT 10SM FEW250 27/23 A3017 RMK AO2 SLP216 T02670228 10278 20250 53010
EINN 011230Z 17011KT 9999 -RA FEW009 BKN018 19/18 Q1013 TEMPO 4000 RA BKN007
K1S3 140745Z AUTO 00000KT 10SM 23/13 A2993
VEPY 010900Z 00000KT 0300 DZ PRFG SCT008 SCT015 OVC080 22/20 Q1010 NOSIG
ESMK 011220Z 27007KT 230V290 9999 SCT020 OVC029 20/16 Q1012
CYEG 011200Z 13004KT 6SM BR FEW030 FEW220 13/12 A2989 RMK SC1CI1 VIS W 3 SLP125 DENSITY ALT 2700FT
K8T6 011215Z AUTO 00000KT 10SM CLR 24/23 A3006 RMK AO2
CYIO 011200Z AUTO 01004KT 9SM BKN060 08/03 A2968 RMK SLP056
FQLC 011200Z 14013KT 9999 BKN017 21/08 Q1024
KMCN 011153Z 00000KT 10SM CLR 23/22 A3017 RMK AO2 SLP212 T02330222 10261 20228 51013
RCMQ 011200Z 00000KT 9999 FEW010 BKN100 27/24 Q1007 NOSIG RMK A2976
CWMT 011200Z AUTO 13003KT 13/07 RMK AO1 SLP140 T01330074 56004
FAKM 011200Z 14006KT CAVOK 19/05 Q1025
PAGY 011153Z AUTO 00000KT 10SM BKN016 OVC047 13/12 A2999 RMK AO2 SLP154 70011 T01280122 10144 20122 53003 TSNO
LFRJ 011230Z AUTO 28005KT 9999 OVC018 20/16 Q1021
YTNK 011230Z AUTO 13006KT 9999 // NCD 21/02 Q1015
FLKK 302100Z 14003KT CAVOK 12/03 Q1022
VNKT 011200Z 17004KT 8000 FEW008 SCT030 BKN100 24/21 Q1008 NOSIG
EHFD 011225Z AUTO 31003KT 9999 NCD 15/10 Q1019
KNTU 011156Z 25007KT 10SM SCT120 BKN250 24/23 A3001 RMK AO2 SLP164 60003 70059 T02440233 10244 20233 51007 $
KMFI 011212Z AUTO 30007KT 10SM BKN014 BKN028 21/19 A2978 RMK AO2 T02060189
PHBK 011151Z AUTO 02003KT 10SM CLR 23/15 A3009 RMK AO2 SLP190 T02330150 10283 20222 58009 $
ENOV 011220Z AUTO 00000KT 9999 -RA FEW033/// OVC043/// 16/07 Q1015 REDZ RMK WIND RWY24 VRB02KT WIND 2090FT VRB02KT
CPIR 011000Z AUTO 35006KT 15/14 RMK AO1 PK WND 35017/0900 T01480140
NZHT 011200Z 20004KT 130V280 50KM NCD 06/00 Q1010 RMK AUTO NZQN VATSIM USE ONLY
KNBG 011155Z COR 14003KT 6SM BR SCT027CB BKN050 BKN250 27/26 A3013 RMK AO2 RAB33E52 CB OHD MOV N T2 SET SLP200 P0000 60000 70001 T02670261 10278 20250 53011 $
KORB 011233Z AUTO 32006KT 10SM 13/13 A2985 RMK AO2
NWWW 011230Z AUTO 35001KT CAVOK 18/18 Q1018 TEMPO SHRA FEW020TCU
KSZL 011156Z 20008KT 10SM FEW250 24/22 A2996 RMK AO2A SLP140 T02370223 10258 20237 52006 $
YCIN 011230Z AUTO 32004KT 9999 // NCD 21/06 Q1011
KLNR 011156Z AUTO 28006KT 10SM BKN021 22/19 A2981 RMK AO2 SLP083 70048 T02170194 10222 20206 53016
CYDL 011200Z AUTO 20005KT 150V210 9SM FEW066 OVC100 12/10 A2994 RMK SLP133 DENSITY ALT 2900FT
NGFU 011200Z 09011KT 9999 FEW016CB FEW018TCU BKN300 28/24 Q1011
KIGM 011151Z AUTO 00000KT 10SM CLR 19/18 A3016 RMK AO2 SLP145 70023 T01940178 10211 20189 55001
KGVT 011215Z AUTO 17008KT 10SM CLR 27/21 A3009 RMK AO2 TSNO T02720206
KTUL 011153Z 00000KT 10SM FEW040 BKN110 26/23 A2999 RMK AO2 LTG DSNT W AND NW SLP147 70008 T02610228 10261 20244 53006
PABT 011153Z 00000KT 10SM BCFG FEW015 OVC060 12/11 A2987 RMK AO2 SLP120 FGBANK N AND VC W-NW 60003 70008 T01170106 10139 20117 58010
KD73 011210Z AUTO 00000KT 10SM CLR 24/23 A3018 RMK AO2 T02370235
K9S2 121845Z AUTO 24/06 A2969 RMK Scobey
KJFK 011151Z 06006KT 6SM -RA BR FEW007 BKN043 OVC055 21/19 A3000 RMK AO2 SLP160 P0003 60025 70025 T02060194 10250 20200 55002
SBBE 011200Z 15005KT 9999 SCT012 27/24 Q1014
LECV 011200Z 10006KT CAVOK 33/08 Q1020
CYIK 011217Z 18013KT 15SM -DZ SCT015 BKN027 BKN032 BKN047 OVC056 09/07 A2958 RMK ST3SC2SC1SC1SC1 SLP020
KMER 011135Z AUTO 33006KT 10SM CLR 22/13 A2997 RMK AO1
KDXX 011215Z AUTO 31004KT 10SM CLR 16/14 A2995 RMK AO2
LEDA 011200Z VRB04KT CAVOK 32/19 Q1017
KDNS 011215Z AUTO 00000KT 5SM BR CLR 17/17 A2998 RMK AO2
KOXI 011215Z AUTO 33004KT 7SM BKN011 BKN014 BKN040 22/22 A2987 RMK AO1
GMMI 011200Z 22006KT 180V300 8000 NSC 28/20 Q1012 NOSIG
KBZN 011156Z 15008KT 10SM CLR 16/07 A3008 RMK AO2 SLP137 T01610067 10194 20139 53003
KTQV 011215Z AUTO VRB06KT 10SM SCT120 24/22 A3007 RMK A01
YHML 011230Z AUTO 34011KT 9999 // OVC018 OVC030 09/08 Q1013
VDPP 011200Z 18004KT 9000 SCT015 FEW017CB SCT040 29/24 Q1004 RMK CB:N/S
KMFR 011153Z AUTO 00000KT 10SM CLR 26/18 A2994 RMK AO2 SLP122 60000 T02560178 10306 20256 55000
KRCA 011156Z AUTO 19010KT 10SM CLR 18/11 A2994 RMK AO2 SLP113 T01820105 10228 20166 57018 $
PAGN 011156Z AUTO 00000KT 10SM OVC029 12/12 A3004 RMK AO2 SLP162 70002 T01170117 10133 20117 51004
KVGC 011215Z AUTO 14005KT 10SM CLR 19/16 A3002 RMK AO2
KOOA 011215Z AUTO 32005KT 7SM +RA CLR 22/22 A2995 RMK AO2 T02220222
CWNH 011200Z AUTO 19006KT 20/17 RMK AO1 SLP119 T02040167 58004
EVLA 011220Z AUTO 33009KT 300V020 9999 SCT021/// 19/14 Q1010
KT70 011158Z AUTO 09006KT 10SM CLR 24/20 A3000 RMK AO2 SLP144 T02420197 10298 20242 53001
VTUQ 011200Z 00000KT 9000 -RA SCT030 BKN100 25/25 Q1005 NOSIG
KGVQ 011156Z AUTO 22008KT 10SM SCT050 21/17 A2997 RMK AO2 SLP142 T02110167 10211 20183 58005
LKNA 011230Z 31004KT 280V340 9999 FEW050TCU BKN060 23/14 Q1016 NOSIG RMK BLU BLU
SLCB 011200Z 00000KT 9999 NSC 11/M01 Q1025
KEUL 011156Z AUTO 35003KT 10SM CLR 19/13 A2991 RMK AO2 SLP100 T01940128 10283 20189 51008
CWDK 011200Z AUTO 01008KT 17/15 RMK AO1 SLP125 T01700153 55002
MSLU 302050Z 15004KT CAVOK 35/20 Q1007 A2976
KHKS 011153Z 16004KT 10SM CLR 24/23 A3015 RMK AO2 SLP199 60000 T02440228 10256 20239 53012
CYZF 011200Z 06004KT 15SM FEW075 FEW240 11/09 A2994 RMK AC1CI1 CI TR SLP146
KDUB 011222Z AUTO 31007KT 10SM CLR 13/M01 A3031 RMK AO2
EGHE 011220Z 21009KT 8000 SCT005 BKN007 21/18 Q1020
GMMH 011200Z 36016KT 6000 SCT006 23/19 Q1013 NOSIG
KCKB 011219Z 00000KT 6SM HZ BKN006 OVC012 21/18 A3007 RMK AO2 T02060178
YOOM 011230Z AUTO 18004KT 9999 // NCD 12/M02 Q1018
OPFA 011155Z 23002KT 5000 FU SCT040 34/24 Q1001 NOSIG
KVBW 011215Z AUTO 00000KT 3/4SM OVC002 20/20 A3006 RMK AO1 T01960196
OINE 011200Z 23004KT 9999 SCT030 35/20 Q1005
FBSK 011200Z 06014KT 9999 FEW020 22/09 Q1024 NOSIG
KLQK 011235Z AUTO 23005KT 10SM CLR 25/22 A3015 RMK AO2 T02460218
KCOF 011156Z AUTO 00000KT 10SM CLR 28/10 A3016 RMK AO2 SLP218 T02810098 10281 20264 50004 $
RJCM 011100Z 18015KT 9999 -SHRA FEW010 SCT120 BKN150 18/15 Q1013
KMLT 011153Z AUTO 00000KT 10SM CLR 21/18 A2997 RMK AO2 SLP153 T02110183 10217 20172 58006
FOOK 201500Z /////KT 9999 BKN020TCU 29/24 Q////
KHDE 011215Z AUTO 00000KT 5SM BR CLR 19/18 A3001 RMK AO2 T01920184
KOLU 011156Z AUTO 04003KT 9SM CLR 18/18 A2999 RMK AO2 SLP143 T01830183 10233 20183 55000
CYFB 011200Z 26003KT 15SM -RA OVC031 11/08 A2964 RMK SC8 SLP042
KEAR 011156Z AUTO 00000KT 7SM CLR 19/18 A3000 RMK AO2 SLP140 T01940183 10239 20189 53003
SLSB 262000Z 34006KT 9999 SCT020 FEW025CB 33/20 Q1 METAR
KHXD 011135Z AUTO 23009KT 10SM CLR 27/24 A3018 RMK AO2
KBED 011151Z COR 21009KT 10SM BKN090 22/19 A3001 RMK AO2 SLP171 60002 70002 T02220194 10228 20206 58005
VELR 011200Z 11001KT 4500 BR SCT016 BKN080 28/26 Q1001
LRCL 011200Z 31010KT 270V340 9999 SCT039 23/13 Q1013
KMWT 011153Z AUTO 00000KT 10SM BKN110 27/21 A3006 RMK AO2 SLP164 T02720206 10278 20250 53009 $
CWLB 011100Z AUTO 23002KT 12/12 RMK AO1 SLP137 T01150115 56009
LTBL 311737Z 06003KT 300V100 CAVOK 29/19 Q1006 NOSIG RMK RWY17 35006KT 300V080
DAOB 011200Z 32008KT CAVOK 34/05 Q1021
SVBM 011203Z AUTO 09008KT NCD 19/19 Q1016
YBHM 011230Z AUTO 16012KT 9999 // BKN011 OVC016 19/19 Q1017
KMHR 011210Z AUTO 20005KT 10SM CLR 19/11 A2996 RMK A01
EDSB 011220Z 29006KT 240V340 CAVOK 28/15 Q1017
CYYJ 011200Z 12003KT 360V160 20SM FEW090 FEW250 14/12 A2989 RMK AC1CI1 AC TR CI TR SLP123
CWBE 011200Z AUTO 21010G15KT 18/16 RMK AO1 SLP091 T01760162 56010
EHMA 011225Z AUTO 35006KT 9999 NSC 16/08 Q1019
SPLO 011200Z 14005KT 8000 BKN020 OVC035 17/12 Q1016 RMK TN15.0 PP000
KAAO 011154Z AUTO 18007KT 10SM CLR 24/21 A2997 RMK AO2 SLP134 T02390211 10250 20233 55001
ESGJ 011220Z 22008KT 9999 VCSH FEW013 SCT023CB 18/17 Q1011
MDPP 011200Z 00000KT 9999 FEW018 29/24 Q1018
KTVL 011153Z AUTO 19003KT 10SM FEW090 14/11 A3029 RMK AO2 SLP192 T01440106 10206 20139 58003
KDZJ 011215Z AUTO 00000KT 3SM RA BR SCT033 BKN041 OVC055 20/20 A3023 RMK AO2 T02050204
KCFV 281452Z AUTO 33005KT 10SM -RA FEW070 BKN090 BKN110 26/22 A3002 RMK AO2 RAE20B49 SLP156 P0000 60006 T02560217 53023
RJFU 011200Z 16011KT 9999 FEW015 BKN020 BKN050 29/25 Q1011
LTAT 011220Z 09007KT 060V150 CAVOK 37/04 Q1005 NOSIG RMK RWY03 07007KT 020V140
EHSC 011225Z AUTO 04008KT 9999 ///////// 18/14 Q1020 W20/H10
ESKM 011220Z AUTO 18004KT 150V230 9999 FEW012/// BKN036/// OVC082/// 18/16 Q1009
EFKE 011220Z AUTO 21008KT CAVOK 21/12 Q1011
KSGR 011153Z 15003KT 10SM CLR 26/23 A3007 RMK AO2 SLP182 T02560233 10272 20244 53003
KLAF 011225Z 22010G20KT 10SM -RA SCT014 SCT060 BKN085 23/21 A2992 RMK AO2 LTG DSNT E-SW TSE1158B04E19 P0001 T02280211
SVGU 011203Z AUTO 09002KT NCD 24/24 Q1014
MGGT 011200Z 02012KT 9999 BKN014 18/16 Q1023 A3021 FEW200
KSCD 011215Z AUTO 00000KT 10SM OVC100 23/22 A3019 RMK AO2 T02250221
KPEQ 011215Z AUTO 10007KT 10SM CLR 24/10 A3006 RMK AO2 T02350104
ZGKL 011200Z 23001MPS 9999 FEW033 30/24 Q1004 NOSIG
KQEI 011230Z AUTO 18001KT 9999 SCT046 BKN110 25/24 A2977 RMK A02 TSNO
K06C 011215Z AUTO 24011G16KT 10SM SCT020 22/21 A2982 RMK AO2 T02200207
KELP 011151Z 12006KT 10SM FEW250 25/11 A3011 RMK AO2 SLP114 T02500111 10306 20244 53007
SKEJ 011200Z 19004KT 9999 FEW015 BKN200 24/23 Q1010 RMK A2985
LFPG 011230Z 31006KT 270V340 9999 BKN033 SCT140 24/16 Q1019 NOSIG
KRNO 011155Z 00000KT 10SM BKN150 BKN190 22/12 A3013 RMK AO2 SLP135 T02220117 10283 20222 58001
KPWK 011152Z 21008KT 10SM FEW010 SCT044 23/21 A2981 RMK AO2 SLP090 60000 T02330211 10244 20233 55014
KDEC 011224Z 26007KT 10SM FEW080 FEW095 SCT110 20/18 A2993 RMK AO2 LTG DSNT NE-S RAE01 TSE03 P0000 T02000183
KPDX 011153Z 00000KT 10SM SCT180 22/14 A2995 RMK AO2 SLP139 T02220144 10267 20222 53014
KWDR 011215Z AUTO 26003KT 10SM CLR 24/22 A3019 RMK AO2
TJBQ 011150Z 10010G15KT 10SM SCT020 SCT027 BKN033 28/23 A3008
YPKA 011230Z AUTO 34007KT 9999 // NCD 24/19 Q1011
OITR 011230Z 11008KT 9999 FEW035CB FEW040 34/11 Q1008
LFRV 011230Z AUTO 36006KT 300V040 9999 FEW034 25/16 Q1020
LPFL 011200Z 18013KT 150V220 9999 FEW017 26/21 Q1022
K5A6 011215Z AUTO 00000KT 10SM CLR 23/23 A3015 RMK AO2 T02330226
LIME 011220Z 21005KT 160V250 CAVOK 33/12 Q1014 NOSIG
LIMF 011220Z 13005KT 090V200 CAVOK 33/12 Q1014
KHOP 011156Z AUTO 21008KT 10SM OVC006 23/23 A3008 RMK AO2 SLP183 70041 T02270225 10232 20224 51003
LZIB 011230Z 34007KT CAVOK 28/14 Q1014 NOSIG
K1LN 290956Z AUTO 22006KT 10SM CLR 11/11 A3007 RMK AO2 SLP184 T01090107 $
CZSM 011200Z AUTO 07002KT 12/08 RMK AO1 SLP138 T01240075 58002
LGIR 011220Z 32010KT CAVOK 29/22 Q1008 NOSIG
K4S2 011215Z AUTO 30010G18KT 10SM CLR 25/14 A2988 RMK AO2
EGXV 011220Z AUTO 28008KT 9999 FEW049/// 22/10 Q1017
FALA 011200Z 01015KT CAVOK 19/07 Q1029 NOSIG
KSXU 011215Z AUTO 00000KT 10SM CLR 19/16 A3019 RMK AO2 T01880162
KCSM 011153Z AUTO 18015KT 10SM FEW044 SCT075 BKN090 27/15 A3003 RMK AO2 SLP138 60000 T02720150 10294 20261 53008
KHLG 011205Z 19005KT 3SM BR OVC003 18/18 A3005 RMK AO2 T01830178
MGPB 011200Z 00000KT 7000 TSRA SCT016 FEW025CB OVC080 25/24 Q1013 A2991 CB/TS/LTNG N/NNW
EGUB 011220Z 25003KT 9999 FEW035 BKN250 24/13 Q1018 NOSIG RMK BLU BLU
ESUT 011220Z 12011KT 100V160 9999 -RA SCT025 BKN038 BKN045 16/13 Q1007 REDZ
RJOZ 010508Z 12020G31KT 9999 FEW015 32/25 Q1008 RMK 1CU015 A2979
KFFT 011222Z AUTO 24007KT 10SM SCT008 OVC017 24/22 A3005 RMK AO2 T02390222
KMDH 011152Z AUTO 23007KT 10SM CLR 24/23 A3004 RMK AO2 SLP168 T02390228 10244 20228 53007
KCFE 011215Z AUTO 33006G12KT 10SM OVC023 19/15 A2989 RMK AO2
K40U 011215Z AUTO 00000KT 10SM CLR 12/09 A3027 RMK AO2 T01220089
KPTS 011235Z AUTO 17004KT 10SM CLR 24/23 A3001 RMK AO2 T02350226 PWINO
KIRK 011209Z AUTO 24005KT 10SM BKN021 23/22 A2997 RMK AO2 T02330222
KUIN 011225Z AUTO 26010KT 10SM BKN024 25/22 A2995 RMK AO2 T02500222
KPOV 011215Z AUTO 17003KT 10SM CLR 19/17 A2998 RMK AO2 T01930165 PWINO
ZBHH 011200Z 13001MPS CAVOK 28/18 Q1007 NOSIG
KRZL 011215Z AUTO 19009KT 5SM BR SCT065 SCT090 SCT120 21/21 A2989 RMK AO2 LTG DSNT S
LEAS 011200Z 06007KT 360V110 9999 SCT013 SCT023 BKN030 23/20 Q1020 NOSIG
FVMV 011200Z 13015KT 9999 BKN040 19/09 Q1027 NOSIG
UGMS 011200Z 13006KT 080V200 9999 SCT080 32/04 Q1013
CWVT 011200Z AUTO 14002KT 12/09 RMK AO1 SLP155 T01210086 58001
KPJC 011215Z AUTO 00000KT 4SM +RA OVC005 17/17 A3003 RMK AO2
RJKA 011200Z AUTO 15012KT 9999 FEW011 SCT014 BKN029 29/27 Q1011
CXPC 011200Z AUTO 22/17 RMK AO1 SLP109 T02170172 56009
SBPS 011200Z VRB02KT 9999 FEW004 SCT017 BKN100 23/22 Q1020
KPSN 011215Z AUTO 00000KT 10SM FEW023 25/23 A3008 RMK AO2
UAAA 011214Z 34002MPS 240V020 9999 VCTS SCT050CB BKN100 30/10 Q1006 NOSIG
KAUO 011156Z AUTO 23003KT 10SM CLR 24/22 A3021 RMK AO2 SLP236 T02390222 10250 20228 53009
LTFJ 011220Z 04013KT 9999 FEW035 29/16 Q1009 NOSIG RMK RWY24 03012KT 340V070
HTMG 011100Z 00000KT 9999 BKN023 26/17 Q1018
LIBY 011155Z 01014KT CAVOK 31/16 Q1010 RMK SKC QUK 4 QUL 2 N VIS MAR 20 KM VIS MIN 9999
UAKD 011200Z 34006MPS 9999 BKN050CB 28/07 Q1006 NOSIG RMK QFE721/0962
KRDK 011215Z AUTO 00000KT 10SM CLR 21/20 A2997 RMK AO2
K20U 180035Z AUTO 16010KT 10SM CLR 31/16 A2985 RMK AO2
RJTR 281250Z AUTO 14007KT 10SM SCT010 27/24 A2974 RMK AO2 LTG DSNT S RAB37E50 PRESFR SLP069 $
KARW 011215Z AUTO 24006KT 5SM HZ 27/22 A3017 RMK AO2
ULWC 011200Z 22002MPS 9999 SCT026CB 21/12 Q1018 R21/010063 NOSIG RMK QFE754/1005
ORMM 011200Z 13012KT CAVOK 44/21 Q0997 NOSIG
CYPX 011200Z AUTO 21012G18KT 9SM OVC020 09/06 A2970 RMK SLP060
KF17 011224Z AUTO 00000KT 10SM CLR 25/23 A3011 RMK AO2
KNTD 011229Z AUTO 00000KT 5SM BR BKN005 18/17 A3000 RMK AO2 T01780172 CHINO N VISNO N $
KPNS 011153Z 00000KT 10SM FEW028 29/24 A3014 RMK AO2 SLP209 T02890244 10289 20272 53010
OMAD 011200Z 29003KT 240V340 CAVOK 44/17 Q0997 NOSIG
K3LF 011215Z AUTO 19003KT 7SM BKN048 BKN060 OVC075 23/22 A3002 RMK AO2 LTG DSNT NE T02250223
KS71 011230Z AUTO 00000KT 10SM 14/09 A2985
CWAE 010100Z 18003KT 15SM SKC 30/11 A2993 RMK LAST OBS/NEXT 011300UTC WIND ESTD SLP124 DENSITY ALT 4400FT
KSPD 011156Z AUTO 27004KT 18/17 A3012 RMK AO1 SLP131 T01830167 10211 20183 55004 $
KELM 011153Z 00000KT 10SM CLR 18/16 A3002 RMK AO2 SLP159 T01780156 10178 20122 58003
UDYZ 011200Z 18004KT 130V240 9999 FEW040CB 36/10 Q1005 R09/010070 NOSIG
EIDW 011230Z 21008KT 160V280 9999 FEW018 SCT028 BKN032 20/14 Q1015 NOSIG
VISM 060900Z 00000KT 6000 -DZ SCT030 OVC060 25/19 Q1015
GMFB 011200Z 24009KT 190V290 CAVOK 39/00 Q1022 NOSIG
DFOO 011200Z 31006KT 270V350 9999 -RA OVC016 23/23 Q1015
HEAX 011200Z 32015KT CAVOK 32/22 Q1005
PFEL 011156Z AUTO 33007KT 10SM BKN060 OVC090 15/09 A2979 RMK AO2 SLP087 T01500089 10156 20144 56009
LTAL 011150Z 30009KT 9999 BKN030 27/13 Q1012
SBGO 011200Z 13007KT CAVOK 20/10 Q1019
KSLR 011215Z AUTO 20009KT 10SM SCT110 28/21 A3011 RMK AO2 T02750210
KSWO 011153Z AUTO 14008KT 10SM FEW120 26/21 A2997 RMK AO2 SLP134 70030 T02610211 10278 20256 51004
MUCL 011150Z 10007KT 060V130 9000 FEW020 28/25 Q1018
KHHF 011215Z AUTO 21009KT 10SM CLR 24/15 A3001 RMK AO2 T02400151
SBGW 011200Z 06003KT 340V110 7000 NSC 16/14 Q1021
PFYU 011156Z AUTO 00000KT 10SM 13/11 A2987 RMK AO2 SLP123 T01280106 10178 20117 58007 $
CYZP 011200Z AUTO 26011KT 9SM CLR 14/12 A3006 RMK SLP180
KGVE 260135Z AUTO 00000KT 10SM CLR 24/23 A2999 RMK AO1 T02350229
EGLL 011220Z AUTO VRB03KT 9999 BKN033 23/14 Q1018 NOSIG
K1A5 291955Z AUTO 01004KT 10SM SCT031 SCT037 BKN046 28/22 A3015 RMK AO2 T02760216
PASY 011158Z AUTO M 7SM FEW120 M A3007
SARC 011200Z 12003KT CAVOK 14/11 Q1015
LIMH 011155Z AUTO 22003KT //// 09/M02 Q1034
KHHW 011221Z AUTO 25003KT 10SM -DZ OVC120 25/21 A3007 RMK AO2 LTG DSNT N
DNAA 010800Z 29002KT 9999 BKN007 23/22 Q1015 NOSIG
PMDY 011156Z AUTO 03006KT 10SM CLR 25/22 A3018 RMK AO2 SLP221 T02500217 10272 20250 58003 TSNO
YBUN 011230Z AUTO 28017G30KT 9999 // ////// 13/09 Q0991
HTHA 300400Z 00000KT 9999 SCT014 BKN08018/18 Q////
MNRS 312300Z 36004KT 9999 FEW013CB SCT014 28/25 Q1010 CB/N/NE/E/SE/S/SW
KINJ 011215Z AUTO 17007KT 10SM CLR 26/22 A3008 RMK AO2 T02620218
YBNS 011230Z AUTO 32007KT 9999 // SCT088 11/04 Q1012
YHAY 011230Z AUTO 33005KT //// // ////// 04/03 Q1019
KFFX 011215Z AUTO 16005KT 10SM OVC011 22/20 A2975 RMK AO2 T02160195
KLUX 011215Z AUTO 22006KT 10SM CLR 24/22 A3015 RMK AO2
K1NN 290956Z AUTO 23006KT 10SM M M A3008 RMK AO2 SLPNO ALSTG ESTMD $
CWEF 011200Z AUTO 24009KT 20/17 RMK AO1 SLP141 T02040173 53007
KGRB 011211Z 25008KT 10SM SCT023 BKN047 OVC055 23/19 A2971 RMK AO2 T02280189
LIPI 011155Z 19006KT CAVOK 32/17 Q1013 RMK SKC VIS MIN 9999 WIND THR06 20006KT WIND THR24 17007KT BLU
KMWH 011152Z AUTO 31004KT 10SM CLR 22/11 A2982 RMK AO2 SLP087 T02220111 10294 20217 53002
MMPN 011140Z 00000KT 1 1/2SM -RA TS BR OVC010CB 17/16 A3024 RMK 8/9// RTS
LEMG 011200Z 14010KT 100V190 9999 FEW022 29/22 Q1017 NOSIG
VTPT 270600Z /////KT 9999 FEW020TCU SCT026 33/23 Q1008 NOSIG
KSPB 011153Z AUTO 00000KT 10SM CLR 18/16 A2994 RMK AO2 SLP136 T01830161 10267 20178 51016
LFKF 011230Z AUTO 22011KT 190V260 CAVOK 34/20 Q1014 NOSIG
KGKJ 011153Z AUTO 18005KT 10SM CLR 18/16 A3000 RMK AO2 SLP151 T01830161 10183 20178 58008
SBPB 011200Z /////KT 9999 SCT016 ///// Q1013
SKCL 011200Z VRB03KT 8000 VCFG FEW017 SCT070 18/17 Q1016 NOSIG RMK A3003
EGPA 011220Z 24005KT 180V350 9999 FEW040 16/06 Q1013
LPHR 011200Z 17005KT 130V200 9999 FEW017 24/19 Q1024
KX60 011215Z AUTO 16003KT 10SM CLR 26/24 A3019 RMK AO2 T02570243
HUEN 011200Z 16015KT 9999 FEW025 FEW027CB 27/19 Q1016.7 A30.02 885.4 26. 14 NOSIG
HLLM 181250Z 07013KT 8000 FEW025 30/21 Q1018
ZGOW 011200Z VRB01MPS CAVOK 29/25 Q1006 NOSIG
SCDA 011200Z 13007KT 9999 OVC024 14/08 Q1016
VRMH 300000Z 32013KT 9999 SCT017TCU BKN120 27/25 Q1007
K33N 011215Z AUTO 36004KT 1SM BR OVC005 22/22 A2998 RMK A01
CWZV 011200Z AUTO 31020KT 12/ RMK AO1 PK WND 31024/1155 SLP183 T0122 50002
ROIG 011200Z AUTO 15006KT 9999 SCT014 BKN029 BKN140 28/27 Q1008
KEUG 011154Z AUTO 21006KT 10SM CLR 17/14 A2998 RMK AO2 SLP149 T01720139 10222 20172 58000
NZWN 011200Z 36016KT 9999 NCD 11/06 Q1022 NOSIG RMK KAUKAU 36030KT AUTO VATSIM U
SASJ 011200Z 30004KT 270V330 CAVOK 12/05 Q1017 RMK PP000
YSMH 011231Z AUTO 15005KT 9999 // SCT008 OVC075 17/16 Q1019
EFSA 011220Z AUTO 22004KT 150V270 CAVOK 23/12 Q1014
KHMZ 011215Z AUTO 00000KT 7SM OVC004 18/18 A3005 RMK AO2 T01840180
OIFK 011100Z 36006KT 9999 FEW040 39/08 Q1008
CYMO 011212Z AUTO 07011KT 1 1/4SM RA BR BKN007 OVC012 13/13 A2965 RMK PRESFR PCPN 1.2MM PAST HR SLP042 DENSITY ALT 200FT
KNDZ 011156Z 00000KT 10SM FEW019 FEW050 SCT250 25/24 A3016 RMK AO2 SLP195 T02500239 10256 20228 53010 $
MKJP 011200Z 33007KT 9999 FEW022CB 27/23 Q1016
CXNP 011200Z AUTO 22006KT 19/15 RMK AO1 SLP157 T01940151 53002
PAMB 011226Z AUTO 24015G21KT 7SM FEW008 BKN036 OVC045 10/09 A2978 RMK AO2 RAE02 P0000 $
KW96 011235Z AUTO 00000KT 10SM BKN005 OVC011 24/23 A3002 RMK AO1 T02360229
URRP 011200Z 13007MPS 9999 FEW/// 36/15 Q1007 R05/CLRD70 TEMPO 14009G15MPS RMK QFE750/1001
CYQZ 011200Z AUTO 00000KT 9SM FEW100 SCT120 16/14 A2984 RMK SLP105 DENSITY ALT 2500FT
KPVE 011215Z AUTO 20004KT 7SM BKN005 BKN024 OVC085 23/23 A3011 RMK A01
KHSP 011215Z AUTO 26005KT M1/4SM -RA OVC002 19/19 A3018 RMK AO2 T01900190
KPWA 011153Z 19013KT 10SM SCT120 28/16 A2999 RMK AO2 SLP134 70003 T02830156 10283 20272 53004
K15M 011215Z AUTO 00000KT 7SM FEW004 OVC049 23/23 A3016 RMK AO2 T02280228 $
OOSA 011150Z 18012KT 9000 BKN025 27/23 Q1004 NOSIG
KFRR 011235Z AUTO 00000KT 10SM SCT004 SCT012 20/20 A3004 RMK AO1
KCCA 011215Z AUTO 00000KT 1/4SM FG OVC003 23/23 A3008 RMK AO2
KHZX 011215Z AUTO 31009G14KT 10SM SCT018 OVC025 17/13 A2987 RMK AO2
KVVV 011215Z 33005KT 10SM 16/14 A2994 RMK AO2
LIEO 011220Z 06010KT 030V100 CAVOK 33/19 Q1014
LEBG 011200Z 08002KT CAVOK 30/13 Q1021
KBTP 011232Z AUTO 19004KT 5SM HZ OVC004 A3004 RMK AO2 FZRANO TSNO $
SCRD 312200Z 25003KT CAVOK 13/08 Q1019
K28J 011215Z AUTO VRB06KT 9SM CLR 25/23 A3019 RMK AO2
OOAD 011150Z 12006KT 030V150 8000 NSC 39/20 Q1001 NOSIG
KLHX 011153Z AUTO 25005KT 10SM CLR 16/09 A3013 RMK AO2 SLP139 T01610094 10217 20150 55001
CYFO 011200Z 29005KT 15SM FEW120 FEW220 12/11 A2991 RMK AC1CC1 AC TR CC TR SLP138 DENSITY ALT 1000FT
MHTE 312300Z 07006KT 8000 VCSH BKN028TCU FEW040CB BKN080 30/25 Q1011
KPAN 011215Z AUTO 00000KT 10SM SCT110 18/16 A3028 RMK AO2 PWINO
KHRL 011152Z 12004KT 10SM CLR 24/23 A3003 RMK AO2 SLP167 T02440233 10256 20233 53005
KSUE 011156Z AUTO 18003KT 9SM OVC023 20/20 A2971 RMK AO2 SLP056 6//// 7//// T02000200 10222 20194 58005
KRME 011153Z 12004KT 10SM FEW065 20/16 A3000 RMK AO2 SLP155 T02000161 10200 20156 58005
CYYL 011200Z AUTO 27003KT 9SM CLR 10/10 A2990 RMK SLP138
KMRC 011210Z AUTO 21007KT 10SM FEW042 BKN055 BKN065 23/23 A3011 RMK A01
KAQV 281857Z AUTO VRB04KT 10SM FEW050 36/21 A2999 RMK AO2 SLP149 T03560211
KLWC 311152Z AUTO 13003KT 1 1/2SM BR BKN002 OVC028 21/21 A3005 RMK AO1 SLP168 T02110206 10217 20206 55000
K1DW 011158Z AUTO 27007KT 10SM CLR 16/11 A3014 RMK AO2 SLP139 T01550111 10198 20149 56009 $
RJEC 011100Z 16013KT 9999 -SHRA FEW003 SCT045 BKN130 18/17 Q1012
LFOJ 011230Z AUTO 27007KT 230V310 9999 FEW038 BKN170 BKN210 24/15 Q1019 NOSIG
SBGL 011200Z 32003KT 260V020 9999 FEW030 20/15 Q1019
KAPA 011153Z 25007KT 10SM SCT220 20/08 A3021 RMK AO2 SLP152 T02000083 10206 20167 55003
K4V0 301800Z AUTO 34005KT 10SM CLR 28/09 A3020 RMK AO2 LTG DSNT S T02840092
VIDN 021000Z 06006KT 3000 TS SCT020 FEW040CB BKN060 29/23 Q1000
KX07 011215Z AUTO 12004KT 9SM CLR 26/26 A3020 RMK A01
EPWR 011230Z 29010KT 9999 FEW036TCU 25/16 Q1014
KBPG 011215Z AUTO 17011KT 10SM CLR 25/14 A3011 RMK AO2 T02480139
KGLY 011215Z AUTO 19004KT 8SM CLR 24/23 A3001 RMK AO2
LERL 280900Z 29005KT 250V330 CAVOK 28/09 Q1015
OITU 011050Z 11008KT 9999 FEW040 32/12 Q1010
YFBS 011230Z AUTO 03004KT //// // ////// 02/02 Q1020
PAVL 011227Z AUTO 34004KT M1/4SM FG VV002 05/04 A2988 RMK AO2 T00500044 TSNO $
KGIC 011215Z AUTO 12003KT 10SM CLR 18/08 A2999 RMK AO1
CYVT 011200Z AUTO 15003KT 9SM OVC081 13/09 A2992 RMK SLP141 DENSITY ALT 1500FT
CWWB 011200Z AUTO 23002KT 23/19 RMK AO1 SLP128 T02270190 58009
CXBK 010400Z AUTO 12007KT 19/17 RMK AO1 SLP121 T01930173 58010
YOLD 011230Z AUTO 02009KT 9999 // NCD 13/02 Q1017
KFET 011215Z AUTO 00000KT 10SM CLR 21/18 A2998 RMK AO2 T02060180
SBNM 011200Z 12006KT CAVOK 12/11 Q1017
LSZS 011220Z 02005KT 350V070 9999 FEW070 22/04 Q1023 RMK O TL170
KMLE 011215Z AUTO 00000KT 10SM CLR 22/18 A2998 RMK AO2 T02170180
MGRT 011200Z 00000KT CAVOK 22/21 Q1014 A2994 FEW200 VOL. SANTA MARIA Y SANTIAGUITO EN ACTIVIDAD
OEAB 011200Z 20014KT 9999 BKN020 FEW025CB 23/16 Q1018 NOSIG
SVBC 011203Z AUTO 10002KT NCD 25/25 Q1014
YSOL 011230Z AUTO 33011KT 9999 // NCD 21/15 Q1012
KMYF 011153Z AUTO 02004KT 10SM OVC120 21/19 A2999 RMK AO2 SLP150 T02060189 10222 20206 56008
PASD 011156Z AUTO 23009G18KT 10SM OVC021 12/08 A2998 RMK AO2 PK WND 23027/1105 SLP154 6//// 7//// T01170083 10122 20111 55001 PNO $
GOOG 011200Z 28008KT 9999 BKN015 32/24 Q1011
RKSO 011156Z AUTO 11010KT 10SM OVC050 29/27 A2968 RMK AO2 SLP054 T02920266 10321 20291 53006 TSNO $
KY63 011215Z AUTO 34005KT 10SM SCT002 14/14 A2995 RMK AO2 T01380138
CWSW 010100Z 17005KT 130V230 20SM FEW110 32/04 A2988 RMK AC1 AC TR LAST STFD OBS/NXT 011300Z SLP092 DENSITY ALT 6700FT
KMKN 280730Z AUTO 19013G16KT 10SM CLR 28/20 A2997 RMK AO2
UWOO 011200Z 33005MPS 9999 BKN040CB 29/12 Q1010 R26/////// NOSIG RMK QFE747/0996
KMHT 011153Z 18005KT 10SM SCT060 BKN120 BKN200 22/17 A2999 RMK AO2 SLP165 T02220172 10228 20211 58003
ENQC 011220Z AUTO 21012KT 9999NDV /// 15/08 Q1015 W///S3
KRGK 011215Z AUTO 30005KT 10SM SCT038 19/16 A2984 RMK AO2
EFKI 011220Z AUTO 31004KT 290V350 9999 VCSH //////CB 21/13 Q1012
KLXN 011215Z AUTO 00000KT 5SM BR CLR 18/18 A3002 RMK AO2 T01810176
KFFZ 011154Z AUTO 17007KT 10SM CLR 29/19 A3000 RMK AO2 SLP130 60000 T02890194 10311 20289 53001 TSNO
SBCO 011200Z 00000KT 0200 R31///// R13/0700 FG BKN001 OVC005 12/12 Q1018
VADU 011200Z 25015KT 6000 SCT025 30/27 Q1004 NOSIG
LTBF 011150Z 01013KT 340V040 9999 FEW035 32/18 Q1008 NOSIG
LIPE 011220Z VRB03KT CAVOK 35/11 Q1013
KLIT 011153Z 16003KT 10SM BKN110 OVC250 24/23 A3008
YMEK 011230Z AUTO 32015KT 6000 RA SCT011 SCT023 BKN030 15/13 Q1006
CWDJ 011200Z AUTO 06005KT 17/15 RMK AO1 0000 SLP115 T01720152 50026
VOMY 011200Z 24004KT 8000 SCT015 27/22 Q1006
AGGH 011200Z 14006KT 9999 FEW015 FEW016CB 26/24 Q1011 RMK CB ASSW SH TO S/SW/N/ LTNG SEEN
GABS 011200Z 27007KT 240V300 9999 BKN020 FEW025TCU 29/22 Q1015 NOSIG
KELA 011215Z AUTO 00000KT 10SM CLR 24/23 A3007 RMK AO2 T02420230
KNPA 011056Z 20007KT 10SM SCT027 28/23 A3013 RMK SLP203 TCU DSNT W T02830233
URWW 011200Z 03004MPS CAVOK 33/12 Q1010 R24/010070 NOSIG
DAUT 011200Z 10012KT CAVOK 42/05 Q1012
SBLS 011200Z 13007KT 070V130 9999 FEW030 19/15 Q1023
CWEW 011200Z AUTO 22006KT 21/18 RMK AO1 SLP137 T02140182 58007
CYVP 011200Z 29008KT 210V310 15SM FEW020 SCT070 12/07 A2982 RMK CU2AC1 SLP101
LGAD 011220Z 29009KT 9999 FEW025 32/22 Q1008
KPIE 011153Z 15007KT 10SM CLR 27/25 A3016 RMK AO2 SLP214 T02670250 10278 20256 51005
KMHK 011152Z 00000KT 10SM CLR 22/21 A2998 RMK AO2 SLP140 T02220206 10261 20211 51005
PAIL 011153Z AUTO 17005KT 10SM FEW044 BKN065 OVC080 12/11 A2981 RMK AO2 SLP095 T01220111 10139 20111 56018 TSNO
KDUJ 011227Z AUTO 23004KT 1 1/2SM BR OVC002 18/17 A3005 RMK AO2 T01780167 $
HTAR 011100Z 12015KT 9999 BKN032 23/13 Q1023 NOSIG
SARF 021200Z 14005KT CAVOK 17/12 Q1014
EGVO 011220Z 33005KT 9999 FEW032 23/14 Q1018 NOSIG RMK BLU BLU
KLVN 011215Z AUTO 30005KT 10SM CLR 18/14 A2988 RMK AO2
PHMK 011229Z AUTO 03009G16KT 10SM FEW017 SCT027 SCT032 24/19 A3007 RMK AO2 T02390194 TSNO
PKWA 011220Z AUTO 08010KT 10SM SCT020 BKN049 OVC060 27/24 A2985 RMK AO2 P0001 T02680242
KALK 011156Z AUTO 14004KT 10SM CLR 18/16 A3024 RMK AO2 SLP151 70002 T01780161 10200 20178 57004
KEGT 011215Z AUTO 03005KT 10SM CLR 23/21 A2998 RMK AO2 T02290215
YPAG 011230Z AUTO 32005KT 9999 // NCD 08/02 Q1017
KOKK 011234Z AUTO 21011KT 4SM VCTS HZ OVC008 A2993 RMK AO2 LTG DSNT SW TSB28 FZRANO $
KANB 011153Z AUTO 00000KT 10SM BKN100 23/22 A3018 RMK AO2 SLP211 T02280217 10233 20217 53009
KDVL 011156Z AUTO 25005KT 10SM BKN110 16/14 A2996 RMK AO2 SLP158 T01560144 10161 20122 53005
KPWM 011151Z 00000KT 10SM BKN150 22/17 A2998 RMK AO2 SLP153 T02170167 10217 20172 58003
KAOH 011200Z AUTO 20009KT 6SM BR BKN006 OVC038 21/19 A2996 RMK AO2 CIG 005V010 T02110189
SBSL 011200Z 08007KT 9999 SCT020 29/26 Q1014
VOHB 011200Z 01004KT 8000 SCT012 SCT018 BKN080 29/24 Q1006
KLGF 011158Z AUTO 24004KT 10SM BKN160 28/24 A2994 RMK AO2 SLP135 T02820235 10320 20282 53005 TSNO $
CYGP 011200Z 07003KT 15SM SCT070 BKN080 21/18 A2986 RMK AC3AS4 HZ E SLP114 DENSITY ALT 1000FT
EFTP 011220Z 15005KT 120V190 CAVOK 23/09 Q1012
K27K 312355Z AUTO 00000KT 10SM OVC029 22/20 A3010 RMK AO1
EHDV 011225Z AUTO 16009KT 9999 NSC 16/// Q1019
TLPL 011200Z 07020KT 9999 FEW027 29/24 Q1015 NOSIG
EGHQ 011220Z 27010KT 230V300 9999 FEW020 20/15 Q1020
SCVM 011200Z 08003KT 020V100 4000 BR BKN009 OVC019 08/08 Q1018
KABQ 011152Z 02004KT 10SM SCT130 BKN170 21/16 A3026 RMK AO2 SLP166 70011 T02110156 10239 20211 53004 $
RJSN 011200Z VRB02KT 9999 FEW040 SCT150 BKN/// 30/24 Q1012
KABR 011225Z AUTO 00000KT 1/4SM FG VV001 14/14 A2996 RMK AO2 T01440139
WMKP 011200Z VRB02KT 8000 FEW025 29/25 Q1006 NOSIG
DAON 011200Z 34006KT CAVOK 33/21 Q1016
YHOT 011230Z AUTO 32007KT 9999 // OVC013 02/01 Q1014
LEBT 011200Z AUTO 14002KT CAVOK 32/20 Q1017
KMZJ 312250Z AUTO 27014KT 10SM 33/20 A3000 RMK AO2
CWKH 011200Z AUTO 20/10 RMK AO1 SLP115 T01960098 51004
UBBY 011200Z 14004KT 9999 FEW050 32/18 Q1011 NOSIG RMK MT OP
EGYP 011220Z 30011KT 9999 FEW040 BKN250 04/M01 Q1014 NOSIG
KTVY 011215Z AUTO 20010KT 10SM SCT120 25/13 A3011 RMK AO2
LIVM 011155Z 11008KT CAVOK 30/21 Q1015 RMK SKC QUK 0 QUL 0 VIS MAR 12 KM VIS MIN 9999
K6R6 011151Z AUTO 11009KT 25/16 A3010 RMK AO1 SLP150 T02500161 10294 20250 53003
KSFO 011156Z 30011KT 10SM FEW003 SCT006 BKN150 15/13 A3001 RMK AO2 SLP163 T01500133 10161 20150 51006 $
KL18 011235Z AUTO 00000KT 10SM SCT120 20/18 A3000 RMK AO2
YWGT 011230Z AUTO 36007KT 9999 // BKN074 10/06 Q1018
CWYL 011200Z AUTO 11001KT 11/ RMK AO1 SLP115 T0110 58005
SPRU 011200Z 12004KT 5000 BR OVC004 15/14 Q1015 RMK PP000
FALW 011200Z AUTO 16004KT //// // ////// 19/01 Q1024
KMAO 011215Z AUTO 24009KT 10SM SCT120 25/22 A3013 RMK AO2
CXGH 011200Z AUTO 25005KT RMK AO1 56003
RODE 011159Z AUTO 15008KT FEW015 SCT021 27/27 A2982 RMK AO2 SLP139 60000 70075 T02720272 10294 20272 53009 $
CZFN 292300Z 12003KT 050V160 20SM BKN043 BKN140 BKN220 18/07 A3004 RMK SC5AC1CC1 CU ASOCTD DIST SHRA N LAST STFD OBS NEXT 021500 SLP177 DENSITY ALT 600FT
KJQF 011235Z AUTO 24004KT 10SM SCT100 26/21 A3013 RMK AO2
KGDB 011215Z AUTO 28004KT 10SM CLR 16/16 A2995 RMK AO2 T01640157
CYLA 292100Z 14010KT 15SM FEW040 23/10 A2952 RMK CU1 LAST OBS/NEXT 301200UTC WIND ESTD SLP000 DENSITY ALT 1600FT
SPJL 011200Z 29002KT CAVOK M00/M10 Q1035 RMK TX18.9/TNM5.1 PP000
EGOM 011220Z AUTO 24012KT 9999 OVC025/// 18/11 Q1016
SECO 011200Z 17003KT 5000 BCFG FEW005 BKN016 BKN100 23/23 Q1014 RMK A2994
KMEH 011156Z AUTO 00000KT 10SM CLR 12/09 A3005 RMK AO2 SLP143 T01170089 10183 20117 53000
KOGD 011153Z AUTO 17007KT 10SM CLR 24/08 A3012 RMK AO2 SLP124 T02390083 10278 20233 51005
DTTL 011200Z 03005KT 350V120 9999 FEW020 32/23 Q1013
LFRK 011230Z AUTO 31010KT 250V350 9999 BKN043 25/14 Q1020 NOSIG
KPMP 011153Z 13008KT 10SM FEW023 FEW030 29/24 A3016 RMK AO2 SLP213 60000 70002 T02940244 10294 20272 53001 $
K17J 011215Z AUTO 00000KT 10SM CLR 24/23 A3018 RMK AO2 T02390233
CXDB 011200Z AUTO 30011KT 14/14 RMK AO1 T01350144
ENAL 011220Z 26010KT 230V290 9999 SCT024TCU 15/08 Q1014
VOTP 011200Z 07012G22KT 5000 VCSH SCT015 FEW020CB SCT080 33/22 Q1000 NOSIG
KDPL 011215Z 7SM BR CLR 25/24 A3010 RMK AO2
KSRQ 011153Z 13007KT 10SM CLR 26/24 A3015 RMK AO2 SLP210 T02610239 10278 20250 53006
KCSQ 011215Z AUTO 36005KT 10SM CLR 22/19 A2997 RMK AO2
TFFR 011230Z AUTO 09009KT 050V140 9999 SCT024 BKN029 BKN056 30/24 Q1016 NOSIG
WAJJ 011230Z 00000KT 9999 FEW014 26/23 Q1008 NOSIG
SCAP 011200Z AUTO 09004KT 7000 ////// M01/M02 Q1022
KFYE 011215Z AUTO 18005KT 10SM FEW055 OVC090 24/24 A3010 RMK A01
KMOB 011156Z 00000KT 10SM FEW015 SCT050 27/24 A3016 RMK AO2 SLP210 CB DSNT SE-S T02670239 10272 20244 53013
MMMX 011150Z 08003KT 10SM FEW020 SCT080 BKN220 13/09 A3041 NOSIG RMK SLP147 52002 900 8/538
MPDA 011200Z 02003KT 9999 FEW016 SCT100 23/22 Q1010
EGCN 011220Z VRB06G26KT 9999 FEW049 22/09 Q1018
CYSN 011200Z 19010G16KT 15SM FEW060 23/20 A2991 RMK SC1 SC TR SLP128 DENSITY ALT 1400FT
K54J 011215Z AUTO 00000KT 10SM CLR 25/23 A3019 RMK AO2 T02490233
PARC 011156Z AUTO 30006KT 10SM -RA OVC060 10/09 A2989 RMK AO2 SLP143 P0002 60007 70007 T01000094 10144 20100 58007
KUIL 011231Z AUTO 25003KT 2SM BR OVC003 14/13 A2997 RMK AO2 T01390133
KCLI 152035Z AUTO 12006KT OVC014 20/17 A3008 RMK AO2 PWINO T01990173
OICK 011100Z 34004KT 9999 FEW045TCU FEW050 42/04 Q1007
VAAU 011200Z 29005KT 6000 FEW020 SCT025 32/21 Q1005 NOSIG
CXBI 011200Z AUTO 21002KT 19/16 RMK AO1 SLP129 T01900158 58010
K65S 011215Z AUTO 00000KT 10SM CLR 14/05 A2989 RMK AO2
KGPT 011153Z 31003KT 10SM CLR 27/24 A3012 RMK AO2 SLP199 T02720244 10289 20272 51008
MMLM 010144Z 25008KT 10SM SCT220 31/19 A2992 RMK 8/001
KSTS 011153Z AUTO 00000KT 9SM OVC007 16/13 A3000 RMK AO2 SLP152 T01560133 10167 20150 51002
OIBH 011200Z 24012KT 9999 FEW030TCU 38/29 Q0998 A2947
CXHA 011200Z AUTO 23007KT 22/19 RMK AO1 SLP115 T02200192 56014
NZWP 011200Z 02003KT 9999 NCD 07/06 Q1028 NOSIG RMK AUTO NZAA VATSIM USE ONLY
SLRQ 011200Z 00000KT 9999 SCT020 FEW023CB BKN070 22/22 Q1013
DRZA 011200Z 26010KT CAVOK 33/20 Q1012
KHSE 011151Z AUTO 25009G17KT 6SM BR CLR 27/26 A3007 RMK AO2 SLP183 T02720256 10272 20261 51006
KHMT 011215Z AUTO 00000KT 10SM BKN100 OVC110 23/09 A3003 RMK AO2 T02290088
EGNJ 011220Z 23008KT 180V330 9999 FEW041 22/09 Q1018
KMPV 011151Z AUTO 00000KT 10SM SCT001 18/17 A3004 RMK AO2 SLP170 T01830167 10183 20150 58006
RJAK 312326Z 25004KT 200V310 9999 FEW030 SCT180 BKN250 30/25 Q1014 RMK 1CU030 3AC180 5CI250 A2994
KFFL 011215Z AUTO 29006KT 9SM CLR 23/22 A2993 RMK A01
UUEE 011200Z 06004MPS CAVOK 24/09 Q1017 R06R/CLRD62 R06L/CLRD62 NOSIG
SBIZ 011200Z 10005KT 9999 SCT023 25/24 Q1015
LSZG 011220Z VRB03KT 9999 FEW060 29/12 Q1017
MGSJ 011200Z 00000KT CAVOK 23/22 Q1012 A2988
LIBQ 011155Z 05005KT 9999 FEW006 18/06 Q1022
LERS 011200Z 14008KT 080V210 9999 FEW045 32/22 Q1016
KECS 011215Z AUTO 00000KT 10SM CLR 17/07 A3006 RMK AO2
ENBO 011220Z 03005KT 350V060 9999 FEW009 BKN100 17/14 Q1006 TEMPO 26020KT
VAPR 011100Z 25014KT 6000 SCT015 SCT025 BKN080 30/25 Q1004 TEMPO 3000 DZ
MNJG 312300Z 32006KT 9999 SCT012 24/18 Q1011
CWVP 011200Z AUTO 36007KT 17/10 RMK AO1 SLP099 T01680100 50005
EKVD 011150Z 29013KT 260V330 9999 FEW037 19/10 Q1016
KOIC 011235Z AUTO 15003KT 10SM CLR 20/17 A3004 RMK AO2 T01980174
KK88 011215Z AUTO 16006KT 10SM CLR 23/21 A3000 RMK AO1 T02270214
MKJS 011200Z 08007KT 9999 FEW022 29/25 Q1016
KFWC 011215Z AUTO 20005KT 10SM CLR 23/23 A3002 RMK AO1 LTG DSNT N T02320225
KITR 011131Z 22006KT 10SM CLR 18/17 A3011
CWGZ 010500Z 24002KT 15SM SCT047 OVC200 03/01 A2987 RMK SC4CS4 CALL-OUT SLP120
OIKO 011100Z 24008KT 7000 NSC 40/21 Q0998
KVCT 011151Z 20003KT 10SM CLR 25/24 A3006 RMK AO2 SLP178 T02500239 10261 20244 53006
ENSE 011220Z AUTO 23016KT 9999NDV FEW019/// 14/10 Q1014 W///S/
YMOR 011233Z AUTO 05006KT 9999 // OVC009 11/10 Q1020
CPST 011200Z AUTO 01008KT 14/14 RMK AO1 T01400136
KDEH 240335Z AUTO VRB05KT 10SM FEW050 SCT060 BKN075 22/22 A2972 RMK AO2
KHWY 011215Z AUTO 00000KT 10SM SCT006 22/21 A3003 RMK AO2 T02210206
ZYTX 011200Z 22001MPS CAVOK 27/26 Q1005 NOSIG
KOFP 011154Z AUTO 27003KT 10SM OVC007 23/23 A3003 RMK AO2 CIG 005V011 SLP169 70030 T02330228 10239 20228 53007
KBRY 011235Z AUTO 22005KT 10SM SCT010 BKN021 OVC033 22/22 A3006 RMK AO1
KMQS 011215Z AUTO 00000KT 1 3/4SM BR OVC002 19/19 A3003 RMK AO2
KBCE 011153Z AUTO 28004KT 10SM CLR 11/09 A3042 RMK AO2 SLP190 T01060094 10150 20106 53001 $
EGMD 011220Z 09010KT 060V130 9999 FEW020 22/18 Q1019
KMWO 011215Z AUTO 22007KT 7SM HZ OVC007 22/ A3001 RMK AO2 T0216////
FMEP 011200Z AUTO 16004KT 120V200 9999 OVC072 24/17 Q1020 NOSIG
LEBL 011200Z 21010KT 9999 FEW040 32/20 Q1016 NOSIG
YKMP 011230Z AUTO 26002KT //// // ////// 08/08 Q1018
CXIB 011200Z AUTO 25004KT 26/19 RMK AO1 SLP142 T02570187 51001
LFBM 011230Z AUTO 32004KT 260V050 CAVOK 32/15 Q1018 NOSIG
FNLU 011000Z 12007KT 9999 SCT020 BKN080 23/18 Q1016 NOSIG
KY49 011215Z AUTO 30010KT 10SM OVC009 13/13 A2992 RMK AO2 T01320125
KEST 011210Z AUTO 34004KT 10SM BKN010 18/16 A2996 RMK AO2 T01780161
SBSR 011200Z 07007KT 9999 BKN045 22/07 Q1019
KNHK 011152Z 27007KT 10SM SCT020 BKN040 BKN100 25/22 A2999 RMK AO2 SLP155 70002 T02500222 10256 20250 51005 $
EGPC 011220Z 15011KT 9999 FEW037 15/09 Q1013
KAAS 011215Z AUTO 25008KT 10SM OVC007 22/09 A3014 RMK AO1
CWXR 011200Z AUTO ///// ////SM ////// ///// A////
KFEP 011215Z AUTO 25008KT 10SM CLR 21/21 A2985 RMK AO2 T02130212
NVSL 010900Z AUTO 08013KT //// // NCD 25/23 Q1013
KIJD 011152Z AUTO 00000KT 10SM OVC075 21/19 A3004 RMK AO2 SLP169 60009 70009 T02060194 10217 20194 56009
SBJP 011200Z 15009KT 9999 BKN020 26/23 Q1016
YKLC 011230Z AUTO 26003KT 9999 // NCD 27/09 Q1012
KLBE 011147Z 24007KT 10SM OVC010 19/19 A3006
KJSY 011215Z AUTO 10SM CLR 17/06 A3008 RMK AO2 T01710060 TSNO
MMDO 011017Z RTD 00000KT 6SM SKC 14/14 A3031 RMK RTS
KPAO 010347Z 34009KT 10SM BKN120 18/15 A2998 RMK LAST
CYOW 011200Z 20007KT 15SM FEW008 FEW059 SCT085 20/18 A2992 RMK SF1SC1ACC2 SF TR SLP133 DENSITY ALT 1100FT
KTHV 011222Z AUTO 33004KT 10SM SCT011 OVC033 21/18 A3002 RMK AO2 T02060183
CYCD 010400Z 29002KT 30SM FEW250 25/16 A2985 RMK CI1 LAST STFD OBS/NEXT 011300Z SLP108 DENSITY ALT 1400FT
OIKB 011230Z 17010KT 6000 NSC 38/26 Q0997 A2946
KLCI 011156Z AUTO 00000KT 10SM CLR 21/18 A3001 RMK AO2 SLP159 70001 T02060183 10211 20194 58005
FNCA 011000Z 18007KT 9999 BKN015 26/19 Q1016
CYTZ 011200Z AUTO 08003KT 050V150 9SM CLR 20/17 A2991 RMK SLP129 DENSITY ALT 900FT
UAAT 011200Z 17005MPS 140V200 9999 SCT050CB BKN200 28/08 Q1005 NOSIG RMK QFE703/0937
VTCH 011200Z VRB02KT 9999 VCSH FEW018 FEW020CB BKN025 29/24 Q1002 TEMPO 4000 TSRA
KS25 011215Z AUTO 12012KT 10SM CLR 18/17 A2990 RMK AO2
CXSL 011200Z AUTO 12004KT 11/11 RMK AO1 T01120110
PASV 011155Z AUTO 33001KT 10SM BKN070 11/08 A2978 RMK AO2 RAB1112E1127SHRAB1127E1139 SLP081 P0001 60001 70013 T01070081 10114 20093 57027 $
CXAF 011200Z AUTO 15002KT 10/10 RMK AO1 4PAST HR M P0002 T01020101 50004
KJST 011226Z AUTO 27006KT 9SM SCT003 18/16 A3007 RMK AO2 T01830161
UBBF 011230Z 10006KT 9999 SCT100 32/17 Q1008 NOSIG RMK MT OP
EHAM 011225Z 01005KT 290V100 9999 FEW035 21/11 Q1019 NOSIG
KJMR 011215Z AUTO 29004KT 10SM OVC028 18/15 A2987 RMK AO2
KAEG 011150Z 36004KT 10SM CLR 19/13 A3030
K96D 011235Z AUTO 00000KT 10SM -RA FEW075 16/16 A2992 RMK AO2
VTCL 011200Z 22006KT 9999 BKN025 29/23 Q1003 NOSIG
UTAK 011200Z 32014KT 9999 FEW033 SCT200 33/14 Q1007 R34L/CLRD70 NOSIG
SGGA 242300Z 09008KT 9000 NSC 28/17 Q1012
OEMA 011200Z 33006KT CAVOK 43/00 Q1004 NOSIG
KVUO 011153Z AUTO VRB03KT 10SM CLR 21/13 A2995 RMK AO2 SLP143 T02060128 10267 20206 53015
DTTR 011200Z 31005KT CAVOK 40/09 Q1014 SIROCCO
ULMM 011200Z 13001MPS 9999 SCT031 19/12 Q1012 R13/090070 NOSIG RMK QFE752
LFSX 011230Z AUTO 33005KT 260V030 CAVOK 29/13 Q1017
CWOB 011200Z AUTO 04004KT 350V090 ////SM NCD ///// A////
LIPX 011220Z 28004KT 200V010 CAVOK 33/14 Q1013
LPAZ 011200Z VRB06KT 9999 FEW026 BKN040 26/15 Q1024
CXFR 011200Z AUTO 06009KT 14/14 RMK AO1 T01360136
ESGP 011220Z 25010KT 220V280 9999 FEW020 19/12 Q1011
KACP 011215Z AUTO 00000KT 7SM CLR 23/22 A3011 RMK AO2
GVNP 011200Z 26003KT 9999 BKN020 27/19 Q1013 NOSIG
CYKY 011200Z 02004KT 300V050 10SM FEW040 BKN110 BKN160 15/15 A2991 RMK CU1AC5AC1 VIRGA N-NE BR SLP129 DENSITY ALT 2900FT
ORSU 011200Z 22011KT 9999 FEW045 44/03 Q1006
LEAL 011200Z 10008KT 050V170 CAVOK 32/20 Q1017 NOSIG
WMAU 011200Z VRB03KT 9000 SCT025 25/24 Q1007
UUWW 011200Z 11004MPS 070V150 CAVOK 25/08 Q1017 R19/000070 NOSIG
UWLW 011200Z 02006MPS CAVOK 26/12 Q1015 R02/CLRD60 NOSIG RMK QFE754/1006
PAKF 011156Z AUTO 00000KT 10SM BKN040 OVC050 07/07 A2996 RMK AO2 SLP146 T00720067 10122 20061 53014
KLND 011153Z AUTO 14003KT 10SM CLR 21/03 A3017 RMK AO2 SLP133 T02060033 10244 20183 55000
KOWI 011215Z AUTO 4SM BR CLR 23/23 A2999 RMK AO2 PWINO
KMGN 011215Z AUTO 20006KT 5SM +RA BKN019 BKN039 OVC060 20/18 A2973 RMK AO2 T01980186
KPZZ 011215Z AUTO 17008KT 9SM 29/24 A3012 RMK A01
KHVN 011153Z 00000KT 10SM FEW049 BKN060 OVC080 22/20 A3001 RMK AO2 RAE1054 SLP163 P0000 60055 70055 T02220200 10244 20211 58014
CWBS 011200Z AUTO 21013KT 21/19 RMK AO1 T02110186
KFTY 011153Z 23003KT 10SM SCT100 23/22 A3018 RMK AO2 RAB17E26 SLP208 P0000 60000 T02280217 10233 20217 53006
RCSS 011200Z 11004KT 9999 FEW018 BKN150 30/24 Q1006 NOSIG RMK A2973
ENHK 011220Z 28008KT CAVOK 15/11 Q1011
K8A0 011215Z AUTO 25004KT 10SM SCT009 SCT016 BKN085 23/21 A3019 RMK AO2
YEWA 011230Z AUTO 32010KT 9999 -RA SCT066 OVC095 20/17 Q1011
OISL 011200Z 10010KT 9999 FEW035CB BKN040 30/20 Q1003 A2964 TEMPO SHRA
K0S9 011215Z AUTO 13004KT 10SM CLR 13/12 A2991 RMK AO2 PWINO
CWNQ 011200Z AUTO 35007KT 22/18 RMK AO1 SLP128 T02170179 58005
LFBZ 011230Z AUTO 32010KT 290V010 CAVOK 24/18 Q1020 NOSIG
KMVH 011225Z AUTO 33009G15KT 10SM CLR 22/03 A3000 RMK AO2 PWINO
YTIB 011230Z AUTO 13005KT //// // ////// 11/// Q1019
KDUX 011215Z AUTO 22006KT 10SM CLR 23/19 A3009 RMK AO2 T02260193
NFNR 302100Z 10008KT 9999 SCT023 BKN045 29/25 Q1013
KBEC 011215Z AUTO 18004KT 10SM CLR 23/21 A2999 RMK AO2 T02290210
MMSD 011147Z 00000KT 6SM BKN200 26/22 A2996 RMK SLP128 5//// 956 8/008 AS
FJDG 011155Z 15010KT 9999 FEW027 SCT046 BKN200 26/22 A2984 RMK SLP102 70000 8/802 T02600216 10286 20260 56003
RJTY 011156Z AUTO 34005KT 10SM FEW090 OVC150 31/23 A2995 RMK AO2 LTG DSNT N SLP140 T03060230 10350 20305 52018 $
NZWR 011200Z 30003KT 19KM BKN250 07/06 Q1029 RMK AUTO VATSIM USE ONLY
KULS 011210Z AUTO 00000KT 2SM BR 19/19 A3003 RMK AO2 SKY OBSCURED
KMKT 011156Z AUTO 32006KT 10SM CLR 17/16 A2991 RMK AO2 SLP124 70009 T01670156 10217 20167 51005
CWZL 011200Z AUTO 29006KT 15/11 RMK AO1 SLP185 T01510110 56002
EIME 011200Z 20013KT 9999 FEW026 BKN043 OVC200 20/15 Q1015
CXHM 011200Z AUTO 24001KT 23/19 RMK AO1 SLP124 T02250190 58009
CWRA 011200Z AUTO 00028KT 19/16 RMK AO1 SLP144 T01850161 51014
KOLG 011215Z AUTO 31007KT 270V340 10SM OVC019 17/16 A2982 RMK AO1
EDDE 011220Z AUTO 32009KT 270V350 9999 SCT037 23/14 Q1017 NOSIG
GMAZ 011100Z 08008KT 9999 FEW040 41/M02 Q1018 NOSIG
ENNO 011220Z 31006KT 9999 FEW055 SCT070 22/06 Q1010
FAVV 270800Z AUTO 00000KT //// // ////// 13/06 Q////
KRBO 011215Z AUTO 00000KT 10SM CLR 25/23 A3005 RMK AO2 T02470230
CWPE 011200Z AUTO 16002KT 16/16 RMK AO1 SLP153 T01640161 58004
SBCF 011200Z 08007KT 9999 FEW025 20/14 Q1023
EGNO 011220Z 26009KT 220V290 9999 FEW032 20/12 Q1017
KGXF 011158Z AUTO 00000KT 10SM CLR 25/25 A2996 RMK AO2 SLP134 60006 70041 T02520246 10283 20252 51011 $
KHGR 011219Z 00000KT 7SM SCT003 OVC040 20/19 A3003 RMK AO2 T02000189 $
KJZP 011215Z AUTO 00000KT 10SM OVC100 22/22 A3024 RMK AO2 T02230219
FMSD 011200Z 24007KT 9999 SCT020 SCT033 26/20 Q1022
CZRP 011200Z AUTO 32013KT 05/02 RMK AO1 SLP147 T00480023 50001
KEGE 011156Z AUTO 00000KT 10SM CLR 13/07 A3039 RMK AO2 SLP181 7//// T01330072 10200 20133 53006
SEMT 011200Z 20007KT 9999 OVC020 22/19 Q1012 RMK A2991
VOMD 011230Z 16004KT 5000 BR FEW020 FEW025CB SCT100 28/23 Q1003 TEMPO 4000 RA
K5T9 011215Z AUTO 10006KT 10SM CLR 25/20 A3005 RMK A01
SBMG 011200Z VRB02KT CAVOK 19/13 Q1017
OPMT 011200Z 00000KT 5000 FU SCT040 BKN100 30/25 Q1000 TEMPO 36 025KT 2000 TSRA FEW030CB
SCSE 011200Z 08004KT 9999 OVC010 10/10 Q1017
OIHH 011100Z 30006KT 9999 SCT040 34/05 Q1013 A2992
SBSV 011200Z 14010KT 110V170 9999 FEW020 27/21 Q1019
LEAO 011200Z 07003KT 9999 FEW035 36/11 Q1017
KHRJ 011215Z AUTO 22009KT 10SM CLR 27/22 A3009 RMK AO2 T02660216
UTDT 011200Z 23003MPS 200V260 9999 FEW120 35/13 Q1001 R35/CLRD70 RMK QFE712/0949
KLCG 011215Z AUTO 00000KT 7SM CLR 16/15 A2998 RMK AO2 T01580146
LQTZ 011230Z 32007KT 270V030 9999 BKN050 29/12 Q1014
YWLG 011230Z AUTO 01003KT 9999 // NCD 06/04 Q1020
KRPX 011133Z AUTO 10SM 17/01 A2985 RMK Roundup
SBAX 011200Z AUTO 11010KT CAVOK 20/13 Q1022
YSNF 011230Z AUTO 08009KT 9999 // SCT050 14/10 Q1025
KANE 011158Z 31008KT 10SM OVC027 20/16 A2986
HETR 011200Z 30020KT 5000 SA NSC 34/23 Q1001
KHMN 011158Z VRB06KT 10SM CLR 25/14 A3015 RMK AO2A SLP122 ALSTG/SLP ESTMD WND DATA ESTMD
KTIP 011215Z AUTO 25008G16KT 10SM SCT100 SCT120 21/18 A2989 RMK AO2 LTG DSNT E AND SW T02060178
CYVV 011200Z 18010KT 15SM BKN040 BKN150 20/17 A2985 RMK SC6AC1 AC TR SLP107 DENSITY ALT 1600FT
KPAM 011156Z 09003KT 10SM CLR 26/24 A3016 RMK AO2A SLP216 T02570243 10257 20236 53012 $
SLAL 011200Z 00000KT 9999 NSC 07/M03 Q1029
KBTN 011215Z AUTO 00000KT 10SM CLR 14/14 A2995 RMK AO2
FQQL 011200Z 15013KT 9999 BKN020 26/18 Q1022
CWIX 011200Z AUTO 17001KT 20/17 RMK AO1 SLP103 T02010173 58002
EFOU 011220Z AUTO 16005KT 050V210 CAVOK 23/11 Q1011
VAKP 011000Z 29004KT 9000 SCT020 FEW025 SCT100 31/23 Q1007
KLHB 011215Z AUTO 00000KT 10SM CLR 25/22 A3009 RMK AO2 T02480220
TFFF 011230Z AUTO 11017KT 9999 BKN024 BKN032 BKN040 30/24 Q1015 TEMPO 09015G25KT 4000 SHRA SCT020TCU
ZSOF 011200Z 09002MPS CAVOK 30/26 Q1005 NOSIG
K04V 011215Z AUTO 32008KT 10SM 12/08 A3045 RMK AO2 PWINO
BIIS 011231Z 01014G27KT 290V070 9999 -RA FEW018 BKN025 OVC030 09/04 Q1008
KCQT 011147Z AUTO 00000KT 10SM CLR 20/18 A2998 RMK AO2 SLP149 T02000178 10211 20200 58010
KMEI 011158Z 00000KT 10SM CLR 23/22 A3016 RMK AO2 SLP209 T02330222 10244 20222 53013
BITN 011200Z 26014KT 9999 SCT009 OVC015 07/05 Q1001 RERA
KVPC 011215Z AUTO 00000KT 10SM BKN100 BKN120 23/22 A3018 RMK AO2
KMDZ 011215Z AUTO 30008KT 10SM OVC011 20/20 A2978 RMK AO2 T01950195 PWINO
KTYR 011153Z 18006KT 10SM CLR 26/22 A3008 RMK AO2 SLP178 T02560222 10289 20256 53008
KROG 010958Z 14004KT 10SM CLR 22/22 A3007
YMIN 011230Z AUTO 04010KT //// // ////// 08/06 Q1015
YTEM 011230Z AUTO 00000KT //// // ////// 02/02 Q1020
KSVC 011215Z AUTO 32006KT 10SM SCT120 22/16 A3026 RMK AO2 T02200157
SYMB 312100Z 06006KT 9999 SCT021 FEW022CB 29/25 Q//// NOSIG RMK CB S,W
KPRB 011153Z AUTO 31003KT 10SM CLR 21/12 A2999 RMK AO2 SLP147 T02110117 10244 20211 58001
LFRN 011230Z AUTO 34004KT 280V080 9999 BKN034 24/15 Q1020 NOSIG
SGVR 010900Z 00000KT CAVOK 15/13 Q1015
KSNY 011153Z AUTO 26007KT 10SM CLR 14/12 A3007 RMK AO2 SLP139 70001 T01440122 10189 20144 55008 $
OIKK 011200Z 18012KT 9999 SCT035CB BKN040 31/13 Q1012 A2991
KMPZ 011215Z AUTO 28005KT 10SM CLR 24/24 A2992 RMK AO2
YSCN 011230Z AUTO 20001KT 9999 // NCD 04/01 Q1018
EHVL 011225Z AUTO 36005KT 9999 OVC260 18/10 Q1020 BLU
KSLO 011215Z AUTO 22008KT 10SM SCT007 SCT011 SCT016 24/24 A3002 RMK AO2 LTG DSNT N T02410238
KADS 011147Z 19008G17KT 13SM SCT180 29/20 A3007
VEMN 011100Z 03004KT 5000 HZ FEW020 BKN100 30/24 Q1001 NOSIG
SEST 312200Z 14006KT 9999 FEW016 BKN050 23/20 Q1010 RMK A2983
YBKT 011230Z AUTO 21005KT 9999 // NCD 21/15 Q1013
LBWN 011230Z 28013KT 230V320 9999 SCT033 29/12 Q1008 NOSIG
KALS 011152Z AUTO 00000KT 10SM CLR 11/11 A3041 RMK AO2 SLP205 T01110106 10156 20100 55000
UBBL 011200Z 12013KT 9999 SCT100 30/22 Q1007 NOSIG RMK MT OP
EKCH 011220Z AUTO 30010KT 270V330 9999 OVC032/// 20/12 Q1014 NOSIG
ENHM 011220Z AUTO 21012KT 9999NDV SCT046/// BKN057/// 13/09 Q1016 W14/S/
KMMT 011156Z 23006KT 10SM BKN120 BKN250 23/23 A3013 RMK AO2A SLP203 T02340232 10234 20202 52010 $
EGNS 011220Z 20011KT 9999 FEW006 BKN008 BKN018 17/14 Q1016 NOSIG
MMEP 011144Z 00000KT 10SM BKN100 19/19 A3009 RMK SLP170 52007 900 8/030
KUUU 011153Z AUTO 28003KT 10SM CLR 21/19 A3004 RMK AO2 SLP169 60011 70011 T02110194 10222 20194 57008 $
LFCR 011230Z AUTO 33007KT 270V070 CAVOK 31/11 Q1019 NOSIG
MMPB 011130Z RTD 34003KT 7SM FEW020 SCT090 BKN230 12/09 A3040 RMK 8/572 HZY RTS
CYYC 011200Z 02011KT 4SM BR FEW008 SCT056 BKN084 16/14 A3001 RMK ST2SC2AC2 SLP151 DENSITY ALT 4500FT
KTAD 011154Z AUTO 26012KT 10SM CLR 15/10 A3023 RMK AO2 SLP155 T01500100 10189 20150 58000
PAPB 011153Z AUTO 1/2SM FG VV001 08/08 A2982 RMK AO2 SLP083 70005 T00830083 10089 20083 51029 TSNO $
BGJN 011150Z 02004KT 320V050 9999 FEW190 11/00 Q1006
YHLC 011230Z AUTO 00000KT 9999 // NCD 17/M02 Q1014
CYZT 011200Z 00000KT 15SM OVC012 16/15 A2999 RMK SC8 SLP157 DENSITY ALT 100FT
KBHK 011151Z AUTO 11008KT 10SM CLR 15/11 A2991 RMK AO2 SLP103 T01500111 10194 20144 56013
LDZA 011230Z VRB04KT CAVOK 32/13 Q1014 NOSIG
KRNH 011215Z AUTO 30009KT 10SM OVC029 19/15 A2986 RMK AO2 T01890147
KSBA 011153Z AUTO 00000KT 7SM OVC004 17/16 A2999 RMK AO2 SLP156 T01720161 10183 20167 50000 $
SGGR 010900Z 09002KT CAVOK 10/08 Q1016
GMFK 011200Z 28006KT 230V310 9999 FEW030 39/M01 Q1021 NOSIG
DNIL 010800Z 21007KT 9999 BKN009 22/21 Q1014
YEST 011230Z AUTO 35017KT 9999 // NCD 14/11 Q0993
KLUM 011215Z AUTO 30014G22KT 10SM BKN030 OVC035 21/17 A2984 RMK AO2 T02050165
LCLK 011200Z 18012KT 150V210 8000 NSC 33/25 Q1002 NOSIG
CYAM 011200Z 12004KT 20SM SCT020 BKN058 OVC087 18/18 A2968 RMK CU3SC3ACC2 ACC NE SW W MOV E SLP052 DENSITY ALT 1500FT
KJAN 011154Z 18004KT 10SM SCT250 24/23 A3014 RMK SLP202 T02390228 10244 20228 52010
LJPZ 011230Z 22006KT 180V240 CAVOK 32/16 Q1014
KOZA 011215Z AUTO 19010KT 10SM CLR 23/16 A3015 RMK AO2
ETNW 011220Z 33007KT 9999 SCT028 BKN280 21/14 Q1017 BLU+BLU+
LQBK 011230Z VRB06KT CAVOK 31/12 Q1014 NOSIG
SLVR 011200Z 26003KT 7000 VCSH SCT020 BKN070 22/19 Q1014
KPYX 011215Z AUTO 18003KT 10SM CLR 21/16 A3001 RMK AO2 P0001 T02050162
SLRA 081400Z 36006KT 9999 NSC 29/22 Q1017
KRSN 011215Z AUTO 00000KT 10SM CLR 24/22 A3016 RMK AO2 T02400220
VTUD 011200Z 20006KT 160V220 9999 SCT035 27/24 Q1004 NOSIG
WMKI 011200Z 35004KT 8000 SCT025 27/23 Q1007 RETS
CYQR 011200Z 04005KT 12SM BKN120 BKN170 BKN270 17/17 A2989 RMK AC5AC1CI1 SLP125 DENSITY ALT 2600FT
CXBR 011200Z AUTO 00000KT RMK AO1
KN03 011215Z AUTO 00000KT 10SM CLR 18/15 A3003 RMK AO2
SPHY 291900Z /////KT CAVOK 16/03 Q1035 RMK BIRD HAZARD RWY03/21 PP000
UAII 011200Z 30005MPS CAVOK 33/07 Q1005 NOSIG RMK QFE717/0956
FCPP 011200Z 19012KT 9999 FEW016 26/19 Q1014 NOSIG
KAHQ 011215Z AUTO 00000KT 4SM BR CLR 20/20 A2997 RMK AO2 T01970197
SLTJ 011200Z 00000KT 9999 NSC 05/03 Q1020
FQCH 011200Z 21017KT 9999 BKN015 22/12 Q1027
KO32 011215Z AUTO 00000KT 9SM -RA SCT140 OVC170 24/21 A2994 RMK AO2 RAB1206 P0000 T02420207
KSIF 011215Z AUTO 26004KT 10SM CLR 23/23 A3008 RMK AO2 T02300228
GVBA 011200Z 02010KT 9999 SCT013 BKN014 BKN100 26/23 Q1012 NOSIG
KAIK 011215Z AUTO 24004KT 10SM CLR 25/21 A3018 RMK AO2 T02480209
KSOP 011156Z AUTO 23010KT 10SM CLR 26/21 A3010 RMK AO2 SLP193 7//// T02610211 10278 20239 53006 TSNO
YVRD 011230Z AUTO 29002KT //// // ////// 21/04 Q1012
PASL 011156Z AUTO 00000KT 10SM FEW040 OVC080 11/11 A2982 RMK AO2 SLP088 70001 T01060106 10139 20106 56017
ZWWW 011200Z 31004MPS CAVOK 30/10 Q1005 NOSIG
YTAR 011230Z AUTO 04007KT //// // ////// 12/M04 Q1015
KGWR 011215Z AUTO 00000KT 9SM CLR 14/14 A2994 RMK A01
KAPY 011215Z AUTO 10004KT 10SM CLR 26/23 A3004 RMK AO2 T02550225 TSNO
HBBA 011200Z 15002KT 8000 FEW030TCU BKN100 29/18 Q1013 NOSIG
KTOC 011215Z AUTO 00000KT 10SM CLR 24/21 A3016 RMK AO2 T02370206
KNRN 011215Z AUTO 29006KT 10SM CLR 20/18 A3003 RMK AO2
CWZQ 011200Z AUTO 19006KT 23/17 RMK AO1 SLP157 T02260173 53002
AYMO 010000Z 14012KT 9999 SCT018 BKN140 27/24 Q1009
LHKE 011215Z 32010KT 280V350 CAVOK 29/10 Q1013 NOSIG RMK BLU
DAFH 011200Z 26013KT CAVOK 39/05 Q1017
EGBJ 011220Z 24003KT CAVOK 24/09 Q1018
KRKW 011210Z AUTO 00000KT 9SM BKN016 BKN021 OVC095 21/21 A3017 RMK A01
UMII 011200Z 17006G09MPS 9999 BKN040 25/13 Q1012 NOSIG
KENV 011156Z AUTO 04006KT 10SM CLR 22/07 A3008 RMK AO2 SLP134 T02220072 10283 20217 53003 $
KPPO 011215Z AUTO 19007KT 7SM SCT080 SCT120 22/22 A2984 RMK AO2 LTG DSNT S T02200219
PAGB 271540Z 33007KT 10SM -RA SCT010 BKN024 OVC030 03/ A2990
NVSG 010900Z VRB01KT 9999 -SHRA FEW010 BKN018 OVC110 ///// Q1013
DRRB 281600Z 24006KT 1880V280 9999 FEW030 27/22 Q////
FAEO 170747Z 33005KT 3000 HZ NSC 12/06 Q1034
VVTS 011200Z VRB03KT 8000 -RA FEW017 BKN050 27/25 Q1006 NOSIG
LBWB 011200Z 32012KT 9999 SCT030 28/13 Q1009
DNSO 171400Z 30013KT 9999 SCT012 30/23 Q1014
VLSK 011200Z 09004KT 5000 HZ SCT020 BKN100 29/23 Q1006 NOSIG
KPBH 011235Z AUTO 31010G15KT 240V330 10SM -RA BKN007 BKN015 OVC025 18/18 A2979 RMK AO2 P0003 T01780178
LHPA 011215Z 32010KT 270V350 CAVOK 28/15 Q1014 NOSIG RMK BLU
GFLL 011200Z 23007KT 9999 BKN013 FEW027CB 29/23 Q1014 RMK-CB-NE/SE
KOXC 011151Z 00000KT 10SM OVC043 19/18 A3004 RMK AO2 SLP181 60034 70034 T01890183 10211 20183 56012
FOOG 011200Z 18015KT 9999 SCT013 SCT026 27/21 Q1014
NZTG 011200Z 23004KT 31KM BKN250 06/05 Q1028 RMK AUTO VATSIM USE ONLY
KCOS 011154Z 36005KT 10SM FEW250 15/10 A3026 RMK AO2 SLP170 T01500100 10183 20150 55006
KGNG 011215Z AUTO 10013KT 10SM CLR 22/04 A3004 RMK AO2
SVBS 011203Z AUTO 01002KT NCD 23/// Q1016
KSNH 011215Z AUTO 20007KT 2SM BR SCT004 BKN037 OVC075 24/23 A3012 RMK A01
KABH 011158Z AUTO 00000KT 10SM CLR 13/09 A3026 RMK AO2 SLP178 T01300091 10176 20114 56005
KMFV 011155Z AUTO 25006KT 10SM BKN014 OVC021 24/22 A3000 RMK AO2 T02410215 10241 20220
LIVR 011055Z 26009KT 9999 SCT035 17/02 Q1026 RMK SCT MON LIB VIS MIN 9999
LBPG 011200Z 33016KT 9999 FEW070 SCT100 29/08 Q1010
YGLS 011230Z AUTO 03003KT 9999 // SCT098 OVC125 19/03 Q1014
HSNN 010700Z 26008KT 9999 FEW040 BKN120 23/20 Q1015
KONT 011153Z 00000KT 9SM FEW100 SCT170 SCT250 22/12 A3000 RMK AO2 SLP140 60003 70003 T02220117 10250 20217 56011
CWHP 011200Z AUTO 22010KT 17/ RMK AO1 SLP094 T0168 53002
CZPC 011200Z AUTO 17005KT 1/8SM FG VV001 14/14 A2999 RMK SLP125 DENSITY ALT 4700FT
KSFZ 011156Z AUTO 10SM OVC075 21/19 A3005 RMK AO2 SLP173 60008 70008 T02060194 10217 20194 58006 $
ENZV 011220Z 31014KT 9999 FEW030 15/08 Q1016
SBJR 011200Z 02006KT CAVOK 23/18 Q1019
SBBR 011200Z VRB02KT CAVOK 20/11 Q1021
VAAH 011230Z 29006KT 4000 HZ FEW012 SCT018 FEW030TCU OVC080 30/27 Q1002 TEMPO 3000 -RA
OEDR 011200Z 08008KT CAVOK 38/24 Q0997
KCLK 011235Z AUTO 20011KT 10SM -RA SCT110 26/14 A3002 RMK AO2
RJOI 011156Z 21006KT 10SM FEW025 SCT230 29/22 A2993 RMK AO2 SLP133 T02940217 10333 20294 53019
K0CO 011215Z AUTO 31011G20KT 10SM BKN110 06/02 A3076 RMK AO2
LEXJ 011200Z 06008KT 360V140 9999 FEW025 SCT030 25/19 Q1020
KJEF 011153Z 00000KT 10SM CLR 24/21 A3000 RMK AO2 SLP142 T02390211 10272 20233 53008 $
UTNU 011200Z 28006KT 9999 -SHRA BKN058CB OVC100 28/17 Q1007 R31/CLRD70 NOSIG
K1AM 271558Z AUTO 32004KT M M SCT095 22/10 A3017 RMK AO2 SLP141 T02150103 PWINO $
KTKV 011215Z AUTO 29003KT 10SM BKN016 OVC025 20/18 A2977 RMK AO2 T01960175 PWINO
LFMP 011230Z AUTO 32009G20KT 270V020 CAVOK 36/12 Q1014 NOSIG
CXCD 011200Z AUTO 35002KT 13/13 RMK AO1 T01320128 50005
KDTS 011153Z VRB03KT 10SM CLR 31/23 A3015 RMK AO2 SLP208 T03060233 10306 20300 53010
CYXN 312000Z 30012KT 15SM SCT040 BKN080 12/05 A2965 RMK SC3AS3 LAST STFD OB/NXT 011200Z SLP043 DENSITY ALT 100FT
KXVG 011233Z AUTO 33004KT 10SM CLR 16/12 A2990 RMK AO2
SCAR 011200Z 12004KT 9999 OVC020 15/10 Q1016
LFBD 011230Z AUTO 30005KT 260V020 CAVOK 32/15 Q1019 TEMPO 32015KT
VAJJ 011200Z 26009KT 4000 FU FEW008 SCT015 FEW025TCU 29/27 Q1004 TEMPO 3000 SHRA
KHFD 011153Z 14003KT 10SM OVC065 22/19 A3002 RMK AO2 SLP166 60021 70021 T02170194 10239 20211 58005
MMSM 010346Z 01010KT 8SM FEW020 SCT080 BKN200 14/12 A3044 RMK 8/463
KEDE 011215Z AUTO 25012G15KT 10SM CLR 27/26 A3005 RMK AO2 T02690255
CYDP 011200Z 28015KT 15SM FEW110 FEW250 14/07 A2980 RMK AC1CI1 TR AC TR CI SLP093 DENSITY ALT 100FT
YBTL 011230Z AUTO 12004KT 9999 // SCT013 SCT022 SCT097 20/18 Q1017
KCTB 011228Z AUTO 35006KT 8SM SCT006 14/13 A2998 RMK AO2 T01390133
KVJI 011215Z AUTO 27007KT 10SM BKN007 OVC014 21/21 A3017 RMK AO2 T02110211
CZCR 011200Z AUTO 29004KT 20/17 RMK AO1 SLP122 T02030170 50002
KVTA 011154Z AUTO 20004KT 7SM OVC005 21/19 A3001 RMK AO2 SLP156 T02110189 10211 20178 56006
ESNO 011220Z 18008KT 150V220 CAVOK 17/14 Q1010
ESNG 011220Z AUTO 08004KT 010V120 9999 NCD 19/13 Q1010
K1K1 011215Z AUTO 19010KT 10SM CLR 23/21 A2998 RMK AO2 T02280205
LTBR 011220Z 35012KT 320V020 9999 SCT040 30/17 Q1009 NOSIG RMK RWY07 35010KT 310V040
UAUU 011200Z 33002MPS 280V030 CAVOK 28/11 Q1009 NOSIG RMK QFE741/0988
NFKD 302100Z 00000KT 9999 FEW030 SCT300 27/24 Q1015
KDTW 011153Z 20009KT 10SM FEW080 BKN220 21/18 A2990 RMK AO2 SLP119 T02110178 10217 20189 56017 PNO
KCBF 011215Z AUTO 04006KT 10SM CLR 21/17 A2995 RMK AO2
ENBS 011220Z 02007KT CAVOK 16/13 Q1011
CYYW 011224Z AUTO 33006KT 300V010 4SM -RA OVC009 13/ A2971 RMK DP MISG SLP062 DENSITY ALT 1300FT
KOCW 011215Z AUTO 22008G14KT 10SM CLR 26/23 A3007 RMK AO2 T02600228
SPJR 011230Z 04002KT CAVOK 09/05 Q1028
CYBL 010400Z 29005KT 30SM FEW090 SCT250 23/15 A2988 RMK AC2CI2 FU LAST STFD OBS/NEXT 011300 UTC SLP120 DENSITY ALT 1400FT
UHMM 011200Z 22004MPS 9999 FEW012 OVC028CB 13/12 Q1014 RMK QFE745 R28/27003MPS
KIFP 011215Z AUTO 00000KT 10SM CLR 28/22 A2998 RMK AO2
DIAP 011230Z 21007KT 9000 FEW013 BKN032 OVC045 25/23 Q1015 TEMPO 4000 DZRA BKN010 OVC030
ZMUB 011200Z VRB02MPS 9999 SCT100 25/10 Q1008 NOSIG RMK QFE649.4 36 MOP
GOGK 011200Z 22004KT 9999 BKN015TCU 31/25 Q1012
OEDM 011200Z 03018KT 7000 SCT040 38/13 Q1005
LHSM 011215Z AUTO 30008KT 260V350 CAVOK 30/14 Q1014 NOSIG
KRNP 011215Z AUTO 19007KT 10SM SCT044 SCT050 SCT060 21/18 A2985 RMK AO2 T02110175
GMAT 011200Z 33007KT 5000 BKN010 SCT016 22/21 Q1012 NOSIG
CWBK 011200Z AUTO 21004KT 22/18 RMK AO1 SLP156 T02180179 56001
EFPO 011220Z AUTO 31008KT CAVOK 21/11 Q1012
KBYY 011215Z AUTO 00000KT 10SM CLR 24/23 A3007 RMK AO2 T02450236
DNKT 151600Z 11007KT 7000 -TSRA BKN010 FEW019CB 26/17 Q1012
KRKP 011153Z AUTO 00000KT 10SM FEW065 26/24 A3005 RMK AO2 SLP176 60000 T02610239 10294 20261 53007
KMNE 011215Z AUTO 00000KT 10SM CLR 25/23 A3012 RMK AO2 T02450230
K3K3 011215Z AUTO 36004KT 1 1/2SM BR VV007 18/17 A3007 RMK AO2
KRNC 011215Z AUTO 00000KT 10SM FEW035 FEW042 OVC060 23/22 A3015 RMK A01
HSPN 011100Z 23018KT 6000 42/16 Q1003
LQMO 011230Z 32014KT 280V340 9999 FEW045 33/10 Q1010
CYLW 011200Z AUTO 00000KT 9SM CLR 15/06 A2985 RMK SLP100 DENSITY ALT 1900FT
LOWI 011220Z VRB04KT 9999 FEW070 29/13 Q1017 BECMG 08008KT
PHSF 011158Z AUTO 09004KT 10SM CLR 07/03 A3032 RMK AO2 SLP154 T00710031 10121 20070 58008 $
ESMX 011220Z 23008KT 200V260 9999 BKN044 22/13 Q1012
KSTE 011215Z AUTO 28007KT 10SM SCT014 OVC040 22/17 A2977 RMK AO2 T02210173
YMLT 011230Z AUTO 33013KT 9999 // NCD 07/03 Q1002
UTDL 011200Z 26006MPS 9999 BKN086 34/09 Q1004 R26/CLRD70 NOSIG RMK QFE716/0954
KSPI 011200Z 20007KT 10SM FEW060 SCT100 19/17 A2992 RMK AO2 LTG DSNT E AND SE T01890172
UWUU 011200Z 34002MPS 310V010 9999 BKN030CB 23/18 Q1011 R32L/290242 NOSIG
KAMG 011153Z AUTO 21003KT 10SM CLR 26/23 A3019 RMK AO2 SLP219 T02560228 10261 20228 53013
KIWD 011156Z AUTO 30011G18KT 10SM OVC006 18/17 A2975 RMK AO2 CIG 006V011 SLP070 60000 70003 T01830172 10194 20183 53015
KSAW 011147Z 22006KT 5SM BR OVC005 18/18 A2967
KIKK 011222Z AUTO 23008KT 10SM CLR 21/19 A2987 RMK AO2
CYQV 011200Z AUTO 36003KT 9SM FEW076 SCT150 14/14 A2990 RMK SLP131 DENSITY ALT 2000FT
LFQB 011230Z AUTO 35008KT 310V040 9999 SCT043 BKN054 OVC120 26/15 Q1019
ETIC 011231Z AUTO 29011KT 9999 -RA BKN046 BKN060 OVC095 24/15 A3001 RMK AO2 DZE11RAB11E20DZB20E23RAB31 SLP150 $
RORK 011200Z AUTO 12013KT 9999 SCT016 SCT023 29/26 Q1011
KMFD 011204Z 20009KT 6SM BR BKN006 19/18 A2999 RMK AO2 T01940183
YKDD 011230Z AUTO 33013KT 9999 // OVC120 24/11 Q1011
KLKV 011153Z AUTO 13009KT 10SM CLR 17/10 A3017 RMK AO2 SLP160 7//// T01670100 10239 20161 51005
EGXC 011220Z 26008KT CAVOK 23/09 Q1018 NOSIG RMK BLU BLU
KELZ 011209Z AUTO 21005KT 9SM OVC004 17/16 A3006 RMK AO2 T01670156
SCAT 011200Z AUTO 35007KT 8000 OVC016/// 12/09 Q1017
KNUW 011230Z 00000KT 5SM BR FEW001 BKN005 OVC010 12/12 A2995 RMK VIS N-NE 3/4 T01220117
DNMA 010800Z 26007KT CAVOK 25/23 Q1012
KMPR 011215Z AUTO 14005KT 7SM CLR 22/21 A2998 RMK AO2 T02180212
ESNK 011220Z 16005KT 9999 -DZ OVC078 19/14 Q1009
KM02 011215Z AUTO 22008KT 7SM FEW047 OVC060 23/22 A3011 RMK A01
KAZE 191910Z AUTO 33017G31KT 300V360 10SM -VCTSRA SCT025 SCT031 BKN042 27/21 A3006 RMK AO2 LTG DSNT ALQS T02730205
KDUC 011215Z AUTO 20010KT 10SM -RA OVC120 28/16 A3007 RMK AO2 T02840163
HEAT 011200Z 34012KT CAVOK 37/16 Q1007
YBCG 011230Z AUTO 33005KT 9999 // SCT100 15/13 Q1019
VOGO 011200Z 33012KT 4000 RA FEW008 BKN016 OVC080 27/25 Q1004 TEMPO 3000 RA
YSHT 011230Z AUTO 36007KT 9999 // NCD 08/06 Q1017
KFHU 011158Z AUTO 00000KT 10SM CLR 20/16 A3024 RMK AO2 SLP173 70001 T01960162 10212 20190 58002
ESND 011220Z AUTO 01008KT 9999 -RA SCT008/// BKN013/// OVC017/// 12/// Q1010
KAXN 011153Z AUTO 32009KT 10SM SCT016 16/13 A2994 RMK AO2 SLP136 70006 T01560133 10189 20156 53007
LTAW 011150Z VRB03KT 9999 FEW040 33/16 Q1007
PAWS 011221Z AUTO 00000KT 5SM BR OVC004 11/11 A2992 RMK AO2 CIG 002V006
TQPF 011200Z 07009KT 9999 FEW020 29/25 Q1018
KDRM 011215Z AUTO 19008KT 10SM SCT049 SCT060 OVC080 19/16 A2973 RMK AO2 T01930162
KLOZ 011153Z AUTO 22007KT 8SM -RA BKN013 OVC019 22/21 A3012 RMK AO2 RAB28 SLP186 P0000 60001 70050 T02220211 10228 20222 51008
ENBN 011220Z 30009KT 9999 -RA FEW008 SCT015 BKN030 11/09 Q1012
KNUQ 281155Z AUTO 00000KT 10SM 15/12 A3006 RMK AO2
CWKX 011200Z AUTO 19004KT 12/10 RMK AO1 SLP148 T01160100 51007
WBGS 011200Z VRB03KT 9999 -TSRA FEW015CB SCT016 23/21 Q1008 RETSRA
KOCQ 011215Z AUTO 24004KT 10SM OVC060 21/21 A2969 RMK AO1 T02100210
LIRM 011155Z 02006KT CAVOK 35/04 Q1013 RMK SKC VIS MIN 9999 WIND THR06 30004KT BLU
KHAE 011215Z AUTO 24007KT 10SM CLR CLR A2997 RMK AO2
DAOF 011200Z 10012KT 9999 FEW046 SCT100 43/// Q1012
ULLI 011200Z 17003MPS 9999 -SHRA BKN020CB BKN036 18/15 Q1015 R88/290050 NOSIG
EHFS 011225Z AUTO 36006KT 260V070 9999 FEW034/// 24/14 Q1019
MMTJ 011144Z 00000KT 6SM SKC 19/19 A3002 RMK SLP163 57008 905 HZY
KBOI 011153Z 12006KT 10SM CLR 24/08 A2993 RMK AO2 SLP094 T02390083 10289 20233 51006
ENML 011220Z 23008KT 9999 VCSH FEW032 BKN049 14/07 Q1014
KGIF 011153Z AUTO 14004KT 10SM CLR 27/24 A3019 RMK AO2 SLP221 T02720244 10272 20261 53004
SCPD 011200Z AUTO VRB02KT //// ///////// 06/04 Q1016
K6S8 011225Z AUTO 25009KT 10SM 19/04 A2997 RMK A01 LAUREL
MPMG 011200Z VRB02KT 9000 FEW008 FEW018 SCT090 25/25 Q1011 NOSIG
KINT 011154Z 23005KT 10SM SCT110 24/22 A3010
SBMQ 011200Z 00000KT 9999 SCT010 BKN015 BKN080 27/24 Q1013
KBRG 011215Z AUTO 33003KT 10SM CLR 18/14 A3026 RMK AO2 T01760143
KCOT 011153Z AUTO 08005KT 10SM CLR 25/22 A3006 RMK AO2 SLP170 T02500217 10289 20250 53005
KPIM 011215Z AUTO 25003KT 10SM CLR 24/21 A3021 RMK AO2 T02440213
EPRA 011230Z 32008KT 9999 FEW042 24/15 Q1014
KILN 011229Z AUTO 22009KT 1 1/2SM BR OVC003 22/21 A3001 RMK AO2 T02170206
DTTJ 011200Z 04010KT 010V090 9999 FEW020 32/22 Q1013 NOSIG
KEZP 011215Z AUTO 18007G13KT 140V220 10SM FEW025 30/24 A3011 RMK A01
CWDO 011200Z AUTO 26012KT 19/14 RMK AO1 PK WND 26017/1115 SLP104 T01900141 51015
EGJA 011220Z 26009KT 9999 FEW012 19/15 Q1021
KCIN 011215Z AUTO 28003KT 8SM CLR 18/18 A2997 RMK AO2
CYFT 011200Z 30011KT 15SM FEW030 15/08 A2982 RMK CU1 CU TR SLP103 DENSITY ALT 400FT
LGPA 011150Z 35015KT CAVOK 30/17 Q1007
CYLH 011205Z AUTO 03007KT 9SM BKN009 OVC110 12/12 A2975 RMK SLP085 DENSITY ALT 900FT
K1FM 011158Z AUTO 26005KT 10SM CLR 19/M04 A2999 RMK AO2 SLP104 T01931036 10250 20167 53001 $
KSGH 011215Z AUTO 22007KT 4SM HZ OVC003 21/ A3001 RMK AO2 $
KHND 011156Z AUTO 20006KT 10SM CLR 23/19 A3009 RMK AO2 SLP181 70076 T02330189 10250 20233 55002
SBPF 011200Z 04008KT CAVOK 11/08 Q1018
LEVC 011200Z 11006KT 030V150 9999 FEW020 31/20 Q1016 NOSIG
KONX 011215Z AUTO 23008KT 10SM CLR 26/26 A3003 RMK AO2 T02580258
EFTU 011220Z AUTO VRB02KT 9999 -SHRA //////CB 20/14 Q1011
KHRO 011153Z AUTO 17004KT 10SM BKN095 23/21 A3008 RMK AO2 SLP170 T02330206 10239 20217 53007 PWINO $
KTOB 011215Z AUTO 31009KT 10SM SCT003 BKN010 18/16 A2989 RMK AO2
RJTI 010700Z 18011KT 150V220 9999 FEW030 BKN/// 31/26 Q1011
PABI 011153Z AUTO 00000KT 10SM CLR 09/08 A2992 RMK AO2 SLP138 60000 T00890078 10161 20089 58010 TSNO $
KRHV 010447Z 28004KT 10SM SCT080 BKN016 20/14 A3001
KCOE 011156Z AUTO 00000KT 10SM CLR 19/11 A2990 RMK AO2 SLP114 6//// 7//// T01940111 10244 20189 53002 PNO $
KAEJ 011215Z AUTO 29005KT 10SM 12/09 A3045 RMK AO2 T01190085
RJCW 010900Z 11012KT 9999 FEW003 BKN150 BKN/// 16/15 Q1010
ZGHA 011200Z 06003MPS CAVOK 32/24 Q1004 NOSIG
CXKE 011200Z AUTO 21005KT 20/18 RMK AO1 SLP131 T02020182 57011
K1OW 011158Z AUTO 21005KT 10SM CLR 19/10 A3015 RMK AO2 SLP143 T01860102 10193 20172 56008 $
KFSK 011215Z AUTO 15004KT 10SM CLR 23/22 A3001 RMK AO2 T02350222
KGLR 011153Z AUTO 20009KT 10SM BKN048 BKN060 OVC110 21/16 A2978 RMK AO2 LTG DSNT W SLP077 T02110156 10211 20183 56011 $
CYAZ 010100Z 27008KT 15SM SKC 19/15 A2992 RMK FG OFSHR LAST STFD OBS/NXT 011300UTC WIND ESTD SLP135 DENSITY ALT 600FT
LFAC 011230Z AUTO 04010KT CAVOK 23/16 Q1019
KHQU 011215Z AUTO 00000KT 10SM CLR 24/21 A3017 RMK AO2 T02400213
KHCR 011215Z AUTO 00000KT CLR 16/10 A3023 RMK AO2 PWINO
RJFO 011200Z 15012KT 9999 FEW025 26/25 Q1012
ZYTL 011200Z VRB01MPS 9999 BKN026 27/24 Q1006 NOSIG
KEHO 011215Z AUTO 23006KT 10SM CLR 25/21 A3012 RMK AO2 T02470213
PAGM 011156Z AUTO 10SM A2986 RMK AO2 SLPNO 60000 54000 FZRANO $
ESIA 011220Z AUTO 18008KT 9999 SCT021/// 20/17 Q1010
RJFG 010900Z 14010KT 9999 FEW008 SCT010 BKN013 27/26 Q1012
SBLE 011200Z AUTO VRB03KT 9999 FEW017 BKN043 22/18 Q1022
CWER 011200Z AUTO 23012KT RMK AO1
KDTN 011153Z AUTO 20007KT 10SM CLR 26/23 A3010 RMK AO2 SLP189 T02610228 10289 20261 53011
KLUD 011215Z AUTO 19007KT 7SM CLR 28/18 A3006 RMK AO2 T02820178
KPHX 011151Z 17009KT 10SM FEW150 BKN210 30/19 A2997 RMK AO2 SLP126 T03000194 10322 20300 53004
KMKY 011156Z AUTO 07003KT 10SM CLR 27/25 A3016 RMK AO2 SLP213 6//// 7//// T02670250 10278 20256 51004 TSNO PNO $
KSQL 011215Z AUTO 00000KT 10SM CLR 17/14 A3003 RMK AO2
ESOH 011220Z AUTO VRB03KT 9999 FEW096/// BKN170/// 19/15 Q1009
KGAF 011235Z AUTO 00000KT 8SM -DZ CLR 12/12 A2993 RMK AO2
SAMM 012035Z 27010G30KT 2000 -SN BKN010 BKN030 02/M00 Q1012
KMTV 011235Z AUTO 23003KT 10SM CLR 23/23 A3011 RMK AO2 T02300230
EGNX 011220Z VRB07KT CAVOK 22/08 Q1018
K79S 190830Z AUTO 21006KT 17/05 A2994
PTSA 010750Z VRB03KT 10SM BKN015TCU BKN120 OVC290 25/23 A2978 RMK TCU NW-NE LAST
LFOA 011230Z AUTO 30008KT 250V360 CAVOK 28/15 Q1019 NOSIG
YPPH 011200Z 29018G28KT 9999 SCT028 16/09 Q0995
CYYR 011200Z 26005KT 15SM FEW040 BKN250 16/08 A2988 RMK SC1CI7 SLP118
OETF 011200Z 29016KT 9999 SCT040 BKN080 28/02 Q1014 NOSIG
KM04 011210Z AUTO 20006KT 10SM OVC095 24/24 A3009 RMK A01
SPJC 011200Z 21004KT 7000 OVC012 15/12 Q1016 NOSIG RMK TN14.5 PP000
KPCZ 011215Z AUTO 26005KT 10SM OVC036 23/20 A2975 RMK AO2 T02270197
MGTU 011200Z 00000KT CAVOK 23/22
LERI 011200Z 10007KT 040V160 CAVOK 35/18 Q1016 NOSIG
YBRK 011230Z AUTO 19004KT 150V220 9999 // NCD 16/14 Q1019
KPHN 011215Z AUTO 20007KT 10SM CLR 22/18 A2988 RMK AO2
KIPJ 011235Z AUTO 00000KT 10SM CLR 24/22 A3012 RMK AO2 T02380221
KORH 011213Z 23008KT 10SM FEW006 FEW018 OVC060 19/18 A3007 RMK AO2 RAE05 P0000 T01940183 $
KDAA 011156Z AUTO 32005KT 10SM SCT012 23/20 A2999 RMK AO2 SLP158 70043 T02280201 10228 20214 52006 $
UWOR 011200Z 03004MPS 9999 TS BKN049CB 28/09 Q1009 R25/CLRD65 NOSIG RMK QFE733/0978
LXGB 011220Z 08011KT 9999 5000E HZ FEW012 26/22 Q1016 TEMPO 9999 NSW
KDXR 011153Z 04003KT 10SM OVC050 21/18 A3003 RMK AO2 RAE02 SLP166 P0000 60045 70046 T02110178 10222 20194 56008
KUTA 011215Z AUTO 18006KT 6SM -RA BR OVC095 24/24 A3011 RMK AO2 RAB1214 P0000 T02410238
PADE 011232Z AUTO 21004KT 3/4SM BR VV002 08/08 A2983 RMK AO2 T00780078 TSNO
RJTU 280720Z 12010KT 6000 -TSRA FEW010 SCT020 BKN030CB 25/23 Q1015 RMK 1CU010 4CU020 5CB030 A2997 FBL TS OHD MOV E
KI68 011215Z AUTO 22005KT 7SM OVC007 21/21 A3001 RMK AO1 T02110209
MMBT 011159Z RTD 00000KT 7SM BKN220 24/21 A2994 RMK 8/002 RTS
KMIA 011153Z 12005KT 10SM SCT020 SCT250 29/24 A3015 RMK AO2 SLP210 T02890244 10289 20267 53001
FYWE 011200Z 34010KT 290V350 9999 FEW040TCU FEW090 17/M10 Q1019
KRDG 011154Z 36003KT 2 1/2SM BR BKN003 OVC008 20/19 A3000 RMK AO2 RAB19E37 CIG 002V007 SLP161 P0001 60003 70034 T02000194 10200 20189 51003
ZSFZ 011200Z VRB01MPS CAVOK 30/23 Q1006 NOSIG
KCLW 011215Z AUTO 15005KT 10SM CLR 27/23 A3017 RMK AO2
KEWK 011156Z AUTO 17005KT 10SM CLR 22/22 A2999 RMK AO2 SLP137 T02170217 10244 20217 55002
LELN 011200Z 16006KT CAVOK 31/05 Q1020
KJMS 011206Z AUTO 00000KT 3SM BR CLR 13/12 A2995 RMK AO2 T01280117
KJSL 011220Z AUTO 16009KT 120V240 10SM FEW022 A3010 RMK A01
EGNM 011220Z 24008KT 200V270 9999 SCT036 19/10 Q1018
RKNF 311533Z 20021G032KT 6000 -RA BR OVC006 19/19 A3012 RMK CIG006
CWLE 011200Z AUTO 03006KT 15/14 RMK AO1 SLP125 T01510141 50006
KDET 011153Z 22007KT 10SM BKN070 23/18 A2989 RMK AO2 SLP117 T02330178 10244 20217 56017
PAPT 312244Z 18008KT 25SM FEW020 BKN065 17/12 A2994 RMK NO SPECI 401780117 70003
KU68 011215Z AUTO 00000KT 10SM CLR 16/02 RMK AO2
KIWI 011153Z AUTO 00000KT 10SM CLR 21/18 A3000 RMK AO2 SLP156 T02060178 10206 20161 58002
PAKX 011215Z AUTO 22003KT 10SM OVC090 11/11 A2974 RMK AO2
KCBM 011156Z COR AUTO 00000KT 10SM BKN120 24/23 A3012 RMK AO2 SLP200 T02370230 10237 20234 52015 $ COR 1222
LIBH 071431Z 19007KT 150V220 9999 BKN040CB 31/21 Q1010 RMK BKN QUK 2 QUL 1 S VIS MAR 20 KM VIS MIN 9999
SBLO 011200Z 18002KT CAVOK 18/12 Q1019
KLAL 011150Z 00000KT 10SM SKC 26/24 A3018
CWQR 011200Z AUTO 25002KT 12/10 RMK AO1 T01210095
LFMK 011230Z AUTO 28012KT 230V300 CAVOK 33/16 Q1017 NOSIG
FTTC 010900Z 18010KT 9999 SCT030 25/// Q1014
TNCA 011200Z 08011KT 9999 SCT015 27/25 Q1014 NOSIG
RJBD 011000Z VRB02KT 9999 FEW010 SCT/// 28/25 Q1014
KSEE 011215Z AUTO 10SM CLR 21/17 A2997 RMK AO2
VLPS 011200Z 14002KT 9999 FEW030 BKN200 29/26 Q1006 NOSIG
YPKS 011230Z AUTO 04004KT 9999 // NCD 03/02 Q1020
EHVK 011225Z AUTO 34007KT 340V050 9999 SCT033 OVC037 22/15 Q1018 BLU NOSIG
KPUB 011153Z 27004KT 10SM CLR 16/11 A3016 RMK AO2 SLP143 T01610111 10211 20156 55002
SEMC 312300Z 35006KT 9999 SCT040 SCT100 25/17 Q1015 RMK A2998
KFHR 011153Z AUTO 12003KT 1/4SM FG VV002 11/11 A2992 RMK AO2 SLP129 T01110111 10117 20111 51005 $
KEYE 011153Z AUTO 20006KT 5SM BR OVC007 24/22 A2995 RMK AO2 SLP134 T02390217 10239 20228 56010
KFCI 011106Z AUTO 24003KT 10SM BKN009 22/ A3002 RMK AO2
EYPA 011220Z 33007G17KT 260V040 CAVOK 20/15 Q1011
MMTG 011012Z RTD 31003KT 4SM SCT070 BKN200 22/22 A3002 RMK 8/057 VSBY VRB BC BR HZ RTS
KALM 011215Z AUTO 06006KT 10SM CLR 22/14 A3015 RMK AO2
LIMV 011155Z /////KT CAVOK 30/10 Q1017 RMK SKC MON LIB VAL NIL VIS MIN 9999
FMNA 011200Z 14006KT 9999 FEW020 28/16 Q1015
KEZS 011235Z AUTO 27006KT 10SM SCT017 BKN024 OVC046 23/21 A2972 RMK AO2 T02260210
EYSA 011220Z 28005KT 9999 SCT011 BKN021 OVC027 18/17 Q1009 NOSIG
LKMT 011230Z 15003KT 100V240 9999 VCSH FEW030TCU 25/14 Q1014 TEMPO 4000 SHRA
KLOL 011153Z AUTO 19006KT 10SM CLR 21/11 A3007 RMK AO2 SLP128 T02060106 10272 20206 55003
OIGG 011130Z 02010KT 9999 SCT020CB SCT030 SCT070 31/24 Q1006
YGGE 011230Z AUTO 31015KT 9999 // OVC006 15/14 Q1001
K1M4 011156Z AUTO 19003KT 10SM BKN080 OVC100 23/22 A3020 RMK AO2 RAE56 SLP211 P0001 60018 70018 T02280222 10228 20222 51010
KPPA 011215Z AUTO 21008KT 10SM SCT110 23/15 A3008 RMK AO2 T02270150
NZTU 011200Z 02002KT 20KM FEW160 BKN240 04/01 Q1011 RMK AUTO VATSIM USE ONLY
KSUU 011158Z AUTO 22017KT 10SM FEW190 BKN230 16/13 A2995 RMK AO2 SLP148 T01590130 10176 20159 52010 $
VAJB 011230Z 25010KT 5000 HZ SCT020 SCT030 30/22 Q1003 NOSIG
ENRA 011220Z VRB03KT 9999 -SHRA SCT015 BKN027 13/11 Q1008
KDLS 011153Z AUTO VRB05KT 10SM CLR 28/15 A2983 RMK AO2 SLP097 T02830150 10339 20272 51005 $
KSEP 011215Z AUTO 18005KT 10SM CLR 25/18 A3011 RMK AO2 T02520178
KCVB 011218Z AUTO 00000KT 5SM HZ CLR 24/20 A3010 RMK AO2
OIAA 011200Z 15010KT 7000 NSC 42/22 Q0997
PAKW 011153Z AUTO 23004KT 10SM OVC007 13/12 A3002 RMK AO2 RAE41 SLP166 P0001 60002 70007 T01330117 10139 20133 50001 TSNO
LPOV 011200Z 25006KT 200V300 9999 FEW006 25/19 Q1015
KFKR 011215Z AUTO 23014G27KT 1/4SM +TSRA FG OVC006 23/22 A2993 RMK AO2
FABM 310756Z AUTO 22001KT //// // ////// 15/00 Q1024
CYNE 011217Z AUTO 35007KT 320V020 9SM BKN013 13/12 A2986 RMK SLP119 DENSITY ALT 800FT
PATL 011217Z AUTO 00000KT 10SM BKN022 BKN100 12/11 A2982 RMK AO2 SLP096 TSNO $
KADW 011156Z AUTO 33009KT 10SM FEW016 22/19 A2998 RMK AO2 SLP157 60000 70031 T02230187 10223 20214 52006 $
VTBO 010900Z 19007KT 8000 -RA SCT018 BKN080 26/25 Q1005
USTR 011200Z 05006MPS 9999 BKN034CB 21/13 Q1013 R03/CLRD65 R30/////99 NOSIG
KOYM 011220Z AUTO 00000KT 7SM OVC004 17/17 A3009 RMK AO2 PWINO
CWFQ 011200Z AUTO 17004KT 21/17 RMK AO1 SLP147 T02090171 58004
KOSC 011215Z AUTO 19005KT 10SM SCT043 SCT055 OVC070 22/19 A2981 RMK AO2 T02170189
KAJR 011215Z AUTO 23003KT 10SM CLR 23/21 A3018 RMK AO2 T02330205
KDRO 011153Z AUTO 29005KT 10SM BKN055 14/12 A3037 RMK AO2 SLP205 T01440122 10178 20144 53006 $
SBVH 011200Z 28003KT 9000 NSC 24/17 Q1017
VORY 011230Z 01006KT 6000 SCT018 BKN090 31/25 Q1001 NOSIG
KFPR 011153Z 00000KT 10SM FEW019 24/24 A3018 RMK AO2 SLP220 T02440244 10278 20233 53006
ESSA 011220Z 22009KT 9999 -DZ SCT055 OVC094 21/09 Q1010 NOSIG
KCSG 011151Z AUTO 29003KT 10SM CLR 25/22 A3018 RMK AO2 SLP212 T02500222 10261 20239 53009
GQNO 011200Z 23008KT 200V270 8000 BKN013 31/23 Q1012 NOSIG
SLCP 011200Z 00000KT 8000 FEW070 20/18 Q1017
CWTY 011200Z AUTO 20011KT 21/18 RMK AO1 SLP131 T02120182 57005
LTAS 011150Z 36010KT 9999 SCT040 30/18 Q1008
KTWF 011153Z 20006KT 10SM CLR 24/03 A3004 RMK AO2 SLP100 T02390033 10267 20189 51006
CWNM 011200Z AUTO 22006KT 16/09 RMK AO1 SLP102 T01550089 51008
KCWA 011220Z 28008KT 10SM BKN014 OVC038 20/18 A2977
CYWK 011200Z 08003KT 020V120 15SM BKN140 12/09 A2990 RMK AC6 SLP139 DENSITY ALT 2000FT
LIBD 011220Z 35009KT 320V040 CAVOK 30/12 Q1013
KUSE 302255Z AUTO 28004KT 10SM CLR 27/15 A3017 RMK AO2
KDVO 011215Z AUTO 05005KT 10SM CLR 16/14 A3001 RMK AO2
CYDA 011200Z VRB02KT 15SM FEW008 SCT078 OVC088 12/12 A2989 RMK ST1AC2AC5 /R01 AFT 02Z/ SLP132 DENSITY ALT 1300FT
KMCW 011153Z AUTO 28011KT 10SM CLR 17/16 A2994 RMK AO2 SLP126 T01720161 10211 20167 53014
KLCK 011155Z AUTO 16005KT 10SM BKN003 BKN014 OVC021 20/19 A3001 RMK AO2 T01970190 10197 20184
ZYHB 011200Z 16002MPS 9999 FEW033 27/26 Q1005 NOSIG
KSTK 011215Z AUTO 00000KT 10SM CLR 14/14 A3007 RMK AO2 LTG DSNT NE
KY19 011215Z AUTO 05008KT 9SM CLR 14/15 A2997 RMK AO2
CWFF 011200Z AUTO 07003KT 12/10 RMK AO1 SLP143 T01220102 50003
KCGE 300935Z AUTO 00000KT 10SM CLR 23/23 A3001 RMK A01
KIWA 011147Z 17006KT 10SM CLR 28/21 A3001
SBTA 011200Z 33001KT 8000 FEW007 15/12 Q1021
SBIP 011200Z AUTO 01006KT 9999 FEW036 21/12 Q1022
KCAG 011153Z AUTO 22003KT 10SM CLR 12/09 A3030 RMK AO2 SLP190 T01220094 10172 20111 53004
KSDA 011215Z AUTO 00000KT 1 3/4SM BR CLR 21/21 A2996 RMK AO2
EGQL 011220Z 25014KT 9999 FEW045 19/07 Q1014 RMK BLU
UWPS 011200Z 04003MPS 9999 SCT040 25/12 Q1016 R02/CLRD60 NOSIG RMK QFE743
RKTN 011200Z 18002KT 9999 -DZ FEW010 BKN020 OVC025 30/23 Q1008
YBGD 011230Z AUTO 32016KT 9999 // SCT069 BKN090 OVC125 21/15 Q1011
RKNN 010026Z 15001KT 9999 -RA BKN050 BKN120 27/24 A2976 RMK CIG050
FACV 010953Z 09013KT CAVOK 13/M04 Q1026
YHBA 011230Z AUTO 21007KT 9999 // OVC069 15/15 Q1020
OEKJ 011200Z 27004KT 9999 SCT100 37/21 Q1004
KMQY 011156Z 00000KT 10SM OVC050 23/22 A3013 RMK AO2 SLP205 60000 T02330222 10239 20228 51003
K6A1 011215Z AUTO 26005KT 10SM CLR 26/22 A3020 RMK AO2 T02560217
EHMG 011225Z AUTO 01005KT 9999 NSC 16/09 Q1021
LFCK 011230Z AUTO 31009KT 240V360 CAVOK 31/15 Q1019 NOSIG
LOWK 011220Z 19005KT 100V250 9999 FEW070 30/10 Q1015 NOSIG
EGUN 011156Z 00000KT 9999 SCT030 BKN150 22/15 A3007 RMK AO2A SLP186 T02210152 10226 20147 58006 $
EYKA 011220Z 26009KT 8000 -DZ BKN007 OVC011 17/15 Q1010
YMNE 011230Z AUTO 35012KT 9999 // SCT055 SCT064 BKN079 19/08 Q1006
RKSG 011156Z AUTO 10009KT 10SM SCT047 BKN055 29/24 A2965 RMK AO2 DZB02E12 SLP043 P0000 60000 T02880237 10327 20288 53005 $
KASN 011215Z AUTO 00000KT 10SM OVC100 23/22 A3019 RMK AO2 T02250220
PABA 011156Z AUTO 04006KT 1/4SM UP FG OVC003 02/02 A3005 RMK AO2 P0000 FZRANO
LPBJ 011200Z 26005KT 220V320 CAVOK 33/14 Q1015
EDDC 011220Z AUTO 34007KT 250V030 9999 FEW026 23/16 Q1015 NOSIG
KBYI 011153Z AUTO 23004KT 10SM CLR 16/11 A3004 RMK AO2 SLP119 T01610106 10217 20156 55003
VERC 011230Z 29002KT 3000 HZ SCT015 BKN100 24/24 Q1005 NOSIG
K6A2 011215Z AUTO 25004KT 10SM CLR 23/22 A3020 RMK AO2
LICG 011150Z 35005KT CAVOK 29/22 Q1015
K0J4 011158Z AUTO 00000KT 10SM CLR 25/22 A3019 RMK AO2 SLP219 T02500222 10250 20228 53012
KLRJ 011215Z AUTO 00000KT 9SM CLR 17/16 A2997 RMK AO2
PAGL 011156Z AUTO 19003KT 10SM OVC075 14/08 A2979 RMK AO2 SLP084 T01440083 10172 20139 56012 PWINO $
VILK 011200Z 27008KT 5000 HZ SCT020 SCT025 FEW030CB BKN100 33/29 Q0998 NOSIG
KPSO 011215Z AUTO 32003KT 10SM CLR 12/12 A3044 RMK AO2 T01210121
KT35 011215Z AUTO 17004KT 10SM CLR 25/22 A3008 RMK AO2 T02450215
KGUL 011225Z AUTO 19005KT 10SM FEW024 SCT040 SCT046 29/24 A3009 RMK A01
URMO 011200Z 10005G10MPS 050V140 9999 NSC 33/15 Q1008 R09/010070 NOSIG RMK QFE712/0950
VOHY 011230Z VRB03KT 6000 FEW015 BKN100 25/24 Q1007 NOSIG
CWGW 011200Z AUTO 02008KT 10/06 RMK AO1 SLP128 T01000055 53002
KAVQ 011215Z AUTO 12005KT 10SM BKN110 25/19 A3005 RMK AO2 T02450187
MPTO 011200Z 24003KT 8000 FEW018 SCT080 25/23 Q1009 NOSIG
CWDT 011200Z AUTO 12001KT RMK AO1 58007
LFBG 011230Z AUTO 28006KT 200V340 CAVOK 31/12 Q1019 NOSIG
KCMI 011153Z 25012KT 7SM RA FEW050 BKN080 OVC100 21/19 A2995 RMK AO2 PK WND 29048/1057 WSHFT 1053 LTG DSNT SW AND W TSE23 SLP137 P0044 60057 70057 T02060189 10233 20200 53002
SCNT 011200Z 02004KT 330V070 9999 SCT050 03/M02 Q1010
KIEN 011152Z AUTO 00000KT 10SM CLR 14/11 A3000 RMK AO2 SLP126 T01440106 10244 20139 55007
KCTZ 011215Z AUTO 22005KT 10SM CLR 26/25 A3010 RMK AO2 T02600251
CYRQ 011200Z AUTO 22007KT 9SM BKN091 21/19 A2991 RMK SLP129 DENSITY ALT 1000FT
KLVS 011153Z AUTO 02003KT 10SM OVC110 17/12 A3033 RMK AO2 SLP161 60000 70008 T01720122 10178 20150 55000
OIHM 011100Z 05006KT 9999 FEW040TCU 33/05 Q1014
KHIE 011152Z AUTO 00000KT 10SM CLR 17/15 A3001 RMK AO2 SLP160 T01670150 10172 20139 58007
KLOU 011153Z 22006KT 8SM BKN010 OVC038 24/23 A3003 RMK AO2 CIG 009V012 SLP164 60001 70010 T02440228 10244 20239 53000
CWBA 011200Z AUTO 15004KT 20/16 RMK AO1 T02000159
CWVN 011200Z AUTO 01007KT 15/09 RMK AO1 SLP086 T01520092 55002
KBUF 011154Z 18005KT 10SM FEW050 21/17 A2996 RMK AO2 SLP141 T02060167 10206 20189 58005
KPRC 011153Z 28004KT 10SM FEW120 17/15 A3026 RMK AO2 SLP174 70001 T01720150 10183 20167 56002
PAPM 011156Z AUTO 22015KT 10SM BKN012 BKN019 OVC027 11/09 A2976 RMK AO2 SLP080 60002 70002 T01060089 10128 20100 53005
CYYU 011230Z 20009KT 10SM -RA OVC096 18/16 A2959 RMK AC8 SLP025 DENSITY ALT 1700FT
YSCB 011230Z AUTO 32007KT 9999 // NCD 04/01 Q1018
MMAS 011146Z 04005KT 8SM BKN100 BKN200 15/10 A3033 RMK SLP121 5//// 9// 8/032 ISOL SC
RJOT 011200Z 15004KT 9999 FEW030 BKN/// 28/22 Q1014
SBEG 011200Z 05005KT 9999 FEW015 BKN100 26/23 Q1013
WIMM 011200Z 05004KT 030V090 9999 SCT017 BKN030 28/26 Q1006 NOSIG
KQEQ 011230Z AUTO 10001KT 9999 BKN075 28/26 A2972 RMK A02 TSNO
K9MN 011215Z AUTO 29009G14KT 250V320 10SM OVC010 19/17 A2989 RMK AO1 T01850173
KUES 011145Z 23010G15KT 10SM SCT014 BKN020 OVC033 22/19 A2978
GCRR 011230Z 35018KT 9999 FEW017 28/19 Q1014
LPST 011200Z 31007KT 280V350 9999 FEW020 30/18 Q1015
KVSF 011154Z AUTO 00000KT 10SM CLR 19/16 A3002 RMK AO2 SLP164 T01940161 10194 20167 58004
FNUG 010700Z 00000KT 3000 BR OVC015 17/15 Q1018
UAKK 011200Z VRB01MPS 9999 SCT050CB 24/12 Q1007 NOSIG RMK QFE708/0944
CYSY 311800Z 21003KT 15SM FEW230 10/05 A3009 RMK CI1 LAST STFD OBS/NEXT 011300Z SLP197
LTDA 011150Z 22021KT CAVOK 33/23 Q1000 NOSIG
FASB 010943Z 11009KT CAVOK 16/M03 Q1023
UUMO 011200Z 09003MPS CAVOK 24/10 Q1017 R07/CLRD60 NOSIG RMK QFE748/0998
CXKM 011200Z AUTO 10004KT 15/15 RMK AO1 T01470147
KCOM 011215Z AUTO 19006KT 10SM CLR 25/15 A3010 RMK AO2 T02510146
RJFK 011200Z 13006KT 9999 FEW020 BKN030 26/24 Q1014 RMK 1CU020 5CU030 A2996
KUVA 011215Z AUTO 07003KT 10SM CLR 22/20 A3010 RMK AO2 T02210201
PALH 311301Z 00000KT 4SM BR OVC017 14/13 A2999 RMK AO2 RAE01 P0000 T01390128 $
CYQL 011200Z 33006KT 6SM BR OVC007 16/15 A2996 RMK SC8 SLP127 DENSITY ALT 3900FT
LSZR 011220Z 04004KT 340V090 9999 SCT045TCU 27/16 Q1018 RMK I
SBTU 011200Z AUTO 21005KT 9999 FEW004 23/22 Q1015
SBCC 011200Z VRB04KT CAVOK 24/17 Q1016
KHEZ 011156Z AUTO 11007KT 10SM CLR 23/23 A3014 RMK AO2 SLP205 T02330228 10244 20228 53007
LDLO 311400Z 27009KT 240V310 CAVOK 30/18 Q1015
KMQI 011215Z AUTO 25011KT 10SM CLR 27/23 A3005 RMK AO2 T02660233
ENLA 011220Z AUTO 18012KT 9999NDV NCD 14/09 Q1017 W///S3
K66R 281555Z AUTO 16004KT 10SM BKN032 BKN041 32/23 A3003 RMK AO2 T03210225
CYHY 011226Z 11003KT 15SM FEW090 BKN240 09/07 A2991 RMK AC2CI3 SLP136
KJHW 011156Z AUTO 19007KT 4SM BR OVC003 17/17 A3003 RMK AO2 CIG 002V007 SLP164 T01720167 10172 20156 58006
YBWP 011230Z AUTO 12007KT 9999 // SCT039 OVC047 26/20 Q1012
YSNW 011230Z AUTO 31018KT 9999 // NCD 11/04 Q1016
KMBY 011235Z AUTO 25007KT 10SM SCT050 25/21 A2999 RMK AO2
KAPS 011217Z AUTO 00000KT 10SM BKN025 BKN033 26/24 A3013 RMK AO2
WAHS 011200Z 29003KT 250V320 7000 FEW014 28/24 Q1007 NOSIG METAR
SBAN 011200Z 05008KT CAVOK 23/08 Q1021
PATC 011155Z AUTO 03018KT M1/4SM FG VV002 07/07 A2984 RMK AO2 SLP105 P0001 60001 70001 T00720068 10083 20071 57007
VAID 011200Z 27006KT 5000 HZ FEW020 SCT100 27/23 Q1006 NOSIG
ZSHC 011200Z 08003MPS CAVOK 32/26 Q1005 NOSIG
WAOO 011200Z 22004KT 9999 SCT016 27/25 Q1007 NOSIG
CYPE 011200Z 34010G22KT 260V030 15SM -SHRA BKN010 OVC120 14/13 A2980 RMK SC7AC1 DIST LTNG NW-N PRESRR SLP096 DENSITY ALT 2400FT
CYFS 011200Z 13004KT 090V160 15SM FEW090 BKN120 BKN150 BKN250 14/06 A2985 RMK AC1AC6AC1CI1 AC TR CI TR SLP115 DENSITY ALT 700FT
FNMA 300800Z 09012KT 8000 BKN008 19/18 Q1019
KGUC 011156Z AUTO 31003KT 10SM OVC120 12/11 A3045 RMK AO2 SLP222 T01220111 10167 20122 53005
LICD 011220Z AUTO 04007KT 9999 NCD 29/24 Q1013
EGPI 011150Z 15011KT 9999 FEW036 17/10 Q1014
VEKO 011200Z 27004KT 5000 HZ SCT025 34/25 Q1000
VEMR 011000Z 13003KT 5000 BR SCT018 FEW025CB BKN090 28/26 Q1002
FBPM 011200Z 09016KT 9999 FEW020 22/08 Q1025
KSCR 011215Z AUTO 20005KT 24/23 A3009 RMK AO2 T02360226 PWINO
CYCP 010100Z 00000KT 15SM SCT090CB BKN140 BKN170 32/13 A2981 RMK CB4AC1AC1 LAST STFD OBS/NEXT 011300Z SLP091 DENSITY ALT 4800FT
NZNV 011200Z 33005KT 300V010 50KM NCD 08/03 Q1005 RMK AUTO VATSIM USE ONLY
UACK 011130Z 36002MPS 330V040 9999 TS BKN040CB 22/16 Q1007 NOSIG RMK QFE732/0976
GVAC 011200Z 06011KT 9999 SCT007 BKN013 27/21 Q1012 NOSIG
OITK 301400Z 29010KT 9999 FEW035CB SCT040 33/13 Q1008
KGCY 011215Z AUTO 23005KT 10SM FEW008 BKN021 OVC035 22/21 A3016 RMK A01
UUYY 011200Z 21003MPS 9999 FEW020CB BKN036 24/16 Q1016 R18/61D TEMPO 6000 -TSRA RMK QFE753/1004
ESSL 011220Z AUTO /////KT //// R11///// R29///// ///////// 19/15 Q1011
SBUF 011200Z 13009KT 9999 SCT018 24/20 Q1019
RJSC 011000Z 06006KT 9999 FEW050 SCT140 30/25 Q1012
EGCC 011220Z AUTO 22008KT 160V240 9999 SCT039 SCT045 21/12 Q1018
UCFM 011200Z 29003MPS 270V330 9999 SCT066CB 31/10 Q1005 R26/0///95 NOSIG
KSEM 311900Z AUTO VRB03KT 10SM FEW041 32/22 A3019 RMK AO2
GMAD 011230Z 26009KT 9999 FEW013 SCT100 28/19 Q1010 NOSIG
KXSA 011215Z AUTO 26004KT 10SM BKN007 OVC010 24/24 A3003 RMK AO2 T02350235
LECO 011200Z 36006KT 320V060 CAVOK 28/18 Q1017 NOSIG
KGZS 040215Z AUTO 14007G16KT 1/2SM BR BKN002 OVC023 24/24 A3009 RMK A01
KBAX 011215Z AUTO 20007KT 10SM SCT060 SCT070 BKN075 21/17 A2984 RMK AO2 T02100168
DXXX 011200Z 22015KT 9999 SCT012 27/21 Q1015 NOSIG
YORG 011230Z AUTO 27007KT 9999 // NCD 02/01 Q1020
YKSC 011230Z AUTO 33008KT 9999 // BKN055 12/10 Q1014
KBBG 011150Z 00000KT 5SM BR CLR 22/22 A3008
LHDC 011215Z AUTO VRB05KT CAVOK 23/14 Q1014 NOSIG
K3N8 011215Z AUTO 04003KT 1/4SM FG OVC003 12/12 A2994 RMK AO2 T01240124
K3D2 011215Z AUTO 19003KT 10SM OVC026 18/18 A2969 RMK AO2 T01820180
EDMA 011220Z 25008KT CAVOK 26/14 Q1018
KEMT 010147Z 24004KT 10SM CLR 28/14 A2995
TKPK 011200Z 04013KT 9999 FEW018 29/25 Q1017
MMPG 011151Z 12004KT 10SM SKC 26/21 A3007 RMK RTS
CYSJ 011200Z 19008KT 3/8SM R23/2600V3000FT/N FG VV002 17/17 A2999 RMK FG8 SLP159 DENSITY ALT 700FT
PAPH 011231Z AUTO 27019KT 10SM FEW006 BKN060 10/09 A2992 RMK AO2
KGLE 011215Z AUTO 19006KT 10SM CLR 28/19 A3007 RMK AO2 T02760190
KIAD 011152Z 36006KT 10SM FEW015 BKN140 BKN250 22/19 A3001 RMK AO2 SLP160 70016 T02220189 10222 20217 50003
LTCW 011150Z 21014KT 170V230 8000 FEW040 32/02 Q1015
SBPV 011200Z 19001KT 7000 NSC 25/21 Q1013
KDCM 011135Z AUTO 00000KT 10SM CLR 22/21 A3013 RMK AO2
KHUT 011152Z COR 00000KT 8SM CLR 22/21 A2997
KCWN 280658Z AUTO 28004KT 10SM SCT180 14/10 A3032 RMK AO2 SLP107 T01430097 402100101 $
CYHD 011200Z AUTO 32005KT 280V340 9SM BKN016 12/11 A2985 RMK SLP118 DENSITY ALT 1500FT
CXTP 011200Z AUTO 25005KT 22/15 RMK AO1 SLP124 T02210151 51014
FYOA 011200Z AUTO 31011KT //// // ////// 30/02 Q1014
FBKE 011200Z 07010KT 030V100 CAVOK 29/M02 Q1020
CYXE 011200Z 04004KT 15SM SCT039 BKN090 16/15 A2991 RMK SC4AC2 SLP134 DENSITY ALT 2200FT
KSTF 011215Z AUTO 00000KT 6SM BR CLR 28/28 A3014 RMK AO2
MSLP 011150Z 06004KT 020V090 9999 SCT073 25/23 Q1011 A2986 NOSIG
NCSW 011100Z AUTO 09004KT //// ////// 26/22 Q1015
ESDF 011220Z 19010KT 160V220 CAVOK 22/14 Q1012
GVSV 011200Z 04018KT 9999 SCT016 BKN023 BKN100 26/21 Q1013 NOSIG
RJFE 011000Z 18008KT 9999 FEW015 BKN/// 27/25 Q1009
KCEC 011156Z AUTO 19004KT 7SM OVC008 15/14 A3001 RMK AO2 CIG 004V010 SLP162 T01500144 10156 20150 58002
LIMN 011155Z /////KT CAVOK 32/15 Q1014 RMK SKC VIS MIN 9999 BLU
RJFT 011200Z VRB02KT 9999 FEW030 27/24 Q1013
KUOX 011215Z AUTO 00000KT 8SM FEW055 OVC075 23/23 A3016 RMK AO2
NZHN 011200Z 36004KT 19KM FEW250 04/04 Q1028 RMK AUTO VATSIM USE ONLY
WBKS 011200Z 00000KT 9999 FEW016 27/25 Q1008
OIZB 011200Z 33023G33KT CAVOK 41/07 Q0998
CWTN 011200Z AUTO 27003KT 20/18 RMK AO1 SLP130 T02030176 58001
OIBP 011200Z 02006KT CAVOK 40/24 Q0997 A2946
VOSM 010700Z 25005KT 8000 SCT020 32/24 Q1005 NOSIG
LFRL 011230Z AUTO VRB04KT 9999 OVC017 21/16 Q1022 NOSIG
KF05 011215Z AUTO 00000KT 10SM CLR 30/13 A3005 RMK AO2 T02950125
KBVS 011215Z AUTO 00000KT 10SM FEW050 12/12 A2992 RMK A01
EKSP 011220Z 30013KT 270V330 9999 FEW030 SCT250 19/08 Q1016 TEMPO 32012G22KT
ZGNN 011200Z 12001MPS CAVOK 30/24 Q1004 NOSIG
OISY 011200Z 00000KT 8000 SCT040 FEW035CB BKN080 28/16 Q1015 RETS
KEKY 011156Z AUTO 00000KT 10SM CLR 24/23 A3019 RMK AO2 SLP068 T02390228 10239 20228 53011
KQVF 011156Z 16014G19KT 9999 FEW018 27/22 A2999 RMK AO2A WND DATA ESTMD SLPNO
SKBQ 011200Z 04003KT 360V100 9000 FEW012 BKN200 27/24 Q1010 NOSIG RMK HZ A2984
KJLN 011153Z 18009KT 10SM CLR 24/22 A3002 RMK AO2 SLP154 T02440222 10244 20233 53002 $
KFFM 011215Z AUTO 33003KT 10SM CLR 14/13 A2991 RMK AO2
EGFF 011220Z AUTO 23006KT 200V280 9999 NCD 22/12 Q1019
GOOK 011200Z 22006KT 9999 SCT020 SCT020TCU 30/27 Q1013
LTCE 011220Z 26014KT 9999 SCT040 32/M04 Q1013 NOSIG
LTAZ 011220Z VRB04KT CAVOK 35/07 Q1008 RMK RWY29 36007KT 310V050
KPOU 011153Z AUTO 00000KT 10SM OVC047 21/19 A3000 RMK AO2 SLP154 60003 70011 T02110194 10217 20206 56010
YCBP 011230Z AUTO 03009KT 9999 // NCD 13/M04 Q1016
ZSPD 011200Z 14004MPS 9999 FEW016 29/27 Q1006 NOSIG
SKUC 011200Z 02003KT 9999 SCT010 SCT070 25/25 Q1013 RMK A2994
KLPC 011229Z AUTO 00000KT 10SM SCT003 15/14 A3001 RMK AO2
KALW 011153Z AUTO 15004KT 10SM CLR 26/11 A2984 RMK AO2 SLP093 T02610106 10289 20256 53003
UTSK 011200Z 32012ET 280V340 CAVOK 35/07 Q1004 R34/CLRD70
ENSD 011220Z AUTO 28005KT 230V340 9999 BKN057/// OVC160/// 15/05 Q1014 RMK WIND RWY26 VRB02KT WIND 1140FT VRB03KT
K2IS 011210Z AUTO 08004KT 10SM SCT019 26/25 A3018 RMK AO2 T02650249
YSSY 011230Z 25006KT CAVOK 11/03 Q1018
GMTA 011200Z 34009KT 310V020 6000 SCT014 BKN023 28/21 Q1015 NOSIG
LGKP 011220Z 31027KT CAVOK 29/21 Q1004
UHMA 011200Z 14002MPS CAVOK 07/05 Q1012 R01/////// NOSIG RMK TDZ R01/14002MPS END R01/12003MPS QFE755/1007
YRTI 011230Z AUTO 29041G56KT //// // ////// 13/11 Q0995
FDPP 010500Z AUTO /////KT //// // ////// 08/M10 Q1028
HTSE 300400Z 00000KT 9999 BKN017 18/16 Q1020
KSHD 011215Z AUTO 00000KT 10SM SCT110 20/20 A3008 RMK AO2 T02020202
KSLE 011156Z 13003KT 10SM CLR 18/13 A2995 RMK AO2 SLP138 T01780133 10239 20172 50004
VTPH 011100Z 17005KT 140V210 9999 SCT030 31/25 Q1004 NOSIG
HTSU 011100Z 15004KT 9999 SCT023 24/08 Q1024
OIIE 011230Z 08014KT 6000 TS SHRA SCT030CB SCT040 BKN090 26/17 Q1009
KBHM 011153Z 23007KT 10SM BKN100 26/22 A3020 RMK AO2 SLP217 T02610217 10267 20239 53013 $
CXKA 011200Z AUTO 19006KT 18/16 RMK AO1 1PAST HR 6017 SLP018 P0000 T01760161 50001
LZZI 011230Z VRB02KT 9999 FEW046 23/16 Q1015
KEND 011156Z AUTO 14006KT 10SM CLR 23/20 A2996 RMK AO2 SLP132 70011 T02330204 10258 20229 50000 $
SBUL 011200Z 10011KT CAVOK 20/10 Q1021
MMGL 011144Z 00000KT 5SM SCT008 OVC020 18/13 A3025 RMK SLP123 52004 963 8/5// HZY BR
KU55 011215Z AUTO 14005KT 10SM CLR 13/12 A3038 RMK A01
VEIM 010200Z 00000KT 3000 BR SCT018 BKN100 26/23 Q1009 NOSIG
KWVI 011153Z AUTO 00000KT 10SM CLR 16/14 A3001 RMK AO2 SLP161 T01610139 10161 20144 53003
UNAA 011200Z 02003MPS 9999 FEW019CB 26/15 Q1001 R02/290155 NOSIG RMK QFE728
SKVV 011200Z 00000KT 9999 FEW023 BKN090 23/20 Q1014 RMK A2995
KCQC 011153Z AUTO 31007KT 10SM BKN120 17/13 A3036 RMK AO2 SLP173 T01670133 10178 20161 55000
K1HN 290956Z AUTO 00000KT 10SM CLR 10/09 A3007 RMK AO2 SLP189 T00990090 $
LOAV 011200Z 32010KT 9999 BKN040 28/16
BGGH 011150Z 19005KT 9999 OVC080 10/07 Q1006
VOHS 011230Z 32006KT 5000 HZ SCT015 BKN100 27/24 Q1006 NOSIG
K1KM 251558Z AUTO 12026G96KT 1SM HZ SQ CLR 22/11 A3007 RMK AO2 VIS 1V10 SLP154 P0002 T02150105 PWINO $
ESSP 011220Z 18006KT 150V230 CAVOK 24/10 Q1010
EIKY 011200Z 19007KT 160V220 9999 -SHRA SCT009 BKN020 19/17 Q1014
SKLC 011200Z 00000KT 9999 SCT008 BKN080 24/23 Q1011 RMK A2986
LQSA 011230Z VRB07KT 9999 FEW050 28/11 Q1015 NOSIG
CYUX 011200Z 13020G25KT 10SM SCT005 BKN025 03/01 A2946 RMK SF3SC4 SLP977
KBIV 011230Z AUTO 19011KT 10SM OVC009 22/20 A2979 RMK AO2 T02220200
EGLF 011220Z AUTO 34003KT 290V050 9999 FEW031/// 23/15 Q1018
OIKR 010300Z 00000KT 9999 FEW040 23/19 Q1014 A2996
DIBK 011200Z 22010KT 9999 BKN011 24/22 Q1015 NOSIG
CYQA 011200Z AUTO 15006KT 9SM CLR 19/17 A2988 RMK SLP117 DENSITY ALT 1700FT
WMKC 011200Z 26003KT 210V320 9999 -TSRA FEW010 FEW017CB SCT020 25/23 Q1008
CWWZ 011200Z AUTO 18009KT 24/19 RMK AO1 SLP132 T02360193 58009
KGWB 011215Z AUTO 21005KT 5SM BR OVC005 21/20 A2991 RMK AO2
YTEF 011230Z AUTO 30007KT //// // NCD 25/01 Q1011
LDSB 011100Z 34008KT 260V050 CAVOK 29/09 Q1016
KBDG 011215Z AUTO 27004KT 10SM 20/13 A3038 RMK AO1 T01980130
EGBB 011220Z 30006KT 220V350 CAVOK 22/08 Q1019
RJOS 011200Z 16014KT 9999 FEW030 SCT050 BKN/// 28/24 Q1013
KCPU 011215Z AUTO 00000KT 10SM CLR 22/14 A3001 RMK AO2 T02170142
KTXK 011153Z 19006KT 10SM BKN120 27/22 A3008 RMK AO2 SLP181 T02720222 10289 20272 53012
K5R8 011215Z AUTO 00000KT 10SM SCT028 24/23 A3011 RMK AO2 T02350230
RKNR 220210Z 02003KT 4000 -RA BR FEW005 BKN015 OVC030 20/20 A2977 RMK CIG015
KP53 011156Z AUTO 20006KT 20/19 A2965 RMK AO1 SLP037 60026 70026 T02000189 10217 20194 55009
EGNR 011220Z 23008KT 200V260 9999 FEW027 SCT042 23/11 Q1018
KRCX 011215Z AUTO 31010KT 10SM OVC014 19/18 A2983 RMK AO2 T01920182
EISG 011200Z 16010G20KT 130V190 5000 BKN013 OVC019 15/12 Q1012
KDVT 011153Z AUTO 00000KT 9SM CLR 28/22 A3000 RMK AO2 SLP133 T02830217 10300 20283 55000
KDHT 011205Z AUTO 25004KT 2 1/2SM BR CLR 20/19 A3011 RMK AO2 T02000194
KLHW 011156Z AUTO 22004KT 10SM CLR 25/22 A3015 RMK AO2 SLP212 T02530218 10256 20240 52011 $
ENLE 011150Z 20007KT CAVOK 14/08 Q1019 W16/S3
KPPF 011152Z AUTO 18005KT 10SM CLR 24/22 A3000 RMK AO2 SLP148 T02390217 10250 20233 55002
KDRT 011153Z AUTO 10009KT 10SM CLR 26/19 A3004 RMK AO2 SLP161 T02560189 10317 20256 55000 $
VOGB 010900Z 35004KT 8000 FEW012 SCT018 30/24 Q1006 NOSIG
SCGZ 011200Z 14004KT 9999 FEW050 SCT066 BKN076 02/01 Q1004
SUCA 011200Z 04006KT CAVOK 10/08 Q1018
VEJS 011200Z 27003KT 4000 TS SCT015 FEW030CB BKN100 29/24 Q1000
VTPB 011100Z 36001KT 9999 -RA BKN030 26/26 Q1003 NOSIG
KDUH 011215Z AUTO 20008KT 10SM SCT050 SCT060 BKN075 22/20 A2990 RMK AO2 T02150197
KGHW 011215Z AUTO 31008KT 10SM CLR 16/14 A2993 RMK AO2
VLLN 011200Z 18004KT 8000 TS SCT020 FEW023CB BKN100 28/24 Q1005 CB/W NOSIG
KATA 011215Z AUTO 17003KT 10SM FEW130 BKN150 OVC210 26/23 A3009 RMK AO2 SLP087 T02580229
LROD 011200Z 35004KT 300V020 9999 BKN046 23/12 Q1014
LDOS 011230Z 33006KT 280V050 9999 FEW043 30/13 Q1014
PAPR 271950Z 21008KT 10SM -RA BKN012 OVC020 08/ A3007 RMK LAST
LKKB 011200Z 31005KT 270V020 9999 FEW036TCU SCT090 24/16 Q1015 NOSIG
WIII 011230Z 05006KT 9000 FEW020 28/26 Q1008 NOSIG
CYUL 011200Z 22005KT 170V240 30SM FEW088 FEW250 22/18 A2992 RMK AC2CI1 CI TR SLP135 DENSITY ALT 1000FT
OSKL 011200Z 24010KT CAVOK 43/03 Q1001
HUKS 090600Z 00000KT 5000 HZ SCT024 OVC120 21/17 Q1018
UWSG 011200Z 08004MPS 020V120 CAVOK 28/14 Q1013 R08/CLRD70 NOSIG RMK QFE757/1010
SGPC 010900Z 14003KT CAVOK 18/12 Q1011
KTPA 011209Z 15007KT 10SM FEW020 FEW200 29/24 A3017 RMK AO2 T02890244 $
LEPP 011200Z 31005KT 260V350 9999 FEW030 31/16 Q1019
KDPG 281900Z 27002KT 25SM FEW110 SCT160 35/07 A3005 RMK TCU DSNT E SLP115 T03460074
LFMI 011230Z AUTO 36006KT 310V060 CAVOK 36/12 Q1013 BECMG 24014KT
LRAR 011200Z 05005KT 340V110 CAVOK 28/13 Q1013
SBCH 011200Z 05004KT 9999 FEW020 SCT100 15/10 Q1018
WIDD 011200Z 15004KT 9999 FEW014 28/25 Q1008 NOSIG
KDYA 011235Z AUTO 00000KT 7SM CLR A3016 RMK AO2
EPLL 011230Z 23005KT 180V300 9999 FEW037 24/15 Q1013
KDSF 011215Z AUTO 14009KT 10SM FEW024 29/24 A3013 RMK A01
RKTU 011200Z 11004KT CAVOK 29/24 Q1005
LEZG 011200Z 01003KT CAVOK 30/17 Q1017
KPQI 011156Z AUTO 20005KT 10SM CLR 20/17 A2995 RMK AO2 SLP163 T02000167 10200 20150 58006
KLXV 011153Z AUTO 06003KT 10SM BKN120 06/04 A3058 RMK AO2 SLP216 T00560044 10089 20050 55001
KSAR 011215Z AUTO 21005KT 10SM CLR 23/22 A3004 RMK AO2 T02290222
KBMI 011156Z 23011G18KT 10SM FEW110 20/17 A2991 RMK AO2 LTG DSNT SE-SW TSE04B05E52RAE14 SLP120 P0000 60046 70046 T02000172 10228 20194 58004
CZPS 011200Z AUTO 21007KT 15/14 RMK AO1 T01470140 50019
FOOY 141200Z /////KT 9999 BKN011 28/21 Q////
KOLZ 011215Z AUTO 29008KT 9SM CLR 19/18 A2990 RMK A01
HTKI 300400Z 18006KT 9999 SCT016 23/21 Q1017
LFAQ 011230Z AUTO 26004KT 200V310 9999 SCT015/// BKN020/// BKN027/// ///CB 22/18 Q1019 BECMG BKN018
CYPQ 011200Z AUTO 00000KT 9SM CLR 17/17 A2992 RMK SLP133 DENSITY ALT 1000FT
LEGA 011200Z 19010KT 150V280 CAVOK 37/11 Q1018
KBCB 011215Z AUTO 00000KT 10SM BKN031 OVC042 22/22 A3015 RMK AO2 T02160216
VCRI 011210Z 27007KT 9000 SCT018 BKN060 26/25 Q1005 NOSIG
VEBN 011230Z 23004KT 3500 HZ SCT025 FEW030CB SCT100 33/28 Q0999 NOSIG
KAXA 011215Z AUTO 31005KT 9SM CLR 17/17 A2995 RMK A01
YBLT 011230Z AUTO 34012KT 9999 // NCD 07/06 Q1013
KXER 151420Z AUTO 16003KT 9SM FEW018 29/25 A3013 RMK A01
KSSC 011156Z AUTO 23006KT 10SM SCT120 25/21 A3013 RMK AO2 SLP202 T02510208 10260 20242 52011 $
FQPB 011200Z 15016KT 9999 FEW020 SCT100 26/22 Q1018
KTRL 011153Z AUTO 16006KT 10SM CLR 26/20 A3008 RMK AO2 SLP177 T02610200 10306 20261 53010
KTLH 011153Z 00000KT 10SM FEW010 FEW150 FEW250 24/23 A3018 RMK AO2 SLP219 T02390228 10239 20217 53016
UADD 011200Z 36007G12MPS 320V030 9999 VCTS SCT050CB BKN100 32/07 Q1006 NOSIG RMK QFE697/0929
KCNY 011153Z AUTO 12003KT 10SM FEW080 23/14 A3014 RMK AO2 SLP139 T02330139 10261 20228 53007
CWZO 011200Z AUTO 17012KT RMK AO1
CWGH 011200Z AUTO 20004KT 22/18 RMK AO1 SLP135 T02210181 58007
BGTL 011156Z AUTO 29004KT 9999 BKN150 11/11 A2980 RMK AO2 SLP074 T01090109 10112 20078 53002 TSNO $
KARA 011153Z 13003KT 10SM CLR 24/23 A3011 RMK AO2 SLP195 T02440233 10250 20239 53006
UTFN 011200Z 16004KT 100V200 9999 NSC 33/08 Q1003 R28/CLRD70 NOSIG
EGYE 011150Z 26008KT 9999 FEW045 ///// Q1018 RMK BLU
EGYM 011221Z 20008KT 9999 FEW027 SCT032 23/14 Q1018 NOSIG RMK BLU BLU
KPVD 011151Z 00000KT 10SM SCT150 BKN190 BKN300 22/19 A3003 RMK AO2 SLP169 60011 70011 T02220189 10228 20211 58007
EGNT 011220Z 25009KT 190V310 9999 SCT042 20/10 Q1016
KOZR 011156Z AUTO 00000KT 10SM CLR 23/22 A3017 RMK AO2 SLP216 T02310221 10239 20217 52011
VOPB 011200Z 23008KT 6000 SCT014 SCT220 29/25 Q1003 NOSIG
EKKA 011220Z AUTO 30013KT 260V320 9999 NCD 18/08 Q1015 TEMPO 30015G25KT
KASH 011156Z 00000KT 10SM -RA FEW034 BKN060 BKN070 21/21 A3002 RMK AO2 RAB10 SLP167 P0000 60000 T02110211 10222 20200 58002 $
CYZS 011200Z 21013KT 12SM -RA SCT023 OVC045 08/08 A2936 RMK SC4SC4 SLP948
KI74 011215Z AUTO 22003KT 3SM BR OVC004 20/20 A2999 RMK AO2
HESG 011200Z 35015KT CAVOK 39/13 Q1002
DAUO 011200Z 25005KT 210V360 8000 NSC 41/10 Q1011
KBXA 011215Z AUTO 00000KT 10SM CLR 24/23 A3015 RMK AO2 T02400225
KLUK 011153Z 21004KT 5SM BR BKN013 OVC021 22/22 A3001 RMK AO2 SLP158 60000 70017 T02220217 10222 20194 56005
UUBP 011200Z 10004MPS 070V140 CAVOK 25/10 Q1015 R16/////// NOSIG RMK QFE743/0991
CYPG 292200Z 23013KT 190V260 15SM SCT049 BKN250 26/13 A2997 RMK CU4CI1 DENSITY ALT 2549FT LAST OBS /NEXT 021100 UTC SLP148
YARM 011230Z AUTO 32008KT 0600 FG BKN002 BKN006 06/06 Q1020
CYXZ 011211Z 22004KT 190V290 3/8SM -RA FG VV001 15/15 A2965 RMK FG8 SLP043 DENSITY ALT 1500FT
BGSF 011150Z AUTO 07006KT 9999NDV NCD 12/03 Q1006
YCEE 011230Z AUTO 35011KT //// // ////// 10/03 Q1015
KSGU 011156Z AUTO 12006KT 10SM CLR 23/19 A3011 RMK AO2 SLP160 T02330189 10261 20233 53001
LFOK 011230Z AUTO 34005KT 280V040 9999 FEW035 SCT058 BKN140 24/15 Q1019 NOSIG
K79J 011156Z AUTO 00000KT 7SM CLR 25/22 A3017 RMK AO2 SLP211 70007 T02500222 10250 20233 53011
YWYM 011230Z AUTO 20005KT //// // ////// 23/08 Q1012
KPIH 011153Z AUTO 21003KT 10SM CLR 15/04 A3009 RMK AO2 SLP134 T01500044 10206 20133 53002 TSNO $
KBUR 011153Z 28003KT 10SM CLR 23/13 A2999 RMK AO2 SLP140 T02330128 10256 20233 58013 $
WADD 011200Z 13012KT 9999 SCT017 27/25 Q1009 NOSIG
KMSO 011153Z 00000KT 10SM CLR 16/06 A3000 RMK AO2 SLP128 T01610061 10233 20156 53006
VOCI 011230Z 27004KT 2500 DZ SCT008 SCT012 OVC080 25/24 Q1005 NOSIG
YLHR 011230Z AUTO 15011KT 3400 -SHRA OVC006 22/22 Q1012
CXCK 011200Z AUTO 12001KT 13/12 RMK AO1 3PAST HR 1003 SLP138 P0001 T01300115 50008
CYJT 011200Z 23003KT 160V300 15SM SCT070 BKN220 20/16 A2994 RMK AC4CI2 SLP140 DENSITY ALT 700FT
CWCJ 011200Z AUTO 21002KT 12/12 RMK AO1 9PAST HR 5002 SLP032 P0046 T01210118 50123
K1HM 011158Z AUTO 28003KT 10SM CLR 19/M01 A2993 RMK AO2 SLP085 T01911014 10210 20152 53001 $
ENUG 011220Z AUTO 24004KT 180V270 9999NDV OVC008/// 14/09 Q1010 W///S3
KGTB 011156Z AUTO 15006KT 10SM CLR 20/16 A2994 RMK AO2 SLP136 T02010163 10201 20170 58005 FZRANO $
CWXA 011200Z AUTO 00036KT 16/14 RMK AO1 SLP154 T01600135 50002
KQSM 212356Z 08004KT 9999 OVC001 21/21 A2965 RMK RAE00 SLP045 60000 T02070205 10207 20197 50000 $
CYVQ 011200Z 04004KT 30SM FEW065 FEW100 SCT270 08/06 A2991 RMK SC1AC1CI2 SLP133
HTGW 300400Z 11010KT 9999 FEW022 14/12 Q1022 NOSIG
KARR 011152Z 22011KT 10SM BKN045 OVC055 22/20 A2983 RMK AO2 SLP097 60003 70003 T02170200 10217 20206 55005
KNOW 011215Z AUTO 29008KT 10SM OVC002 12/12 A2992 RMK AO2 T01230123
EBBE 011155Z 32004KT 9999 FEW028 BKN080 24/14 Q1019 BLU BLU
CWDZ 011200Z AUTO 34003KT 16/14 RMK AO1 SLP134 T01600140 50003
KDAW 011151Z AUTO 00000KT 10SM CLR 22/17 A3000 RMK AO2 SLP153 T02170172 10217 20183 58004
EGPK 011220Z 27009KT 240V310 9999 FEW040 18/08 Q1015
KPOB 011156Z AUTO 21008KT 10SM CLR 27/21 A3007 RMK AO2 SLP183 T02650208 10274 20247 51006 $
SLJV 312200Z 00000KT 9999 NSC 28/18 Q1010
KHRT 011156Z 00000KT 10SM FEW030 25/23 A3014 RMK AO2A SLP208 T02520228 10283 20243 53009 $
RPLL 011200Z 26008KT 9999 BKN023 OVC100 27/25 Q1010 NOSIG RMK A2983
ETHL 011220Z 26006KT 9999 SCT045 SCT110 26/12 Q1018 BLU+BLU+
SVGD 021303Z AUTO 13001KT NCD 25/25 Q1014
KBGD 011151Z AUTO 20013G24KT 10SM CLR 28/12 A3003 RMK AO2 SLP114 60000 70004 T02780122 10283 20261 58004
KFLO 011153Z 23008KT 10SM FEW120 26/22 A3013 RMK AO2 SLP199 T02560217 10267 20244 51010
KTIW 011153Z AUTO 25003KT 10SM CLR 16/14 A2994 RMK AO2 RAB19E29 SLP134 P0000 60000 T01610139 10239 20161 53010
KDDH 011154Z AUTO 00000KT 10SM CLR 22/18 A3002 RMK AO2 SLP160 T02220178 10222 20167 56005
BIVM 011200Z 34015G26KT 270V020 9999 FEW050 11/05 Q1005
KVHN 011215Z AUTO 21008KT 10SM CLR 22/10 A3021 RMK AO2 T02180100
CPEH 010900Z AUTO 00000KT 16/15 RMK AO1 T01610149
KAIA 011153Z AUTO 14004KT 10SM CLR 16/12 A3004 RMK AO2 SLP124 T01610122 10211 20144 56007
PAEL 010250Z 00000KT 10SM OVC010 13/12 A2996 RMK NOSPECI LAST
KNAK 011154Z AUTO 29005KT 10SM BKN018 23/21 A2999 RMK AO2 SLP158 70019 T02280206 10239 20228 53003
KCOQ 011215Z 32005KT 5SM BR 16/14 A2982 RMK AO2 TSNO
KLRO 011215Z AUTO 22007KT 8SM CLR 28/25 A3016 RMK AO2
KGDV 011156Z AUTO 20007KT CLR 17/12 A2985 RMK AO2 SLP089 T01720122 10222 20172 56016 PWINO $
KCRE 011153Z 25008KT 10SM CLR 27/23 A3013 RMK AO1 SLP202 70028 T02720233 10272 20261 52008
FMNM 011200Z VRB07KT 9999 FEW023 32/14 Q1015 NOSIG
LTBY 011150Z 32009KT 280V010 9999 FEW040 29/14 Q1011
K82V 011215Z AUTO 00000KT 10SM CLR 12/11 A3015 RMK AO2
SBFI 011200Z 11006KT 9999 FEW030 BKN080 16/13 Q1017
YELD 011230Z AUTO 12008KT //// // ////// 24/21 Q1012
GAMB 011200Z 24006KT 9999 FEW027 25/21 Q1012
EETN 011220Z 09015KT 9999 SCT036 22/13 Q1011 NOSIG
MNMG 010300Z 11008KT 9999 FEW022 SCT300 27/24 Q1012 A2989 NOSIG
SBNF 011200Z 24011KT 9999 FEW015 SCT030 16/12 Q1019
KJYO 011235Z AUTO 04005KT 10SM CLR 22/20 A3003 RMK AO2
KPAH 011212Z COR 00000KT 6SM BR OVC009 24/22 A3006 RMK AO2 CIG 007V013 T02390222
LEEC 011200Z 31005KT 230V350 CAVOK 35/18 Q1014
KN60 011152Z AUTO 04004KT 16/14 A2997 RMK AO1 SLP141 T01610144 10161 20122 50015
KQEJ 011230Z AUTO 20001KT 9999 FEW080 BKN110 OVC210 26/25 A2975 RMK A02 TSNO
GLRB 011200Z 20006KT 7000 -RADZ FEW005 BKN011 24/23 Q1015
CYPH 011200Z AUTO 19012G17KT 9SM FEW005 OVC066 09/07 A2976 RMK SLP079
KADT 011215Z AUTO 22006KT 10SM CLR 19/17 A3009 RMK AO2 T01910166
KPRN 011058Z AUTO 00000KT 8SM CLR 21/21 A3016 RMK AO2 SLP158 T02060206
EFKK 011220Z AUTO 03003KT 360V070 9999 VCTS SCT041 //////CB 21/16 Q1011
KMSN 011153Z 28006KT 10SM OVC017 22/20 A2979 RMK AO2 SLP081 60035 70035 T02220200 10233 20211 53006
LFLP 011230Z AUTO 26006KT 200V360 CAVOK 32/05 Q1017 NOSIG
RKPK 011200Z 18017KT 9999 BKN015 BKN040 29/25 Q1009
SESA 011200Z 23009KT 9999 SCT008 BKN011 21/19 Q1013 RMK A2991
KROX 011215Z AUTO 26004KT 10SM 14/13 A2992 RMK AO2
KY50 011234Z AUTO 29006KT 1 1/4SM HZ SCT015 OVC034 22/19 A2977 RMK AO2 PWINO $
LDDU 011230Z 27012KT CAVOK 29/12 Q1012 NOSIG
LIBA 011155Z 34014KT 9999 FEW030 32/13 Q1013 RMK FEW VIS MIN 9999 WIND THR11 34013KT WIND THR29 /////KT BLU
CYGH 311800Z 10009KT 070V130 25SM FEW058 18/07 A2992 RMK SC1 LAST STFD OBS/NXT 011300UTC SLP136 DENSITY ALT 700FT
SBCT 011200Z 07003KT 9000 NSC 13/10 Q1020
EGKA 011220Z 16007KT 9999 SCT007 BKN011 20/17 Q1019
SKYP 281600Z 11009KT 070V140 9999 SCT010 BKN030 30/22 Q1015 RMK A2999
HTDO 011100Z 09015KT 9999 SCT025 25/14 Q1020 NOSIG
K57C 011215Z AUTO 26009KT 220V280 23/21 A2979 RMK AO2 T02250211 PWINO
VEPT 011230Z 25003KT 4000 HZ SCT018 BKN100 33/28 Q0998 NOSIG
KBIX 011156Z AUTO 21006KT 10SM FEW026 29/24 A3011 RMK AO2 SLP199 T02910237 10292 20287 52009
KMSP 011209Z 31010KT 10SM BKN029 19/15 A2987 RMK AO2 T01940150
YPEA 011230Z AUTO 29021G31KT 9999 -SHRA SCT035 BKN048 BKN057 14/10 Q0996
KMNI 011235Z AUTO 27005KT 10SM CLR 26/21 A3015 RMK AO2
LSZH 011220Z 22008KT 160V290 9999 FEW070 31/10 Q1017 NOSIG
CYPD 011200Z AUTO 24003KT 220V280 9SM CLR 23/17 A3001 RMK SLP163 DENSITY ALT 1300FT
KTCL 011153Z 00000KT 8SM SCT120 24/23 A3015 RMK AO2 SLP208 T02440228 10244 20233 51013
MMCT 312051Z 13010KT 8SM BKN015TCU BKN250 33/24 A2999 RMK 8/201 DSNT S
KTNU 011215Z AUTO 29007KT 10SM CLR 20/20 A2995 RMK A01
KS39 011215Z AUTO 00000KT 10SM FEW042 FEW055 SCT100 22/05 A3003 RMK AO2
LFSN 011230Z AUTO 32007KT 260V070 9999 FEW049 BKN060 OVC074 27/15 Q1018
KBJC 011152Z 26004KT 10SM SCT150 19/08 A3019
LSZA 011220Z 20005KT 160V240 9999 FEW075 33/13 Q1014
BGKK 011150Z 25006KT 9999 VCFG FEW200 08/03 Q1011
PAOO 182040Z AUTO 18011KT BKN025 OVC110 09/05 A2974 RMK AO2 PWINO TSNO $
KDEN 011153Z 24005KT 10SM FEW150 FEW220 18/10 A3016 RMK AO2 SLP128 T01830100 10228 20178 55000
EEKE 011220Z 07008KT 9999 FEW031 BKN036 20/13 Q1010
EGTE 011220Z VRB03KT 9999 FEW040 24/13 Q1019
ESNX 011220Z AUTO 11011KT 9999 SCT044/// BKN140/// 20/12 Q1009
KRLD 011215Z AUTO 00000KT 7SM CLR 21/17 A2979 RMK AO2 T02100165
ETHS 011220Z 31010KT 9999 SCT030 BKN300 21/13 Q1016 BLU+BLU+
K2G9 011215Z AUTO 00000KT 10SM SCT008 OVC013 17/16 A3009 RMK AO2
FVRG 011200Z 08011KT 050V120 CAVOK 22/M03 Q1026 NOSIG
SBSM 011200Z VRB01KT 0150 R11/0375 R29/0400 FG VV001 08/08 Q1018
YLHI 011230Z AUTO 36010KT 9999 // SCT027 BKN035 18/12 Q1022
CWBU 011200Z AUTO 34003KT 09/08 RMK AO1 1006 SLP145 T00860079 50002
KEIK 011215Z AUTO 19005KT 10SM CLR 15/11 A3015 RMK AO2 T01510110 PWINO
CYLL 011224Z AUTO 08002KT 5/8SM BR BKN001 OVC130 12/12 A2993 RMK SLP148 DENSITY ALT 2400FT
CZMD 011200Z AUTO 26006KT 210V280 9SM FEW091 SCT120 BKN140 12/12 A2978 RMK SLP092 DENSITY ALT 1000FT
RJSK 011200Z 08003KT CAVOK 27/25 Q1012
NFNA 011200Z VRB02KT 9999 SCT020 BKN045 24/23 Q1016
KMWN 011147Z 25008KT 1/16SM FG VV000 10/10 RMK 10105 20089
PFKW 011134Z AUTO 10006KT 5SM RA BR BKN003 OVC009 12/11 A2972 RMK AO2 P0004
EHKV 011225Z AUTO 12004KT 9999 NSC 17/11 Q////
FVKB 300600Z 00000KT CAVOK 16/10 Q1020
DAUK 011200Z 30004KT 4000 HZ NSC 42/09 Q1011
CYAH 011200Z AUTO 08004KT 9SM CLR 10/08 A2981 RMK SLP107
HTTG 301900Z 00000KT 9999 FEW017 BKN080 24/21 Q1017
KW99 011215Z AUTO 15003KT 7SM OVC002 20/20 A3005 RMK AO2 T02040204
KIBM 011215Z AUTO 26003KT 10SM CLR 14/11 A3013 RMK AO2 T01410112
FAPE 011200Z 13007KT 090V160 CAVOK 16/07 Q1028 NOSIG
ZJHK 011200Z 11002MPS CAVOK 28/26 Q1005 NOSIG
KEQA 011215Z AUTO 19009KT 10SM CLR 25/21 A2999 RMK AO2
KBTM 011153Z AUTO 00000KT 10SM CLR 13/03 A3018 RMK AO2 SLP153 T01280033 10183 20117 53001 $
K2J3 011215Z AUTO 27005KT 10SM CLR 25/21 A3018 RMK AO2 T02520211
ORNI 011200Z 03008KT 7000 NSC 48/M02 Q0997 NOSIG
KPIT 011151Z 21005KT 3SM BR OVC004 18/17 A3003 RMK AO2 SFC VIS 5 SLP170 T01830172 10183 20167 56002
FDOT 011100Z AUTO 22001KT //// // ////// 16/11 Q1032
OIMN 011200Z 28012KT 9999 FEW025 FEW030CB 30/13 Q1011
CWZN 011200Z AUTO 26010KT 16/16 RMK AO1 SLP148 T01620155 51008
MMPS 011142Z 05008KT 7SM BKN080 BKN220 24/20 A2989 RMK 8/032 HZY
WMKA 011200Z 31004KT 260V340 9999 FEW028 27/26 Q1006
KBDE 011153Z AUTO 29005KT 10SM FEW005 14/13 A2990 RMK AO2 SLP125 70019 T01440128 10167 20133 51014
KVWU 011215Z AUTO 32007KT 10SM OVC004 15/13 A2991 RMK AO2
AAXX 29154 78583 41470 62203 10285 20261 40139 70188 84802 333 02207 59015 81816 84822
KMBT 011215Z AUTO 20006KT 10SM FEW036 BKN050 OVC080 23/22 A3011 RMK A01
KORE 011217Z AUTO 00000KT 10SM BKN016 BKN023 BKN120 21/18 A3004 RMK AO2 T02060183
RCFN 011200Z 01003KT 330V060 9999 VCSH FEW020 BKN120 BKN200 29/26 Q1009 NOSIG RMK A2981
KUCY 011215Z AUTO 19005KT 7SM SCT005 23/23 A3007 RMK A01
KSBY 011154Z 26005KT 10SM SCT023 OVC050 26/24 A2998 RMK AO2 SLP153 60000 T02560239 10256 20239 50001
SADF 011217Z 00000KT 5000 BR NSC 11/10 Q1018
MHTG 011233Z 36008KT 6000 -RA FEW008 BKN026 20/19 Q1020 A3012 BECMG 8000 VCSH
DIYO 011200Z 20012KT 9999 OVC011 27/21 Q1015 NOSIG
KSPS 011152Z 19012KT 10SM SCT120 BKN150 BKN250 29/15 A3002 RMK AO2 SLP146 T02890150 10322 20289 53014
TLPC 011200Z 09010KT 9999 FEW024 SCT040 29/24 Q1015 NOSIG
LETU 011200Z AUTO VRB02KT 9999 NCD 29/16 Q1018
CYXT 011200Z 23006KT 210V280 20SM FEW030 BKN060 15/10 A2993 RMK SC1SC5 SLP139 DENSITY ALT 1000FT
KMRJ 011215Z AUTO 31004KT 10SM BKN012 20/18 A2985 RMK AO2
YMAY 011230Z AUTO 05002KT 9999 // OVC058 08/07 Q1019
LIRA 011220Z 26008KT 230V320 CAVOK 33/12 Q1014
KSMN 011156Z AUTO 00000KT 8SM CLR 13/08 A3012 RMK AO2 SLP888 T01280078 10189 20128 53007
YIVO 011230Z AUTO 33005KT //// // ////// 08/03 Q1019
KNGU 011159Z 25008KT 10SM SCT130 BKN280 24/23 A3003 RMK AO2 SLP169 60003 70026 T02440228 10244 21222 53006 $
NZWS 011200Z 04010KT 20KM -RA FEW016 BKN028 BKN039 08/08 Q1022 RMK AUTO NZHK VAT
KOLE 011215Z AUTO 21006KT M1/4SM FG OVC003 14/14 A3005 RMK AO2
LTCL 011150Z VRB04KT CAVOK 42/06 Q1003
K9V9 011215Z AUTO 14003KT 10SM CLR 15/15 A2998 RMK AO2 T01450145
CWXL 011200Z AUTO 31004KT 14/13 RMK AO1 SLP117 T01390134 53013
CYEN 011200Z AUTO 11005KT 9SM BKN120 BKN140 16/15 A2986 RMK LTNG DIST NE SLP114 DENSITY ALT 2600FT
LFLL 011230Z 35010KT 310V040 CAVOK 32/11 Q1017 NOSIG
LTBH 011150Z 06010KT 9999 FEW035 32/15 Q1009
LPFR 011200Z 13008KT CAVOK 30/19 Q1015
K8B0 011215Z AUTO 00000KT 10SM CLR 19/16 A3004 RMK AO2
FAEL 011200Z 12008KT CAVOK 17/06 Q1029
EICK 011230Z 21013KT 9999 -RADZ BKN004 18/18 Q1016 TEMPO 0400 FG BKN001
YSMI 011230Z AUTO 27018KT //// // ////// 10/07 Q1005
KQVB 011158Z AUTO 00000KT 10SM FEW190 15/15 A2999 RMK AO2 SLP252 T01490146 10161 20149 51001 $
KGHB 011215Z AUTO VRB06KT 10SM FEW025 SCT030 29/24 A3011 RMK A01
K2W6 011221Z AUTO 28006KT 10SM BKN005 24/22 A3001 RMK AO1
KPIA 011212Z 22007KT 10SM BKN025 BKN035 21/18 A2991 RMK AO2 T02060183 $
UMIO 011200Z 18006G10MPS CAVOK 26/13 Q1012 NOSIG RMK QFE742/0989
KOSA 011215Z AUTO 17004KT 10SM CLR 26/22 A3009 RMK AO2 T02570223
KJES 011215Z AUTO 00000KT 10SM CLR 25/22 A3021 RMK AO2
SABE 011200Z 08004KT 9999 FEW008 14/12 Q1019 NOSIG RMK PP000
KPNT 011215Z AUTO 23011G16KT 10SM SCT026 21/20 A2989 RMK AO2 LTG DSNT SE AND S T02080204
DAOV 011200Z 36010KT 320V040 CAVOK 34/17 Q1017
SBRJ 011200Z 33007KT 9999 FEW013 19/17 Q1019
KOWX 011215Z AUTO 20007KT 5SM SCT009 BKN046 21/19 A2996 RMK AO1
K3J7 011215Z AUTO 00000KT 7SM CLR 23/21 A3018 RMK AO2
RKPM 011040Z 20008KT 9999 BKN010 BKN130 26/25 A2976 RMK CIG010
KMAF 011153Z 18013KT 9SM CLR 25/14 A3010 RMK AO2 SLP140 T02500139 10289 20250 53005
KSHN 011153Z AUTO 25011KT 10SM OVC005 14/13 A2992 RMK AO2 SLP130 T01390128 10183 20139 53003
UMGG 011200Z 11006G09MPS CAVOK 28/11 Q1013 NOSIG
TDCF 011200Z 12006KT 9999 SCT020 29/21 Q1014
KAFJ 011229Z AUTO 18005KT 4SM BR BKN006 OVC012 18/18 A3008 RMK AO2 CIG 005V009
KHEI 011153Z AUTO 13006KT 10SM CLR 16/12 A2994 RMK AO2 SLP121 T01560122 10172 20139 56015
OIII 011230Z 09014KT 9999 FEW035CB SCT040 33/08 Q1009 A2982
KTIF 011215Z AUTO 14005KT 10SM TS CLR 21/15 A3000 RMK AO2 LTG DSNT E T02060147
KGDJ 011215Z AUTO 16006KT 10SM CLR 27/19 A3007 RMK AO2 T02680191
OITT 011230Z 27012KT 9999 FEW030TCU FEW035CB 36/07 Q1011 A2986
HUJI 171000Z 11005KT 9999 SCT022 FEW025CB 28/15 Q1018.8 884.6
HKNI 011200Z 11004KT 9999 FEW010 BKN016 16/15
VVCR 011200Z 29003KT 260V340 9999 FEW015 SCT050 26/24 Q1007 NOSIG
CZHY 011200Z AUTO 12002KT 09/07 RMK AO1 5006 SLP132 T00850073 50003
KFLY 011215Z AUTO 28010KT 10SM CLR 14/09 A3032 RMK AO2 T01400087
SANE 281320Z 20012KT 7000 -DZ SCT005 OVC009 12/12 Q1021
EGXE 011220Z 22010KT 9999 SCT045 21/12 Q1017 NOSIG RMK BLU BLU
KSKF 011156Z AUTO 16003KT 10SM CLR 24/22 A3006 RMK AO2 SLP171 T02380217 10273 20238 53003 $
KLAW 011153Z AUTO 18009KT 10SM SCT120 29/14 A3002 RMK AO2 SLP148 T02940144 10322 20294 53012
LFPT 011230Z AUTO 35006KT 300V040 9999 FEW040 25/15 Q1018
LTCG 011220Z 33005KT 280V020 9999 SCT035 28/22 Q1008 NOSIG RMK RWY29 32005KT 290V360
RCOR 290400Z 03004KT 9999 FEW044 SCT220 24/18 Q1018 A3006 NOSIG
VEDO 011200Z 00000KT 4000 HZ SCT018 SCT025 BKN100 29/27 Q1002 NOSIG
KVNW 011235Z AUTO 22008KT 5SM BR OVC007 21/20 A2995 RMK AO2
KC09 011215Z AUTO 24008KT 10SM SCT035 BKN050 21/21 A2985 RMK AO2 T02130210
CWJV 011200Z AUTO 11006KT 18/06 RMK AO1 SLP094 T01750058 53006
KSMF 011153Z 17007KT 10SM BKN200 BKN250 19/13 A2995 RMK AO2 SLP141 T01890133 10228 20183 53006
LKVO 011200Z 33009KT 270V030 9999 FEW036TCU SCT073 24/16 Q1016
KLBT 281356Z AUTO 25009KT 10SM CLR 31/24 A3003 RMK AO2 SLP166 T03110244 TSNO
KMIO 011215Z AUTO 16006KT 10SM CLR 25/23 A3001 RMK AO2
VTCC 011200Z 20010KT 9999 FEW025CB SCT032 28/23 Q1003 TEMPO FM1250 10015G25KT 4000 TSRA
PAJC 011157Z AUTO 23011KT 10SM OVC033 13/08 A2992 RMK AO2 SLP131 6//// 7//// T01330078 10139 20111 53010 PNO $
CYYY 011200Z 22008KT 30SM FEW085 SCT240 23/16 A2986 RMK AC2CI1 SLP113 DENSITY ALT 1200FT
CWHT 011200Z AUTO 00000KT 06/05 RMK AO1 SLP172 T00570049 52007
MDJB 011200Z 36010KT 9999 SCT018 26/24 Q1019
PASA 011214Z AUTO 00000KT 1 3/4SM BR OVC003 05/05 A2985 RMK AO2
NZDN 011200Z 06005KT 350V170 50KM OVC170 13/01 Q1007 RMK SWAMPY 01011KT AUTO VAT
KC07 011215Z AUTO 30005KT 10SM CLR 12/06 A3064 RMK AO2
CZVL 011234Z AUTO 18002KT 3/8SM FG CLR 13/13 A2988 RMK VIS VRB 1/8-3 SLP127 DENSITY ALT 2700FT
K18H 011215Z AUTO 16011KT 10SM CLR 30/23 A3008 RMK A01
K33V 011215Z AUTO 14007KT 10SM CLR 06/04 A3045 RMK AO1
YMGD 011230Z AUTO 00000KT 9999 // SCT071 24/21 Q1012
MUHG 011150Z 08011KT 9000 FEW024 28/24 Q1019
KEBA 011215Z AUTO 25006KT 10SM CLR 24/22 A3016 RMK AO2 T02370220
SARL 011200Z 18003KT CAVOK 11/10 Q1017
OEAO 011200Z 24010KT CAVOK 42/M00 Q1004 NOSIG
KDZB 011215Z AUTO 00000KT 7SM CLR 24/20 A3010 RMK AO2 T02350198
K1NW 011158Z AUTO 17007KT 10SM CLR 18/12 A3009 RMK AO2 SLP131 T01750124 10207 20165 56008 $
UARR 011200Z 32005MPS 280V360 9999 SCT050CB 31/12 Q1010 NOSIG RMK QFE754/1006
KRZR 182000Z AUTO VRB05G10KT 1/2SM FG BKN003 OVC016 23/23 A2993 RMK A01
KCZT 171530Z AUTO 18008KT 7SM CLR 31/18 A2997 RMK AO2
EGPO 011220Z 17012KT 9999 SCT018 15/11 Q1012
RJOP 310418Z 15013KT 9999 VCSH FEW009 BKN025 BKN150 30/27 Q1013 RMK 1ST009 5CU025 6AC150 A2992
KRXE 011153Z AUTO 00000KT 10SM CLR 13/08 A3014 RMK AO2 SLP155 T01330083 10206 20133 53004
ETHB 011220Z 36006KT 9999 SCT024 SCT030 BKN250 21/15 Q1017 BLU+BLU TEMPO WHT
YMTI 011230Z AUTO 00000KT 9999 // SCT086 21/19 Q1013
MHYR 011200Z 00000KT 9999 SCT020 20/20
SCMK 011200Z AUTO VRB02KT //// // OVC043/// ///// Q////
KPOF 011153Z AUTO 20007KT 7SM OVC005 23/23 A3005 RMK AO2 SLP170 T02330228 10244 20233 52003
ENKR 011220Z 03003KT 330V080 9999 FEW017 SCT084 18/13 Q1012 RMK WIND 731FT 35004KT
MMIA 011204Z RTD 02006KT 6SM OVC120 22/19 A3006 RMK 8/02/ RTS
CWRM 011200Z AUTO 21006KT 14/13 RMK AO1 6009 SLP101 T01410131 50029
MMTP 011140Z 00000KT 6SM FEW150 24/24 A2987 RMK SLP138 52005 959 8/030 HZY
KDKB 011215Z AUTO 24011KT 10SM CLR 21/19 A2985 RMK AO2 T02080188
DNGO 010800Z 21011KT 9999 BKN009 25/22 Q1014
SFAL 011150Z 31010KT CAVOK 03/00 Q1014
ZBAA 011200Z 13002MPS CAVOK 30/26 Q1004 NOSIG
FLMF 021000Z 0212/0318 13010KT 9999 BKN030 BECMG 0215/0217 15005KT CAVOK BECMG 0304/0306 9999 SCT006 BECMG 0308/0310 BKN020
ESUP 011220Z AUTO 11004KT 050V140 //// FEW042/// SCT058/// 20/11 Q1011
KE41 011215Z AUTO 18009KT 10SM CLR 24/16 A3013 RMK AO2 T02360156
KAID 011235Z AUTO 21009KT 7SM OVC006 22/20 A2997 RMK AO2 T02230196
KAKH 011154Z AUTO 22004KT 10SM FEW090 24/22 A3011 RMK AO2 SLP188 T02390217 10250 20228 51008
CWRZ 011200Z AUTO 24006KT 19/17 RMK AO1 SLP111 T01850174 50000
UHWW 011200Z 29002MPS 9999 SCT020 22/22 Q1008 R25L/0///70 NOSIG RMK QFE755
EFMI 011220Z AUTO 12005KT 100V160 CAVOK 23/12 Q1013
KLHM 011215Z AUTO 16005KT 10SM CLR 20/13 A2996 RMK AO1
KGYR 010347Z 24008KT 10SM FEW060 SCT140 SCT250 30/20 A2997 RMK LAST
DTTF 011200Z 17011KT 9999 FEW026 36/17 Q1014 NOSIG
LFPO 011230Z VRB03KT 9999 SCT040 BKN054 26/16 Q1019 NOSIG
KBJI 011215Z AUTO 31006KT 10SM BKN007 12/12 A2992 RMK AO2 T01230123
LGIO 011220Z AUTO 35004KT 310V100 //// // ////// 33/14 Q1010 RE//
KIAG 011153Z 20008KT 10SM CLR 22/18 A2994 RMK AO2 SLP133 T02170183 10217 20200 58006
VIPT 020930Z 01006KT 5000 TS FEW030 BKN100 31/25 Q0997
KMCF 011156Z AUTO 15008KT 10SM FEW190 27/24 A3013 RMK AO2 SLP206 T02730243 10273 20263 52005 FZRANO $
YPLM 011231Z AUTO 25007KT 5000 -SHRA SCT008 BKN012 BKN029 21/20 Q1009 RESHRA
KHFJ 011215Z AUTO 19007KT 10SM CLR 23/22 A3005 RMK AO2
FNGI 010700Z VRB03KT CAVOK 14/05 Q1017
UATT 011200Z 26007MPS 9999 SCT120CB 26/12 Q1010 NOSIG RMK QFE737/0983
EDDH 011220Z AUTO 29013KT 9999 FEW037 21/11 Q1017 NOSIG
KTBN 011156Z AUTO 21004KT 10SM CLR 22/22 A3005 RMK AO2 SLP167 70003 T02200220 10231 20215 53007
KBVO 011153Z AUTO 18005KT 9SM SCT110 24/23 A3000 RMK AO2 LTG DSNT SW SLP147 T02390233 10256 20233 53002
CYSC 011200Z AUTO 00000KT 9SM FEW250 19/17 A2998 RMK SLP152 DENSITY ALT 1500FT
MMCM 011207Z RTD 00000KT 7SM SCT020 BKN100 26/25 A3002 RMK SLP167 5//// 903 8/190 RTS
KRQE 011153Z AUTO 00000KT 10SM CLR 17/14 A3037 RMK AO2 SLP156 60000 T01720139 10194 20167 55003 $
OJAQ 011200Z 36012KT CAVOK 40/10 Q1001 NOSIG
UIAA 011200Z 24003MPS 9999 NSC 22/13 Q1005 R29/CLRD70 NOSIG RMK QFE695/0927
EGAC 011220Z AUTO 17012KT 140V210 9999 BKN034 20/11 Q1014
RJDB 011200Z AUTO 21008KT 180V240 9999 NCD 28/25 Q1010
OOMS 010950Z 05012KT 9999 FEW030 36/24 Q0998 NOSIG
CYWL 011200Z 31004KT 15SM BKN100 BKN220 17/10 A2991 RMK AC5CI1 SLP113 DENSITY ALT 4100FT
EHLE 011225Z AUTO 35007KT 310V030 9999 NSC 20/12 Q1019 NOSIG
SCEL 011200Z 17005KT 0400 0250NW R17L/0400V0600N R17R/ 0250V0500N FG VV002 06/06 Q1017 NOSIG
KHZR 011215Z AUTO 00000KT 10SM CLR 25/24 A3013 RMK AO2 T02450243
KXNO 011156Z AUTO 21007KT 10SM OVC120 24/24 A3016 RMK AO2 SLP213 T02410241 10250 20228 52010 $
MMCE 011141Z 07006KT 6SM FEW030 SCT080 SCT200 26/24 A3001 RMK SLP159 5//// 907 8/538 HZY
GQPZ 290900Z 28012KT 8000 NSC 25/16 Q1010
SBBU 011200Z 12005KT CAVOK 19/10 Q1019
KAPC 011154Z AUTO 25008KT 10SM OVC008 15/14 A3000 RMK AO2 RAB37E46 SLP150 P0000 60000 T01500139 10161 20150 53003
RJDM 010326Z 19019G29KT 9999 FEW035 SCT060 35/25 Q1009 RMK 2CU035 3SC060 A2982
KQBL 011156Z AUTO 00000KT 10SM CLR 29/25 A3016 RMK AO2 SLP219 WND DATA ESTMD T02910245 10292 20289
KVER 011235Z AUTO 00000KT 10SM CLR 25/24 A3000 RMK AO2 T02500236
SVVA 011200Z /////KT 9999 BKN016 24/18 Q1013
KC35 011215Z AUTO 28005KT 10SM BKN022 21/20 A2980 RMK AO2 T02100198 PWINO
LFBF 011230Z AUTO 33008KT 270V010 CAVOK 32/15 Q1018
KGNB 011215Z AUTO 00000KT 10SM CLR 08/07 A3049 RMK AO2 T00770074
DABC 011200Z 35014KT 9999 FEW030 33/12 Q1017
PAJZ 011227Z AUTO 16008KT 3SM -RA BR OVC006 11/11 A2981 RMK AO2 RAB07 P0002 $
SMJP 011200Z 07003KT 9999 FEW010 27/25 Q1012 NOSIG
CYBU 011200Z AUTO 31003KT 1/8SM FG VV002 09/09 A2995 RMK SLP151
GQNI 020600Z 22006KT 8000 NSC 29/21 Q1013
KROA 011154Z 26004KT 10SM FEW026 SCT055 BKN250 24/22 A3009 RMK SLP176 70018 T02390217 10239 20228 53009
KEZM 011215Z AUTO 00000KT 10SM CLR 26/22 A3019 RMK AO2
KJTC 011215Z AUTO 19006KT 10SM CLR 13/12 A3042 RMK AO2
LTCS 011220Z 26011KT CAVOK 38/M00 Q1005 RMK RWY22 24012KT 210V280 SKC
CWJU 010900Z AUTO 25012KT 12/12 RMK AO1 PK WND 27019/0807 SLP190 T01240119
KHIO 011153Z 00000KT 10SM CLR 20/15 A2995 RMK AO2 SLP136 T02000150 10244 20189 53013
KOSH 011217Z VRB06KT 10SM SCT014 BKN022 22/19 A2974 RMK AO2 T02220194
KSDC 011215Z AUTO 19003KT 10SM BKN060 20/17 A2997 RMK AO2
KSBM 011153Z AUTO 22005KT 9SM BKN017 OVC024 22/21 A2973 RMK AO2 SLP063 60000 T02220206 10222 20200 55007
KMHS 011156Z AUTO 00000KT 10SM CLR 20/12 A3010 RMK AO2 SLP167 T02000122 10256 20194 58006
SGCO 011200Z 00000KT CAVOK 19/14 Q1013
OJAI 011200Z 29014KT 5000 HZ NSC 33/14 Q1008 NOSIG
EFJO 011220Z AUTO 17009KT 140V220 9999 FEW049 22/14 Q1014
FOOT 291100Z 05004KT 9999 SCT006 OVC023 28/22 Q////
KCEW 011153Z AUTO 00000KT 8SM CLR 23/23 A3017 RMK AO2 SLP214 T02330228 10239 20222 53011
KPWT 011156Z AUTO 19003KT 10SM CLR 16/14 A2994 RMK AO2 SLP138 7//// T01560144 10206 20156 53009
KDSV 011154Z AUTO 13009KT 10SM CLR 20/16 A3000 RMK AO2 SLP161 T02000156 10200 20167 58005
CWKM 011200Z AUTO 30002KT ////SM OVC003 04/04 A3003
KGGP 011215Z AUTO 20006G15KT 2SM -RA BKN007 OVC012 22/21 A2991 RMK AO2 P0012
HEOC 301500Z 30008KT CAVOK 36/14 Q1009 NOSIG
DFFD 011100Z 17005KT 150V210 CAVOK 27/22 Q1013 NOSIG
SLCA 011200Z 00000KT 9999 NSC 10/06 Q1019
K11R 011215Z AUTO 00000KT 10SM CLR 25/23 A3009 RMK AO2 T02460228
GCGM 011200Z 23007KT 180V260 9999 FEW020 25/20 Q1016 RMK R09/VRB04KT ARP/24006KT 150V280
KGLX 011220Z AUTO VRB05G17KT 10SM SCT022 29/24 A3013 RMK A01
KHVE 011215Z AUTO 10SM SCT120 23/15 A3019 RMK AO2
KICT 011153Z 18006KT 10SM FEW100 SCT140 BKN220 23/21 A2997 RMK AO2 SLP131 T02280211 10250 20222 55000
VVPQ 011200Z 24007KT 9999 SCT015 SCT040 28/24 Q1005 NOSIG
SBTE 011200Z 13003KT 9999 FEW020 28/22 Q1014
KSBN 011154Z 22009KT 8SM OVC006 23/21 A2986 RMK AO2 SLP106 T02280211 10228 20211 56018
KLSV 011158Z 05004KT 10SM FEW150 26/20 A3001 RMK SLP140 WND DATA ESTMD ALSTG/SLP ESTMD
KCXE 011215Z AUTO 00000KT 10SM OVC002 23/23 A3006 RMK AO1 T02310231
K82C 011215Z AUTO 30009KT 10SM SCT018 OVC026 22/19 A2979 RMK AO2 T02160190
HELX 011200Z 33008KT CAVOK 40/17 Q1002
SACO 011200Z 31005KT CAVOK 08/03 Q1016 NOSIG RMK PP000
KREG 011215Z AUTO 00000KT 10SM CLR 25/25 A3012 RMK AO2 T02500246
FZRF 010800Z 15005KT 5000 HZ FEW016 28/19 Q1018 NOSIG
KGRN 011215Z AUTO 00000KT 10SM CLR 15/13 A3003 RMK AO2 LTG DSNT SE T01480130
KBVU 142235Z AUTO 01010G38KT 1 1/2SM -TSRA SCT006 BKN034 OVC065 28/15 A2992 RMK AO2
SAVT 010915Z 00000KT 0900 FG BKN009 04/03 Q1016
CERM 011200Z AUTO 10003KT 21/17 RMK AO1 SLP132 T02050167 58004
LOWS 011220Z 31012G22KT 280V340 9999 SCT060 27/13 Q1017 NOSIG
KTUP 011153Z 00000KT 10SM OVC080 25/23 A3014 RMK AO2 SLP202 70009 T02500228 10250 20244 53015 $
KOVL 011215Z AUTO 32006KT 7SM CLR 16/15 A2992 RMK AO2
ESOE 011220Z 17011KT 9999 BKN015 20/17 Q1010
KYNG 011151Z 18006KT 10SM FEW044 SCT100 19/17 A3000 RMK AO2 SLP153 T01890167 10194 20172 58008 $
K2A0 011215Z AUTO 20003KT 9SM BKN065 BKN075 BKN095 23/23 A3014 RMK A01
KFMH 011145Z 26006KT 10SM CLR 22/20 A3004
FMEE 011200Z AUTO 08013KT 9999 SCT072/// 24/18 Q1020 NOSIG
LIPZ 011220Z 15009KT CAVOK 30/20 Q1014 NOSIG
LGSO 011150Z 02016KT 9999 FEW018 28/20 Q1009
KVVS 011215Z AUTO 27004KT 3 1/2SM BR SCT005 BKN009 OVC014 18/18 A3008 RMK AO2 T01840179
KEZZ 011215Z AUTO 32003KT 10SM CLR A3000 RMK AO2
KLEB 011153Z 00000KT 10SM CLR 20/16 A3001 RMK AO2 SLP153 T02000161 10200 20167 58003
SBMT 011200Z 04003KT 3000 BR BKN005 12/12 Q1021
CYYB 011200Z 14007KT 30SM SCT075 BKN280 18/16 A2984 RMK AC3CI3 SLP104 DENSITY ALT 2000FT
KOXR 011151Z AUTO 00000KT 8SM OVC005 18/18 A2999 RMK AO2 SLP155 T01830183 10183 20178 58006
OINR 011200Z 08008KT 9999 FEW020CB BKN025 29/24 Q1005
UBBQ 011200Z 28007KT 9999 NSC 34/16 Q1007 NOSIG RMK MT OP
SCON 011200Z AUTO 00000KT 9999 FEW033/// SCT040/// OVC051/// 01/01 Q1020
TISX 011153Z 06013KT 10SM SCT035 29/24 A3005 RMK AO2 SLP175 T02940239 10294 20278 53008 $
OIBJ 011200Z 33004KT 7000 NSC 34/22 Q1004 A2967
CYBD 010100Z 25014G22KT 15SM FEW280 29/17 A2984 RMK CI2 LAST STFD OBS/NXT 011300Z SLP106 DENSITY ALT 1900FT
WMKL 011200Z 11003KT 080V140 9999 FEW026 28/24 Q1007
LEVD 011200Z 15005KT 090V170 CAVOK 33/07 Q1020
PAEH 011155Z AUTO 01014G23KT 190V080 5SM -SHRA OVC004 09/09 A2977 RMK AO2 PK WND 03030/1122 SHRAB1037 SLP085 P0002 60017 70028 T00890085 10119 20087 51010
CWLC 011200Z AUTO 28010KT 14/13 RMK AO1 PK WND 28017/1104 T01350133
KSDL 011153Z AUTO 20004KT 10SM CLR 29/21 A3001 RMK AO2 SLP134 T02890206 10306 20283 53001
LIRF 011220Z 20014KT CAVOK 32/18 Q1013 NOSIG
SGEA 180100Z 19005KT CAVOK 08/07 Q1021
ETNL 011220Z 31012KT 9999 FEW010 BKN022 19/15 Q1015 WHT BLU TEMPO GRN
OEWD 011200Z 11004KT 9999 SCT030 BKN080 38/26 Q1002 NOSIG
DAOI 011200Z 24004KT CAVOK 36/17 Q1015
CXTH 011200Z AUTO 13005KT 12/12 RMK AO1 T01200119
LFPB 011230Z AUTO 26005KT 210V300 9999 SCT036 SCT042 BKN054 26/15 Q1019 NOSIG
KDMA 011158Z AUTO 15004KT 10SM CLR 22/20 A3007 RMK AO2 SLP140 70025 T02150198 10237 20214 58006 $
YMBD 011230Z AUTO 36007KT 9999 // NCD 04/04 Q1017
NVSC 010900Z 00000KT 9999 BKN020 26/24 Q1012
KSDM 011153Z AUTO 00000KT 10SM CLR 19/18 A2999 RMK AO2 SLP150 T01940178 10211 20189 56007 $
VEDG 011200Z 00000KT 2200 BR SCT015 BKN070 30/27 Q1000 NOSIG
CYXH 011200Z AUTO 03007KT 020V090 9SM CLR 16/15 A2989 RMK SLP108 DENSITY ALT 3100FT
KAUM 011216Z AUTO 31010G18KT 10SM OVC008 18/17 A2990 RMK AO2
SYKM 011200Z 08004KT 9000 BKN015 BKN037 22/21 Q//// NOSIG
KPMD 011153Z AUTO 27005KT 10SM CLR 24/14 A3008 RMK AO2 SLP153 T02390144 10272 20239 56005
CYRA 312300Z 11004KT 090V250 15SM FEW020 19/05 A2999 RMK SC2 SLP166 DENSITY ALT 1300FT
WAKK 010700Z 15016KT 9999 SCT016 28/25 Q1006 NOSIG
CXVM 011200Z AUTO 18001KT 12/12 RMK AO1 T01230123
ZBSJ 011200Z 13001MPS CAVOK 29/26 Q1004 NOSIG
CXAJ 011200Z AUTO 24001KT 09/09 RMK AO1 T00940093
TXKF 011155Z 28011KT 9999 SCT017 29/25 Q1022
ETIK 011156Z 30008KT 9999 FEW049 SCT060 SCT080 26/14 A3003 RMK AO2A DZB13E14RAB14E19DZB19E23RAB23 SLP157 P0000 60000 T02620136 10265 20201 58006
KPCM 011135Z AUTO 14004KT 10SM CLR A3020 RMK AO2
LPPT 011200Z 15006KT 090V200 CAVOK 32/16 Q1015
KPLU 011215Z AUTO 00000KT 10SM CLR 19/15 A2995 RMK AO2
KJAQ 011215Z AUTO 00000KT 10SM CLR 22/14 A3002 RMK AO1 T02190142
KFTK 011156Z 22007KT 10SM OVC010 23/23 A3004 RMK AO2A SLP169 70001 T02320230 10232 20224 51002 $
KJVL 011145Z 24010KT 10SM FEW019 23/22 A2980
CXOX 011200Z AUTO 00000KT 10/09 RMK AO1 SLP136 T01010091 55000
KATL 011152Z COR 21004KT 10SM FEW070 SCT140 SCT200 SCT250 25/21 A3018 RMK AO2 SLP208 T02500206 10250 20228 52005
SCIC 011200Z AUTO 15003KT //// R/////// // FEW003 BKN008 OVC013 07/07 Q1017
CXZV 011200Z AUTO 02004KT 19/14 RMK AO1 SLP112 T01890142 50005
KLFK 011153Z AUTO 13004KT 10SM CLR 24/23 A3009 RMK AO2 SLP184 T02390228 10278 20239 53003
HKML 311800Z 18010KT 9999 FEW021 BKN080 25/20 Q1015
KDEW 011153Z AUTO 9SM CLR 13/06 A2988 RMK AO2 SLP101 T01280056 10178 20117 51003 $
RJAT 010721Z 19011KT 5000 -SHRA BR FEW000 SCT005 BKN008 26/24 Q1017 RMK 1ST000 3ST005 5ST008 A3003 MAX WIND 19KT
KHRX 011215Z AUTO 25005KT 10SM CLR 24/14 A3014 RMK AO2 LTG DSNT E T02370135
USRR 011200Z 02005MPS 350V060 CAVOK 20/07 Q1016 R07/CLRD60 NOSIG RMK QFE757
LPMT 011200Z 26006KT CAVOK 31/18 Q1014
EGOV 011220Z 19018KT 9999 FEW028 BKN250 19/15 Q1017 NOSIG RMK BLU BLU
KACT 011151Z 18008KT 10SM CLR 26/22 A3007 RMK AO2 SLP174 T02610222 10311 20261 53006
CXOY 011200Z AUTO 01005KT 14/14 RMK AO1 T01410136
KHVR 011153Z AUTO 25010KT 10SM CLR 17/04 A2984 RMK AO2 SLP080 T01670039 10206 20144 53007
ENOA 011220Z 22012KT 9999 FEW020 13/08 Q1015 W///S4
YPTN 011230Z AUTO 13005KT 9999 // NCD 22/11 Q1012
EPKK 011230Z 25007KT 220V300 9999 FEW048 24/15 Q1014
CXDE 011200Z AUTO 08005KT 12/04 RMK AO1 SLP135 T01210040 52003
RPMZ 011200Z 27005KT 9999 FEW017 BKN090 26/24 Q1009 RMK A2980
NFNL 010800Z AUTO 14502KT //// ////// 23/21 Q1015
KYKN 011156Z AUTO 00000KT 10SM CLR 16/15 A2998 RMK AO2 SLP155 70006 T01560150 10211 20150 55003
KPTB 011215Z AUTO 23005KT 10SM OVC004 24/23 A3004 RMK AO2 T02360229
PAPN 011228Z AUTO 27013KT 8SM FEW006 OVC018 11/10 A2987 RMK AO2
RJFY 311150Z 12008KT 090V150 5000 -SHRA BR FEW006 SCT025 BKN035 28/25 Q1010 RMK 1ST006 4CU025 5CU035 A2983
SBBV 011200Z 14006KT 9999 FEW015 FEW035TCU BKN080 26/23 Q1014
OPKC 011230Z 25012KT 3000 BR RE DZ SCT015 BKN025 BKN090 28/26 Q1001 TEMPO 1000 BR
SESM 011200Z 00000KT 9999 VCSH BKN026 OVC100 18/18 Q1017 RMK A3004
PASM 011221Z AUTO 02003KT 1 3/4SM -RA BR OVC001 10/10 A2977 RMK AO2 P0002
VOSR 010830Z 30007KT 5000 BR FEW020 SCT025 BKN090 28/25 Q1006 NOSIG
KGSP 011153Z 23007KT 10SM CLR 25/21 A3014 RMK AO2 SLP192 T02500206 10250 20228 52007
KU69 040750Z AUTO 27005KT 10SM FEW036 SCT044 SCT050 20/02 A3001 RMK A01
KJAX 011156Z 20004KT 10SM FEW070 SCT250 26/24 A3018 RMK AO2 SLP221 T02610239 10261 20233 53013
KFBL 011215Z AUTO 30004KT 10SM CLR 18/16 A2989 RMK AO2
CPRO 011200Z AUTO 36006KT 14/13 RMK AO1 T01360134
SPSO 011200Z 28005KT 2000 -DZ BR OVC006 15/14 Q1016 RMK BIRD HAZARD RWY 22/04 TN14.8 PPTRZ
KCAO 011155Z AUTO 28004KT 10SM SCT120 18/16 A3017 RMK AO2 SLP145 T01780156 10211 20178 53001 $
KMTW 011156Z AUTO 00000KT 10SM SCT023 BKN027 OVC060 18/17 A2973 RMK AO2 SLP063 T01830172 10217 20156 58001
KAFO 011210Z AUTO 16004KT 10SM CLR 07/M01 A3027 RMK AO2
MUCM 011150Z 04007KT 8000 SCT018 26/25 Q1019
PAEI 011211Z AUTO 00000KT 1/4SM R32/1800V4000FT FG CLR 09/08 A2984 RMK AO2 SLP109
CYTE 011216Z AUTO 17009G15KT 9SM OVC044 07/05 A2953 RMK SLP005
BGBW 011150Z 25009KT 9999 FEW010 BKN014 BKN016 10/06 Q1008
KPVB 011215Z AUTO 28007KT 7SM SCT011 A2986 RMK AO1
FOGM 011200Z /////KT 9999 BKN010 OVC040 25/21 Q////
SBRB 011200Z 00000KT CAVOK 24/21 Q1014
KCXU 011215Z AUTO 00000KT 10SM CLR 24/23 A3019 RMK AO1 T02420232
RJTK 280054Z 21014KT 9999 FEW025 BKN240 29/25 Q1015 RMK 1CU025 6CI240 A2997
CWWU 311140Z 24011KT 15SM BKN016 BKN050 20/16 A2973 RMK SC5SC1 SLP068
PAWN 011156Z AUTO 33004KT 10SM CLR 04/03 A2989 RMK AO2 SLP133 T00390033 10150 20039 58005
VABP 011200Z 35010KT 6000 FEW025 SCT030 FEW030CB 29/22 Q1004 NOSIG
SAWG 011200Z VRB02KT CAVOK 01/M01 Q1011
SBCR 011200Z 10007KT CAVOK 25/14 Q1014
WIDN 270300Z 16006KT 9999 SCT017 31/25 Q1011 NOSIG
PASX 011156Z AUTO 08004KT 10SM SCT029 11/09 A2992 RMK AO2 SLP136 T01060094 10150 20100 58019
FAWK 011200Z AUTO 03011KT //// // ////// 19/07 Q1029
GEML 011200Z 09005KT 010V150 9999 FEW011 SCT015 29/23 Q1016
KHOE 011210Z AUTO 16003KT 10SM CLR 25/22 A3020 RMK AO2 T02530224
KGLW 011215Z AUTO 23007KT 10SM SCT007 SCT030 24/23 A3010 RMK AO2 T02350225
KTWM 011215Z AUTO 31004KT 10SM BKN019 16/14 A2978 RMK AO2
CYKJ 011200Z AUTO 00000KT 9SM BKN066 09/09 A2993 RMK SLP150
FMMI 011230Z 11011KT 090V150 9999 FEW020 21/11 Q1023 NOSIG
PAVA 281912Z AUTO 04014KT 10SM BKN011 12/08 A3018 RMK AO2 PNO $
CYPY 011200Z AUTO 00000KT 9SM FEW001 08/07 A2990 RMK SLP136
CWKP 011200Z AUTO VRB02KT ////SM NCD 10/04 A2999
KRUE 010453Z AUTO 00000KT 10SM FEW110 25/23 A3005 RMK AO2 SLP167 T02500233
VAKS 311230Z 27008KT 5000 HZ BKN020 29/23 Q1003 BECMG 4000 HZ
EFKU 011220Z AUTO 24004KT 150V280 CAVOK 22/12 Q1013
MMQT 011156Z 11007KT 8SM FEW020 SCT250 13/13 A3039 RMK 8/502
KHRF 011230Z AUTO 19008KT 10SM CLR 19/07 A3003 RMK AO2 Hamilton
KGPI 011155Z AUTO 28003KT 10SM CLR 08/07 A2994 RMK AO2 SLP120 T00780067 10150 20067 51002
FNDU 011000Z 00000KT 5000 HZ SCT018 ///// Q////
ENBR 011220Z 31008KT 9999 SCT032TCU 14/07 Q1016 NOSIG RMK WIND 1200FT 29010KT
CYHU 011200Z AUTO 20007KT 9SM OVC096 23/18 A2992 RMK SLP135 DENSITY ALT 1100FT
KPPQ 011215Z AUTO 23006KT 10SM CLR 25/25 A2997 RMK AO2 T02500246
VTBD 011200Z 18006KT 9999 FEW020 SCT040 28/27 Q1004 NOSIG
CYQY 011200Z 24008KT 15SM OVC250 23/18 A2999 RMK CI8 SLP158 DENSITY ALT 1100FT
LIPF 011155Z VRB03KT CAVOK 38/18 Q1013 RMK SKC VIS MIN 9999
UTTT 011200Z 29010KT 270V340 CAVOK 34/08 Q1005 R26R/CLRD70 NOSIG
FMCZ 011230Z AUTO 15007KT 9999 FEW022 27/21 Q1016 NOSIG
CWVD 011200Z AUTO 36008KT ////SM NCD 05/04 A2962
YPKG 011230Z AUTO 33009KT 9999 // SCT069 OVC092 15/11 Q1000
KISO 011156Z 22007KT 10SM CLR 26/23 A3009
KPGV 011215Z AUTO 23009G14KT 10SM CLR 27/25 A3006 RMK AO2
KLCH 011153Z 14004KT 10SM FEW031 24/23 A3009 RMK AO2 SLP197 60002 70002 T02440233 10256 20239 53004
RKSM 011200Z 17006KT 9999 BKN060 30/23 A2969
KY51 011235Z AUTO 30008KT 10SM BKN009 BKN017 OVC023 20/20 A2984 RMK AO1 T01960196
LTCM 011150Z 28014KT 9999 FEW020 28/23 Q1008
K1EW 011158Z AUTO 05009KT 10SM CLR 17/10 A3013 RMK AO2 SLP143 T01680102 10183 20151 57008 $
PAOM 011153Z AUTO 25003KT 10SM OVC050 13/09 A2978 RMK AO2 SLP084 T01330094 10139 20128 56012 TSNO
KAWG 011215Z AUTO 29005KT 7SM CLR 23/23 A2990 RMK AO2
NZFX 290255Z 05013KT 9999 IC SCT030 M41/M45 A2924 RMK SLP899 RCRNR GRID22013KT SDN/HDN LAST
ETHN 011220Z 29007KT 9999 SCT040 BKN080 25/13 Q1018 BLU BLU
GOBD 011230Z 19006KT 150V220 9999 BKN018 FEW025TCU 28/24 Q1014 NOSIG
EKRS 011220Z AUTO VRB09KT 9999 NCD 20/11 Q1014
SBAF 011200Z 05003KT CAVOK 20/16 Q1020
EDJA 011220Z 25009KT CAVOK 25/13 Q1017
YBRM 011230Z AUTO 26003KT 9999 // NCD 18/13 Q1012
OIBK 011200Z 20006KT 8000 NSC 37/23 Q0998 NOSIG
VTUL 011200Z /////KT 9999 BKN030 27/25 Q1004 NOSIG
KRSV 011215Z AUTO 24010KT 10SM OVC011 23/23 A3002 RMK AO2 LTG DSNT N AND E T02340226
CYLT 011200Z 10002KT 15SM FEW120 02/00 A3000 RMK AC1 SLP164
KDDC 011152Z AUTO 16004KT 3SM BR CLR 21/19 A3002 RMK AO2 SLP130 T02060194 10239 20206 53000
KAUW 011154Z AUTO 28009KT 10SM SCT036 OVC044 22/18 A2974 RMK AO2 SLP065 T02220178 10233 20217 53009
LECH 011200Z AUTO 13009KT 100V170 9000 NCD 29/22 Q1018
ZWSH 011200Z 10004MPS 9999 FEW033CB 29/06 Q1007 NOSIG
KMGW 011153Z 23003KT 3SM BR BKN008 OVC015 19/18 A3007 RMK AO2 SLP176 70041 T01940178 10200 20189 55003
ETNH 011220Z 29014KT 9999 FEW036 SCT340 20/09 Q1016 BLU+BLU+
KWVL 011156Z AUTO 00000KT 10SM CLR 21/18 A2996 RMK AO2 SLP169 T02060178 10206 20172 58007
KSMS 011215Z AUTO 23003KT 10SM CLR 26/23 A3015 RMK AO2
KMRB 011153Z 07003KT 10SM FEW004 BKN011 BKN038 20/19 A3002 RMK AO2 SLP160 70026 T02000189 10200 20189 50003
KMQJ 011215Z AUTO 17005KT 7SM OVC008 22/22 A2998 RMK AO1
KEET 011153Z AUTO 00000KT 9SM CLR 23/22 A3018 RMK AO2 SLP211 T02330217 10239 20233 53010 $
KCWF 011145Z 00000KT 10SM SCT030 24/23 A3009
KAUS 011153Z AUTO 17004KT 10SM FEW022 FEW120 22/21 A3007 RMK AO2 SLP173 T02220206 10272 20217 53004 $
LTBI 101033Z 31009KT 280V350 9999 BKN035 21/14 Q1008 RESHRA NOSIG RMK RWY08 32010KT 290V350
NCPY 011100Z AUTO 08016KT //// ////// 27/21 Q1013
KBAN 011152Z AUTO 00000KT 10SM OVC100 13/07 A3030 RMK AO2 SLP160 T01280072 10178 20117 57004 $
CYND 011200Z 09002KT 15SM FEW065 SCT096 20/18 A2991 RMK SC1AC2 ACC ASOCTD SLP131 DENSITY ALT 900FT
KRFI 011215Z AUTO 00000KT 10SM CLR 26/21 A3011 RMK AO2 T02610211
KREO 011152Z AUTO 10003KT 22/04 A3003 RMK AO1 SLP112 T02220044 10294 20189 58002
LTFM 011220Z 05011KT 360V070 CAVOK 27/14 Q1010 NOSIG RMK RWY17L 07010KT RWY34L 06010KT 020V080 RWY16R 04010KT 360V070 RWY36 06011KT 020V080 RWY18 07009KT 020V090
KGFA 011158Z AUTO 24007KT 10SM CLR 19/01 A2994 RMK AO2 SLP102 T01870012 10247 20159 51003 $
KOMA 011152Z 00000KT 10SM FEW160 20/19 A2996 RMK AO2 SLP134 T02000189 10267 20189 50001
CWRK 011200Z AUTO 17003KT 19/16 RMK AO1 SLP130 T01860155 58008
RKSV 010725Z 05005KT 0400 FG VV002 26/25 A2979 RMK CIG002
KRNM 011153Z AUTO 00000KT 10SM OVC110 21/14 A3002 RMK AO2 SLP146 T02060139 10228 20200 56007
KFWB 011215Z AUTO 00000KT 4SM BR CLR 23/23 A3008 RMK AO2
KCNK 011155Z AUTO 16003KT 10SM CLR 22/20 A2997 RMK AO2 SLP130 T02220200 10278 20222 58002
K1CN 290956Z AUTO 00000KT 10SM M 08/08 A3009 RMK AO2 SLP193 T00840076 $
KFGX 011155Z AUTO 27007KT 250V350 10SM SCT005 OVC028 22/22 A3006 RMK AO2 T02170216 10217 20201
PAMR 011232Z 00000KT 10SM BKN014 OVC024 13/11 A2989 RMK AO2 T01330106
SAAG 251335Z 16004KT 9000 TS SCT006 OVC020 FEW045CB 17/17 Q1016
KEAN 011210Z AUTO 16006KT 10SM CLR 20/10 A3008 RMK AO2 T01980095
GOSM 011200Z 28004KT 9999 SCT013 32/23 Q1013
KGNA 011156Z AUTO 18/16 A2968 RMK AO1 SLP046 70046 T01830156 10189 20111 53012 $
NZWU 011200Z 34007KT 20KM NCD 10/06 Q1026 RMK AUTO VATSIM USE ONLY
OIMC 011050Z 30025KT 6000 NSC 37/14 Q1005
KOAJ 011156Z 22009KT 10SM CLR 27/24 A3010 RMK AO2 SLP195 70067 T02670239 10267 20239 52005
KLRY 011215Z AUTO 00000KT 4SM BR CLR 23/22 A3003 RMK AO2
KHHG 011215Z AUTO 21006KT 7SM OVC005 22/22 A2992 RMK AO2 LTG DSNT W T02150215
YBBN 011230Z 31002KT CAVOK 15/14 Q1020
KJXN 011210Z 19008G17KT 10SM OVC009 21/18 A2988 RMK AO2 T02060178
MWCB 011200Z 06005KT 9999 FEW022 28/26 Q1018
HSNL 280700Z 23007KT BKN040 24/23 Q1013
NZSP 011150Z 06006KT 1200 BLSN SCT000 M59/ A2883 RMK BLSN SCT000 CLN AIR 04016KT ALL WNDS GRID
KMCB 011153Z AUTO 00000KT 10SM CLR 23/22 A3015 RMK AO2 SLP203 T02280222 10239 20217 53009
KVBG 011228Z AUTO 34004KT 3/8SM R30/3000FT FG VV001 15/15 A3001 RMK AO2 SLP164 $
CWZA 011200Z AUTO 15001KT 17/15 RMK AO1 SLP124 T01720148 53016
LGBL 011220Z 11011KT 9999 FEW040 31/18 Q1009
CYLD 011200Z 19007KT 15SM SCT140 19/15 A2967 RMK AC3 SLP052 DENSITY ALT 2600FT
CYRT 011200Z 30019G26KT 15SM SCT012 BKN038 BKN061 09/06 A2950 RMK SC3SC3SC1 SLP995
SEGZ 011200Z 10002KT 9999 FEW003 SCT100 21/20 Q1016
KJHN 011235Z AUTO 32003KT 2SM BR CLR 20/20 A3006 RMK AO2 T01980195
KMLB 011153Z 16003KT 10SM CLR 27/25 A3017 RMK AO2 SLP216 T02670250 10278 20261 50003
KHCO 011215Z AUTO 00000KT 10SM CLR 12/12 A2992 RMK AO2
HTBU 011100Z 06005KT 9999 FEW023 FEW025CB SCT100 26/19 Q1017
RJCC 011214Z 15016KT 4000 -SHRA BR FEW004 BKN006 BKN008 18/18 Q1011 RMK 1ST004 5ST006 7ST008 A2987
MDST 011200Z 14006KT 9999 SCT018 24/23 Q1019
KDGW 011153Z AUTO 29005KT 10SM CLR 13/08 A3011 RMK AO2 SLP131 T01280083 10217 20128 53002
KPVU 011156Z AUTO 00000KT 10SM CLR 22/12 A3017 RMK AO2 SLP149 T02170117 10267 20211 53006
KVOA 011215Z AUTO 16010KT 9SM SCT025 31/24 A3015 RMK A01
LIPY 011220Z AUTO 07009KT 040V100 9999 NCD 32/14 Q1014
CWIZ 011200Z AUTO 18005KT 22/19 RMK AO1 T02200186
KDAY 011227Z 22011KT 3/4SM R06L/5500VP6000FT BR OVC004 22/20 A3000 RMK AO2 SFC VIS 2 T02170200
CWRJ 011200Z AUTO 06005KT 15/13 RMK AO1 SLP122 T01500132 56006
KSVN 011156Z AUTO 24005KT 10SM CLR 26/22 A3016 RMK AO2 SLP216 T02600222 10265 20249 52013 $
ESNV 011220Z AUTO 22007KT 9999 -RA FEW021/// SCT034/// BKN049/// 16/12 Q1008
FMCH 011200Z 02005KT 9999 FEW020TCU BKN025 23/21 Q1017 NOSIG
OIBQ 011200Z 14008KT 9999 SCT040 BKN090 37/28 Q0998 A2949
ENDU 011220Z 36005KT 310V040 9999 SCT050TCU 23/13 Q1008 NOSIG RMK WIND 1100FT 04005KT WIND 2200FT 09005KT
SBCA 011200Z 04009KT CAVOK 20/10 Q1019
EPSC 011230Z 28008KT 250V320 9999 FEW035TCU BKN039 23/15 Q1013
YKRY 011230Z AUTO 00000KT 5000 BR SCT015 BKN031 OVC043 12/12 Q1021
SUAA 011200Z 03006KT CAVOK 09/08 Q1019
CYAW 291800Z 19013KT 3/4SM -DZ BR OVC002 18/18 A2984 RMK SF8 DENSITY ALT 942FT LAST OBS/NXT 021000 UTC SLP104
HKJK 011200Z 18008KT 9999 BKN024 19/13 Q1022 NOSIG
ENOL 011220Z 31012KT 9999 FEW015 SCT200 14/09 Q1014 NOSIG
YWIS 041800Z AUTO /////KT //// // ////// ///// Q1013
CYDN 011200Z AUTO 35007KT 300V360 9SM FEW025 OVC091 17/ A2988 RMK SLP122 DENSITY ALT 1500FT
VDSV 011200Z 04005KT 9000 SCT015 SCT040 27/25 Q1005
UAOO 011200Z 32004MPS 270V010 CAVOK 34/08 Q1004 NOSIG RMK QFE741/0989
KM30 011215Z AUTO 21005KT 10SM OVC009 24/23 A3007 RMK AO2 T02380232
URMT 011130Z 10008G15MPS CAVOK 32/15 Q1008 R07/010070 NOSIG RMK QFE716
KMRH 011158Z AUTO 23012KT 10SM CLR 28/26 A3009 RMK AO2 SLP190 70049 T02830256 10283 20278 51005
KPXE 011215Z AUTO 26004KT 10SM CLR 25/22 A3019 RMK AO2 T02510223
OING 011230Z 28010KT 9999 FEW030TCU SCT090 35/22 Q1007
CXPL 011200Z AUTO 35008KT 14/14 RMK AO1 T01390139
PAGA 011156Z AUTO 10SM CLR 12/10 A2983 RMK AO2 SLP102 70002 T01170100 10172 20117 58013 $
KBIF 011158Z AUTO 09007KT 10SM CLR 25/12 A3013 RMK AO2 SLP130 T02480124 10292 20248 53006 $
SELT 011200Z 14001KT 9999 SCT013 BKN030 10/08 Q1030
KSEF 011215Z AUTO 05003KT 10SM CLR 25/ A3019 RMK AO2 T0249////
CWGD 011200Z AUTO 18008KT 21/18 RMK AO1 SLP113 T02050182 56012
GMMD 011200Z 28008KT CAVOK 42/02 Q1014 NOSIG
SBES 011200Z 06014KT CAVOK 22/17 Q1020
KQEW 011230Z AUTO 13006G13KT 9999 OVC026 28/24 A2975 RMK A02 TSNO
DAUG 011200Z 22010KT 160V270 CAVOK 42/05 Q1015
YPJT 011230Z AUTO 29024KT 9999 -SHRA SCT023 BKN040 BKN061 15/09 Q0995
EGGP 011220Z 15006KT 080V200 9999 SCT036 BKN044 22/13 Q1017
UNKL 011200Z 29006MPS 9999 -TSRA SCT042CB 21/17 Q1002 R29/CLRD65 NOSIG RMK QFE726
KELY 011153Z AUTO 00000KT 10SM CLR 14/11 A3028 RMK AO2 SLP152 T01390111 10194 20139 55006
SYLT 312100Z 12012KT 9999 FEW022CB SCT028 30/25 Q//// NOSIG RMK CB-ALQDS
SKPS 011200Z 16003KT 9999 SCT025 15/14 Q1021 RMK A3016
KRRL 011235Z AUTO 30006KT 10SM BKN019 BKN025 OVC045 20/20 A2976 RMK AO2 T02000195 TSNO
KIKW 011215Z AUTO 17007G17KT 120V200 10SM SCT037 BKN060 BKN110 22/18 A2981 RMK AO2 T02150177
LRCT 011200Z 32009KT 9999 FEW030 BKN070 23/14 Q1013 BLU BLU
KA39 011215Z AUTO 15008KT 10SM SCT120 27/20 A3005 RMK AO2
KLYV 011215Z AUTO 00000KT 10SM CLR 15/13 A2997 RMK AO2
NVVW 010900Z AUTO 17005KT //// // NCD 23/20 Q1015
WAAA 011200Z 27002KT 8000 FEW019 27/25 Q1008 NOSIG
CXHF 011200Z AUTO 19/17 RMK AO1 T01910173
YNBR 011230Z AUTO 07007KT 9999 // NCD 08/07 Q1020
KFDK 011147Z 00000KT 7SM BKN006 BKN048 BKN045 20/19 A3003
KBWP 011215Z AUTO 33004KT 9SM CLR 14/13 A2993 RMK AO2
CYWG 011200Z CCA 24005KT 15SM SCT063 BKN082 16/14 A2987 RMK SC3AC4 SLP119 DENSITY ALT 1200FT
KGOK 011153Z AUTO 17005KT 10SM FEW120 25/18 A2997 RMK AO2 SLP136 70017 T02500178 10261 20250 53003
KBNA 011153Z 20004KT 10SM FEW025 BKN050 BKN080 24/21 A3012 RMK AO2 SLP192 T02440206 10250 20239 51004
LTBG 100528Z 06008KT 9999 SCT035 BKN100 20/20 Q1007 RESHRA TEMPO -TSRA RMK RWY18 06009KT
HSFS 011100Z 32006KT 9999SCT050 27/21 Q1014
KPVG 011224Z AUTO 23004KT 10SM BKN006 BKN110 24/24 A3004 RMK AO2 CIG 005V009
UUBW 011200Z VRB02MPS CAVOK 26/08 Q1017 R30/010060 NOSIG
CXRL 011200Z AUTO 14002KT 08/08 RMK AO1 T00840082
DNAK 010800Z 25005KT 6000 BKN006 FEW020CB 23/22 Q1015
HESN 011200Z 31009KT CAVOK 41/06 Q1003
FYKT 011200Z /////KT 9999 BKN090 ///// Q////
NZMF 011200Z 20004KT 130V280 50KM NCD 06/00 Q1010 RMK AUTO NZQN VATSIM USE ONLY
MSSS 312250Z 36004KT 9999 FEW023 30/21 Q1014 A2996
KLAS 011156Z 00000KT 10SM BKN200 25/19 A3005 RMK AO2 SLP154 70012 T02500189 10278 20250 55001
UGKO 011200Z 26012KT 9999 BKN030 28/22 Q1006 NOSIG
KGAG 011153Z AUTO 20015KT 10SM -RA SCT041 BKN060 OVC120 23/17 A2998 RMK AO2 RAB30 SLP118 P0003 60003 70003 T02330172 10278 20222 53001 $
KANW 011215Z AUTO 15003KT 10SM CLR 18/15 A3003 RMK AO2 LTG DSNT S T01790146
LPMA 011200Z 20007KT 9999 FEW015 24/17 Q1018
KASW 121555Z AUTO 32009KT 10SM SCT028 SCT035 BKN047 23/17 A2987 RMK AO2
KPLN 011202Z AUTO 19006G16KT 3SM -RA FEW027 BKN070 OVC100 21/18 A2972 RMK AO2 LTG DSNT S P0000 T02060178
EGNV 011220Z 23011KT 9999 SCT042 20/10 Q1017
KHEQ 011215Z AUTO 05005KT 10SM CLR 16/13 A3008 RMK AO2 LTG DSNT NE
YGEL 011230Z AUTO 28021G32KT 9999 // SCT035 SCT042 BKN057 18/12 Q1002
WMBA 011200Z VRB03KT 9999 FEW031 28/25 Q1006
OPLA 011225Z 04007KT 4000 FU SCT040 SCT100 32/24 Q1000 TEMPO 34020G40KT 1500 TSRA FEW030CB RMK QFE973 A29.54
LEAM 011200Z 16013KT CAVOK 31/25 Q1016
PAAK 252356Z AUTO VRB03KT 10SM BKN036 OVC046 A3020 RMK AO2 SLPNO 6//// 52007 FZRANO PNO $
SLTR 011200Z 00000KT 5000 FU FEW080 23/19 Q1013
HEGN 011200Z 01011KT CAVOK 36/16 Q1001
KVTI 011215Z AUTO 27007KT 10SM CLR 22/22 A2992 RMK AO2 T02160216
CWEE 011200Z AUTO 18/15 RMK AO1 SLP081 T01800149 58010
KBRD 011153Z AUTO 32010G17KT 10SM CLR 17/13 A2988 RMK AO2 SLP116 70007 T01670128 10206 20167 53009
CWVH 011200Z AUTO 30014KT ////SM OVC002 06/06 A2996
KCOU 011154Z 21007KT 10SM CLR 24/22 A3000 RMK AO2 SLP148 T02390217 10256 20233 53005
CXOL 011000Z AUTO 02008KT 15/15 RMK AO1 T01510151
KCPW 011215Z AUTO 25006KT 10SM CLR 07/06 A3077 RMK AO2
KAPF 011153Z 07006KT 10SM CLR 27/25 A3015 RMK AO2 SLP207 T02720250 10278 20261 52004
DNIB 010800Z 24007KT 9999 BKN008 23/22 Q1015
KGWW 011235Z AUTO 21006KT 10SM CLR 25/24 A3008 RMK AO2 T02520240
KQEV 011230Z AUTO 16002KT 9999 -SHRA BKN039 28/28 / RMK A02 TSNO
KRNT 011153Z AUTO 19004KT 10SM CLR 22/14 A2991 RMK AO2 SLP134 T02170139 10272 20211 53009 $
ENQR 011220Z AUTO 23016KT 9999NDV /// 13/10 Q1014 W11/S4
KLSE 011153Z 29010KT 10SM BKN018 BKN023 OVC029 23/19 A2981 RMK AO2 SLP082 70002 T02280189 10228 20217 53014
KRKS 011154Z AUTO 24008KT 10SM SCT120 17/04 A3028 RMK AO2 SLP156 T01720039 10233 20172 53005
CWSP 011200Z AUTO 30016G22KT 13/12 RMK AO1 PK WND 29024/1140 SLP126 T01300115
KCDJ 011152Z AUTO 00000KT 24/22 A2997 RMK AO1 SLP135 T02440222 10261 20239 53010
OIIS 011100Z 22003KT 9999 FEW035TCU SCT100 35/10 Q1009
UNEE 011200Z 07002MPS 8000 -TSRA SCT030CB 19/18 Q1004 R05/CLRD60 NOSIG RMK QFE730
KVLL 011215Z AUTO 21006KT 10SM CLR 22/18 A2990 RMK AO2 T02170180
VIBR 010600Z 00000KT 6000 FEW015 BKN035 BKN080 24/20 Q1008
OEGT 011200Z 29006KT CAVOK 39/03 Q1003 NOSIG
KAFF 011158Z AUTO 32006KT 10SM CLR 12/09 A3026 RMK AO2 SLP172 70001 T01170087 10137 20116 55007
KHLB 011215Z AUTO 00000KT 3SM BR OVC004 22/22 A3000 RMK A01
SBKP 011200Z 10005KT 9000 NSC 16/11 Q1020
KRNV 011235Z AUTO 21003KT 10SM OVC100 24/24 A3013 RMK AO2 T02400240 TSNO
KQQR 081555Z VRB02KT 7SM SCT200 31/08 A3004 RMK SLPNO WND DATA ESTM ALSTG ESTMD LAST PA+3154 DA+5833
WMKM 011200Z 12003KT 080V150 9999 FEW027 29/26 Q1007
CXZC 011200Z AUTO 04007KT 13/12 RMK AO1 9PAST HR 7023 SLP042 P0015 T01300115 50147
KTOR 011153Z AUTO 09003KT 10SM CLR 14/11 A3004 RMK AO2 SLP121 T01440111 10222 20144 55005
OIBL 011200Z 23008KT 6000 NSC 37/27 Q0998
LEBZ 011200Z 29009KT 230V330 CAVOK 37/14 Q1014
PAKK 011156Z AUTO 36006KT 10SM SCT110 14/09 A2976 RMK AO2 SLP086 T01440089 10161 20144 56010
EGOS 011220Z 24008KT 9999 FEW044 BKN300 22/10 Q1018 NOSIG RMK BLU BLU
SULS 011200Z 04004KT 9999 FEW001 06/06 Q1019
NTAA 011230Z 11006KT 9999 FEW023 22/17 Q1016 WS ALL RWY NOSIG
K14Y 011215Z AUTO 32008KT 10SM CLR 16/12 A2993 RMK AO2
EFHA 011220Z AUTO VRB02KT CAVOK 22/10 Q1012
KFYJ 121215Z AUTO 20006KT 10SM CLR 24/21 A2990 RMK AO1 T02350209
K5M9 011215Z AUTO 22003KT 7SM BKN008 OVC012 23/22 A3008 RMK AO2 T02270220
KOKC 011152Z 18008KT 10SM SCT120 BKN220 BKN250 25/17 A3000 RMK AO2 SLP141 T02500172 10261 20244 53006 $
KBUY 011154Z AUTO 21004KT 10SM CLR 24/22 RMK AO2 SLPNO 70009 T02390222 10239 20228
KGRR 011208Z 20011KT 10SM BKN012 BKN055 22/19 A2982 RMK AO2 T02170189 $
KGEV 011215Z AUTO 26012G18KT 10SM OVC019 21/18 A3021 RMK AO2 T02050175
KFIN 011150Z 00000KT 10SM CLR 24/23 A3020
CWSK 011200Z AUTO 02001KT 16/14 RMK AO1 SLP114 T01630144 50001
K6B9 011215Z AUTO VRB05KT 10SM FEW044 BKN055 21/18 A2999 RMK AO2
KRBW 011215Z AUTO 22007KT 10SM CLR 26/22 A3017 RMK AO2
KCMH 011224Z 15006KT 7SM OVC006 21/19 A2999 RMK AO2 T02060194
RJFS 011200Z 21016KT 9999 FEW030 BKN060 29/25 Q1011
KBBW 011153Z AUTO 00000KT 10SM CLR 16/15 A3000 RMK AO2 SLP136 T01610150 10206 20161 58002
SADM 011225Z 0000KT 3000 BR FU NSC 06/06 Q1019
CYZU 011200Z 07003KT 1/8SM FG VV002 14/14 A2986 RMK FG8 SLP118 DENSITY ALT 3100FT
ENTO 011220Z 16007KT 130V200 9999 SCT024TCU BKN064 19/14 Q1010 NOSIG
KGYY 011145Z 23010KT 10SM CLR 23/20 A2983
OEJN 011200Z 24008KT 9999 SCT040 SCT100 36/19 Q1002 NOSIG
LPPS 011200Z 01014KT 340V040 9999 FEW015 25/17 Q1018
VTUU 011200Z 00000KT 9999 FEW045 27/26 Q1005 NOSIG
K5H4 011215Z AUTO 28004KT 9SM FEW090 SCT110 14/12 A3000 RMK AO2
KMOR 011215Z AUTO 25007KT 10SM FEW010 SCT019 BKN035 23/22 A3014 RMK A01
SBOI 312000Z 30003KT 9999 SCT040 28/25 Q1010
ESSV 011220Z 31007KT 270V340 CAVOK 20/13 Q1011
KPTW 011159Z AUTO 00000KT 3SM BR SCT005 OVC012 18/18 A3003 RMK AO2 T01830183
MMMA 011200Z RTD 10003KT 8SM FEW080 SCT200 25/24 A3004 RMK SLP174 5//// 953 8/063 HZY DSNT CB ALQDS RTS
ESPA 011220Z 15009KT CAVOK 19/15 Q1010
ZBAD 011200Z 15002MPS CAVOK 31/26 Q1004 NOSIG
KUKF 011215Z AUTO 00000KT 10SM BKN110 22/21 A3015 RMK AO2
LTAC 011220Z VRB05KT 9999 SCT040 32/11 Q1009 BECMG 01012KT RMK RWY21L VRB07KT RWY03L VRB04KT RWY21R VRB07KT
CYGE 011200Z 18003KT 20SM SCT110 15/09 A2986 RMK AC3 SLP096 DENSITY ALT 3200FT
RJNS 011200Z 26008KT 9999 FEW010 BKN/// 27/27 Q1014
LIBV 011155Z 34013KT CAVOK 27/08 Q1013 RMK SKC VIS MIN 9999 WIND THR32 33017KT WIND THR14 33016KT BLU
FLHN 301000Z 10010KT CAVOK 25/02 Q1021
KPHT 011215Z AUTO 20005KT 9SM CLR 23/23 A3009 RMK A01
KPKV 011215Z AUTO 17003KT 10SM CLR 26/23 A3006 RMK AO2 T02600233
KHZL 011215Z AUTO 00000KT 2 1/2SM -DZ OVC005 17/17 A3007 RMK AO2
KFYG 011215Z AUTO 00000KT 10SM FEW060 24/24 A3001 RMK AO2
KARB 011153Z AUTO 20005KT 8SM FEW060 19/17 A2989 RMK AO2 SLP115 T01890172 10189 20133 58018 $
KAVX 011151Z AUTO 09005KT 10SM BKN110 21/05 A3003 RMK AO2 SLP146 T02110050 10233 20183 56010 $
LFKS 011230Z AUTO 12006KT 070V170 CAVOK 32/22 Q1014
EGKK 011220Z 12005KT 050V220 9999 SCT022 SCT032 23/16 Q1019
KSGJ 011156Z 20003KT 10SM CLR 26/26 A3021 RMK AO2 SLP228 T02600260 53008 $
CZEV 011200Z AUTO 33007KT 08/08 RMK AO1 SLP157 T00800079 51002
KCNI 221910Z AUTO 00000KT 10SM 31/22 A3009 RMK AO2
KBKN 011215Z AUTO 12004KT 9SM CLR 23/22 A2997 RMK AO2
WMKN 011200Z VRB03KT 9999 FEW017CB 27/25 Q1006
KSBO 011215Z AUTO 00000KT 10SM CLR 25/22 A3019 RMK AO2
KT78 011215Z AUTO 00000KT 10SM CLR 24/24 A3007 RMK AO2
SMZO 011200Z 00000KT 9999 FEW010 28/24 Q1012 NOSIG
K06D 011215Z AUTO 21006KT 10SM -DZ FEW060 SCT090 16/16 A2993 RMK AO2
KBPK 010453Z AUTO 00000KT 10SM CLR 23/22 A3005 RMK AO2 SLP167 T02280222
ULOO 011200Z 10004MPS 050V130 9999 -SHRA SCT008 BKN023CB OVC045 15/14 Q1010 R01/290050 NOSIG RMK QFE753
OIBA 011200Z 32004KT 4000 HZ NSC 37/26 Q0997
RJSS 011218Z 10004KT 070V130 9999 FEW005 BKN007 26/24 Q1013 RMK 1ST005 5ST007 A2994
LIMJ 011220Z 16004KT CAVOK 28/24 Q1014
KM91 011200Z AUTO 20006KT 10SM BKN041 23/23 A3009 RMK A01
EVRA 011220Z 31004KT 270V340 9999 SCT005 OVC007 17/16 Q1008 NOSIG
KLAM 011215Z AUTO 00000KT 10SM SCT095 16/11 A3040 RMK AO2 T01600110
KBCK 011215Z AUTO 29007KT 10SM SCT016 OVC025 21/18 A2981 RMK AO2 T02070179
LTBO 011150Z VRB04KT 9999 FEW040 32/07 Q1009
WBSB 011200Z 34006KT 7000 -TSRA FEW004 SCT014 FEW015CB BKN140 26/26 Q1008 TEMPO 6000 TSRA
KMOX 011215Z AUTO 34008KT 10SM CLR 15/15 A2995 RMK AO2
VEBU 011200Z VRB03KT 6000 SCT018 BKN080 31/26 Q1001 NOSIG
USDA 011200Z 12003MPS CAVOK 15/10 Q1023 R04/CLRD60 NOSIG RMK QFE766/1022
KTVI 011215Z AUTO 00000KT 10SM BKN055 24/22 A3021 RMK AO2
PABV 011156Z AUTO 00000KT 10SM CLR 13/11 A2992 RMK AO2 SLP137 T01330111 10189 20122 58010
LFRT 011230Z AUTO 31005KT 250V350 9999 OVC020 21/16 Q1021
YNWN 011230Z AUTO 35013KT 9999 // SCT096 SCT110 22/09 Q1010
YGAY 011230Z AUTO 11004KT //// // ////// 16/15 Q1019
MTPP 011200Z 12007KT 9000 FEW022 28/24 Q1016 A3002
KNY0 011218Z AUTO 00000KT 10SM SCT044 20/20 A3001 RMK AO2
KWBF 011215Z AUTO 16012KT 10SM CLR 29/24 A3012 RMK A01
HTMW 011100Z 33006KT 9999 FEW026 FEW027CB 24/16 Q1018 NOSIG
KHFF 011156Z AUTO 24010KT 10SM FEW085 OVC130 26/21 A3008 RMK AO2 SLP185 70002 T02610211 10271 20236 52005 $
LBPL 011200Z 33008KT 9999 SCT060 29/15 Q1010
AYNZ 010900Z 04005G10KT 9999 FEW030 28/21 Q1008
KQEN 011230Z AUTO 24002KT 9999 OVC023 / / RMK A02 TSNO
CWOE 011200Z AUTO 30012G17KT 14/11 RMK AO1 PK WND 30024/1117 SLP093 T01360110 53005
NZKI 011200Z 29017KT 20KM FEW250 10/03 Q1021 RMK AUTO NZWB VATSIM USE ONLY
DTTG 011200Z 08010KT 040V110 9999 FEW020 35/18 Q1013 NOSIG
KEYF 011215Z AUTO 23006KT 10SM CLR 26/24 A3011 RMK AO2 T02620235
KHNR 011215Z AUTO 00000KT 10SM CLR 17/17 A2997 RMK A01
UAAH 011200Z 25006MPS 9999 FEW046 28/13 Q1004 NOSIG RMK QFE715/0953
KRYM 011156Z AUTO 31009KT 10SM FEW016 SCT022 18/15 A2987 RMK AO2 SLP114 70003 T01750148 10203 20174 52008 FZRANO $
EDVK 011220Z 29010KT 260V320 9999 VCSH SCT030CB 23/15 Q1017
KDHN 011153Z 00000KT 7SM CLR 24/24 A3021 RMK AO2 SLP224 T02390239 10256 20222 53010
DNPO 010800Z 00000KT 7000 BKN007 24/23 Q1014 NOSIG
KLOM 011215Z AUTO 06004KT 1 3/4SM -DZ BR OVC007 19/18 A3001 RMK AO2 T01880185
KGZH 011224Z AUTO 00000KT 8SM FEW002 24/22 A3018 RMK AO2 T02440222
KPRO 011215Z AUTO 29003KT 10SM CLR 19/17 A2996 RMK AO2 T01910171
KRQO 011210Z AUTO 20014KT 7SM CLR 28/16 A3003 RMK AO2 T02770160
K6I2 011215Z AUTO 22006KT 10SM BKN012 23/23 A3008 RMK AO2
KDAB 011153Z 21003KT 10SM FEW080 FEW200 26/24 A3019 RMK AO2 SLP223 T02610244 10261 20239 53007
NFTF 011200Z 04005KT 9999 FEW016 24/23 Q1019 RMK GRASS DEW
SLVG 271200Z 00000KT 9999 NSC 11/11 Q1026
EFLP 011220Z AUTO 18006KT 150V220 9999 VCSH //////CB 22/13 Q1014
KTAN 011152Z AUTO 00000KT 10SM OVC075 23/20 A3003 RMK AO2 RAE1057 SLP167 P0000 60018 70018 T02280200 10228 20206 58005
CYKQ 311300Z 07005KT 020V100 5SM -RA BR OVC026 11/11 A2989 RMK SC8 LAST STFD OBS/NEXT 011300UTC SLP125
CPFI 011100Z AUTO 33004KT 14/14 RMK AO1 T01430137
KAKO 011153Z AUTO 21008KT 10SM CLR 18/13 A3012 RMK AO2 SLP137 70002 T01830133 10200 20172
KMGC 011215Z AUTO 21011G15KT 10SM SCT009 BKN100 22/20 A2984 RMK AO2
UMKK 011200Z 30006MPS 9999 FEW025 21/14 Q1012 R24/CLRD95 NOSIG RMK QFE758/1010
UTST 011130Z 28008KT 260V320 CAVOK 37/06 Q1002 R25/CLRD70 NOSIG
WAMM 011230Z VRB02KT 9999 FEW019 26/23 Q1009 NOSIG
MMTC 010941Z 07003KT 8SM SKC 25/11 A3013 RMK RTS
YHUG 011230Z AUTO 12005KT 9999 // NCD 17/08 Q1016
KIZG 011154Z AUTO 00000KT 10SM CLR 20/17 A3000 RMK AO2 SLP158 T02000167 10200 20156 58004
EFKS 011220Z AUTO 20003KT 140V250 9999 BKN040 18/09 Q1013
KFCS 011158Z AUTO 34005KT 10SM CLR 15/08 A3021 RMK AO2 SLP173 T01500080 10179 20147 55005 $
YCDO 011230Z AUTO 01004KT //// // ////// 02/M01 Q1020
KRTN 011153Z AUTO 06004KT 10SM CLR 12/11 A3028 RMK AO2 SLP168 T01220106 10167 20117 55002
YGTN 011230Z AUTO 07004KT 9999 // NCD 20/14 Q1015
PFSH 011156Z AUTO 04005KT 10SM FEW120 13/11 A2979 RMK AO2 SLP086 T01280111 10150 20128 55010
KIMT 011223Z AUTO 26003KT 9SM SCT013 OVC050 20/19 A2969 RMK AO2 T02000189
LEMH 011200Z 01013KT 350V050 CAVOK 32/17 Q1016
KALI 011153Z AUTO 03003KT 10SM SCT022 23/22 A3005 RMK AO2 SLP171 T02280222 10261 20228 53005 $
HKNK 011200Z 16007KT 9999 FEW023CB BKN024 22/12
KVPZ 281856Z AUTO 25005KT 10SM FEW038 BKN090 25/17 A2994 RMK AO2 SLP135 T02500167
LOWL 011220Z AUTO 28012KT 9999 FEW050CB SCT080 26/15 Q1016 NOSIG
LSZL 011220Z AUTO 26005KT 9999NDV NCD 30/17 Q1014 RMK
MHLM 011200Z 34005KT 9999 FEW026 BKN250 24/23 Q1014 A2995 NOSIG
RKTW 010827Z 09003KT 9000 -RA BR OVC045 30/25 A2956 RMK CIG045
KSUX 011152Z 00000KT 8SM CLR 17/16 A2997 RMK AO2 SLP140 70002 T01670161 10222 20161 52003
MHLC 011200Z VRB02KT 9999 FEW034CB BKN200 24/22 Q1014 A2994 NOSIG
KUZA 011154Z AUTO 25008KT 10SM FEW100 26/21 A3012 RMK AO2 SLP184 T02610206 10261 20239 51009
OEPA 011200Z 12016KT 9999 SCT035 SCT100 43/23 Q0999 NOSIG
PADU 011156Z AUTO 21023G45KT 10SM BKN024 BKN038 12/07 A2999 RMK AO2 PK WND 20045/1147 SLP160 6//// 7//// T01170067 10128 20111 53022 PNO $
MMZH 011158Z RTD 00000KT 7SM FEW100 26/22 A2992 RMK SLP123 5//// 964 8/030 HZY RTS
SAVV 011220Z VRB01KT 1500 BR NSC M00/M01 Q1018
RKTF 011213Z 33001KT 9999 FEW010 BKN030 26/26 A2973 RMK CIG030
RJSY 011200Z VRB02KT 9999 FEW030 SCT/// 28/24 Q1012
KHPN 011156Z 07005KT 10SM OVC042 19/19 A3001 RMK AO2 SLP157 60026 70028 T01940189 10228 20194 56008
KDLZ 011215Z AUTO 19003KT 7SM BKN010 OVC075 19/18 A3000 RMK AO2
KAHN 011151Z VRB03KT 10SM CLR 23/21 A3017 RMK AO2 SLP208 T02280211 10228 20211 51009
LSZC 011220Z AUTO 11005KT 040V190 9999 NCD 29/14 Q1018
CWCO 011200Z AUTO 19006KT 22/17 RMK AO1 SLP111 T02220171 58011
SBPR 011200Z 10016KT CAVOK 21/15 Q1023
KMYZ 011210Z AUTO 00000KT 10SM CLR 22/22 A2997 RMK AO2
NSFA 011200Z 11003KT 9999 SCT022 25/23 Q1014
KFDW 011235Z AUTO 23006KT 10SM CLR 26/21 A3015 RMK AO1
RJOM 011200Z VRB02KT 9999 FEW030 28/24 Q1013
CXTN 011200Z AUTO 22001KT 07/04 RMK AO1 SLP184 T00650035 56001
GCLA 011230Z 03015KT 350V060 9999 FEW025 25/20 Q1017
KAFN 011152Z AUTO 21005KT 10SM FEW110 21/17 A3005 RMK AO2 SLP173 60000 T02110172 10211 20172 58003
SLGM 301000Z 00000KT 8000 NSC 19/18 Q1014
KSMQ 011212Z AUTO 9SM BKN026 OVC033 21/19 A2999 RMK AO2 T02060194
KLBX 011153Z AUTO 00000KT 10SM CLR 25/23 A3006 RMK AO2 SLP180 60000 T02500228 10278 20244 53002
K1EM 011158Z AUTO 23007KT 10SM CLR 19/00 A2992 RMK AO2 SLP092 T01920002 10271 20192 53006 $
KIIB 011215Z AUTO 27007KT 10SM CLR 19/19 A2992 RMK AO2 T01920192
KMSV 011216Z AUTO 00000KT 10SM BKN003 BKN021 OVC049 18/18 A3005 RMK AO2
KAEX 011153Z 12003KT 10SM CLR 25/23 A3009 RMK AO2 SLP191 T02500233 10256 20244 53005
KMLC 011222Z AUTO 18008G18KT 150V210 10SM VCTS -RA BKN110 24/21 A3005 RMK AO2 LTG DSNT N AND NW RAE1159B14 TSB01E16 P0000 T02440211
KRKD 011156Z AUTO 10SM CLR 20/19 A2999 RMK AO2 SLP154 T02000194 10200 20150 55002 $
SKSP 011200Z 08014KT 040V100 9999 FEW016 SCT200 28/25 Q1011 RMK A2988
SBCG 011200Z 09007KT CAVOK 25/11 Q1017
UTFA 300700Z 13006KT 080V170 9999 NSC 31/11 Q1006 R88/09//70
KLJF 011215Z AUTO 30006KT 10SM OVC020 18/16 A2991 RMK AO2
CWHQ 011200Z AUTO 15001KT 19/17 RMK AO1 T01900171
KJGG 151935Z AUTO 00000KT 1/2SM BKN001 BKN006 OVC015 22/22 A3013 RMK AO1 P0069
KRYV 011215Z AUTO 25007KT 10SM OVC016 21/20 A2978 RMK AO2 T02140197
SBJE 312100Z 05011KT 9999 FEW020 27/23 Q1011
KVLD 011153Z 00000KT 10SM CLR 25/23 A3019 RMK AO2 SLP230 T02500233 10250 20222 53012
KBIJ 011215Z AUTO 00000KT 10SM CLR 23/21 A3019 RMK AO2
OMDB 011200Z 33013KT 8000 NSC 40/22 Q0998 NOSIG
SKCC 011230Z VRB02KT 5000 BCFG FEW008 SCT017 24/24 Q1015 REDZ RMK A2997
KHON 011155Z AUTO 00000KT 10SM CLR 15/13 A2995 RMK AO2 SLP137 T01500133 10178 20139 56006
CWKO 011200Z AUTO 14007KT 15/13 RMK AO1 SLP108 T01530130 55009
RJNY 312250Z 26006KT 230V300 9999 FEW015 SCT035 29/26 Q1014 RMK 2CU015 3SC035 A2996
VDSR 011200Z VRB03KT 9000 SCT015 FEW017CB BKN040 26/25 Q1004 RMK CB:SE/SW
YGBI 011230Z AUTO 07003KT //// // ////// 25/22 Q1012
RKSS 011200Z 12012KT 090V160 9999 -RA FEW035 BKN080 30/24 Q1005 NOSIG
LYBT 011230Z 30012KT 250V350 CAVOK 31/12 Q1013 NOSIG
CWJC 011200Z AUTO 34017KT 09/04 RMK AO1 PK WND 33023/1107 SLP112 T00930040 57002
EGVP 011221Z 20005KT 9999 FEW040 BKN250 24/13 Q1018 NOSIG RMK BLU BLU
PAWM 222311Z AUTO 18007KT 4SM RA BR FEW018 SCT030 OVC037 07/07 A2966 RMK AO2 RAB2259 P0000
KC99 011213Z AUTO 30013G21KT 10SM SCT120 11/03 A3063 RMK AO2 LTG DSNT NE
KQFV 011230Z AUTO 10006KT 9999 OVC075 28/24 A2979 RMK A02 TSNO
PAUN 011156Z AUTO 11007KT 10SM CLR 14/11 A2977 RMK AO2 SLP085 6//// 7//// T01390111 10156 20128 56011 PNO $
VAOZ 011230Z 29010KT 6000 FEW020 SCT030 28/22 Q1008 NOSIG
KJWN 011150Z 21004KT 5SM BR OVC040 24/22 A3009
KBFD 011224Z AUTO 00000KT 1 1/4SM BR OVC002 17/16 A3005 RMK AO2 T01720161
RKTI 310432Z 07005KT 9999 -RA FEW020 OVC040 28/28 A2973 RMK CIG030
SEQM 011200Z 21002KT 8000 BCFG FEW003 SCT070 10/10 Q1026 BECMG TL1220 9999 RMK A3032
SAAR 011200Z VRB01KT 6000 NSC 08/07 Q1017 RMK PP000
SPHZ 211300Z 00000KT CAVOK 07/04 Q1027 RMK TX24.2/TN03.1 PP000
TGPY 011200Z 08013KT 9999 FEW018 29/25 Q1014 NOSIG
RJAA 011200Z 21001KT 9999 FEW030 BKN/// 29/25 Q1013 NOSIG RMK 1CU030 A2992
FNCT 010600Z 00000KT 9999 BKN015 28/16 Q1017
VTSC 011000Z 36012KT 330V030 9999 FEW022 31/26 Q1004 NOSIG
CYXQ 312200Z 32010G15KT 290V350 20SM BKN050CB OVC250 18/09 A2990 RMK CB7CI1 /TR MM/LAST STFD OBS/NXT 011600Z/ SLP137 DENSITY ALT 3100FT
CYZE 011200Z AUTO 21016KT 9SM FEW081 22/17 A2975 RMK SLP077 DENSITY ALT 1800FT
KVDI 011215Z AUTO 23004KT 10SM CLR 26/22 A3019 RMK AO2
KCVH 011215Z AUTO 00000KT 10SM FEW001 FEW035 FEW042 17/14 A3002 RMK A01
SKMZ 011200Z 00000KT 9000 BKN060 15/15 Q1026 RMK A3031
KOZW 011215Z AUTO 19006KT 10SM SCT040 22/19 A2988 RMK AO2 T02200185
LFQA 011230Z AUTO 35003KT 280V040 9999 BKN032 BKN039 OVC058 24/16 Q1019
KQBR 201855Z AUTO VRB03KT 10SM CLR 33/10 A3022 RMK AO2 SLP106 WND DATA ESTMD T03260099
KORF 011151Z 23008KT 10SM CLR 24/24 A3002 RMK AO2 SLP164 60001 70001 T02440239 10244 20233 51007 $
CYDB 011223Z AUTO 00000KT 3/8SM FG VV002 07/07 A2997 RMK SLP180
VTST 011200Z 13004KT 8000 SCT020 26/26 Q1006 NOSIG
KBEA 011235Z AUTO 00000KT 10SM CLR 24/22 A3006 RMK AO2 T02380224
VCCC 290700Z VRB02KT 9999 SCT016 BKN100 29/25 Q1008 A2978
YSTW 011230Z AUTO 22001KT 0150 // ////// 05/05 Q1020
KCKZ 011215Z AUTO 06003KT 5SM BR BKN004 OVC014 18/18 A3002 RMK AO2
OEMN 011200Z 24003KT 9999 FEW040 BKN100 37/17 Q1005
KPUJ 011215Z AUTO 00000KT 7SM BKN090 OVC110 22/22 A3020 RMK AO2
NFNS 312300Z 10003KT 9999 SCT025TCU BKN045 27/25 Q1015
SBYS 011200Z 08002KT 8000 NSC 15/10 Q1020
EPGD 011230Z 06008KT 020V090 CAVOK 22/12 Q1012
EHJA 011225Z AUTO 14007KT 100V170 9999 NSC 16/11 Q1019
YGLA 011230Z AUTO 20003KT 9999 // NCD 16/14 Q1019
LYBE 011230Z 33009KT 300V360 CAVOK 30/12 Q1013 NOSIG
MUMZ 191250Z 06008KT 9000 FEW020 27/25 Q1017
DGSI 291800Z 32003KT 9999 FEW016 29/19 Q1014 NOSIG
KMUI 011215Z 00000KT 4SM BR FEW002 BKN009 OVC015 19/17 A2999 RMK AO2A DZE15 SLP156
RJBE 011200Z 28009KT 9999 FEW015 BKN/// 28/25 Q1013
KDWX 011210Z AUTO 10004G16KT 10SM CLR M09/M17 A3032 RMK AO2 T10941166
KMTH 011153Z AUTO 11008KT 10SM CLR 29/24 A3012 RMK AO2 SLP200 70013 T02940244 10294 20289 51004
NZNR 011200Z 30007KT 20KM NCD 09/03 Q1025 RMK AUTO VATSIM USE ONLY
KRQB 011215Z AUTO 16006KT 10SM OVC013 21/19 A2978 RMK AO2 T02070190
KBLI 011153Z AUTO 19007G15KT 10SM CLR 15/14 A2990 RMK AO2 SLP129 T01500144 10194 20150 51011
KAXX 011215Z AUTO 00000KT 3/4SM BR OVC002 11/10 A3049 RMK AO2 T01060102
EHDL 011225Z AUTO 35005KT 260V070 9999 FEW029 BKN033 BKN038 21/14 Q1019 BLU
K4A9 011215Z AUTO 00000KT 5SM BR 22/22 A3018 RMK AO2 T02210217
KHWD 011154Z 00000KT 10SM OVC009 16/14 A3001 RMK AO2 SLP172 T01610139 10167 20156 51007
YFDF 011230Z AUTO 31013KT 9999 // NCD 23/12 Q1012
YWDH 011230Z AUTO 11005KT 9999 // NCD 17/12 Q1018
YCAR 011230Z AUTO 25015KT 9999 // SCT023 SCT036 BKN045 20/15 Q1008
KFXY 011215Z AUTO 29006KT 10SM CLR 17/16 A2995 RMK AO2
KCYS 011153Z 29009KT 10SM CLR 17/09 A3021 RMK AO2 SLP138 T01670089 10178 20150 55005
HKKT 011200Z 0000KT 9999 FEW022CB BKN023 22/15
YSTH 011230Z AUTO 27013G25KT 9999 // NCD 11/04 Q1001
KNCA 011156Z 23008KT 10SM SCT200 26/24 A3009 RMK AO2 SLP192 70066 T02560239 10256 20244 51007
OISS 011230Z 00000KT 9999 FEW035TCU BKN100 31/16 Q1011 A2986
KOTH 011156Z AUTO 00000KT 10SM OVC010 15/14 A3002 RMK AO2 SLP166 T01500139 10150 20144 55005
KNSE 011156Z 09003KT 9SM FEW025 FEW037 SCT250 24/23 A3016 RMK SLP196 T02390228 10244 20228 53010
HEMM 011200Z 30019KT CAVOK 31/24 Q1007
LHPR 011215Z AUTO 33009KT 280V010 CAVOK 28/12 Q1014 NOSIG
K36K 011215Z AUTO 00000KT 10SM CLR 20/20 A3008 RMK AO2
KTKI 011153Z 18009KT 10SM CLR 28/19 A3006 RMK AO2 SLP171 60000 T02780194 10311 20278 53013
CYFC 011200Z AUTO 19005KT 9SM BKN240 20/17 A2996 RMK SLP146 DENSITY ALT 600FT
CXSP 011000Z AUTO 16001KT 11/11 RMK AO1 T01100110
WBGG 011200Z VRB02KT 9999 FEW020 25/24 Q1007 NOSIG
KADH 011215Z AUTO 21011G17KT 10SM CLR 28/17 A3005 RMK AO2 LTG DSNT NE
KCRX 011215Z AUTO 20006KT 1 3/4SM -RA SCT004 BKN029 OVC055 24/22 A3014 RMK AO2
MUMO 191250Z 08014KT 9000 SCT018 29/25 Q1017
KK70 011215Z AUTO 11009G14KT 10SM SCT022 29/26 A3013 RMK AO2
PADQ 011153Z AUTO 30004KT 10SM SCT070 14/11 A2986 RMK AO2 SLP111 T01390106 10161 20139 57022 TSNO
CYMJ 281900Z 01007KT 15SM FEW060 FEW280 23/08 A3013 RMK CU1CI1 SLP204
ENSG 010750Z 27013KT 9999 FEW022 BKN038 10/04 Q1013 RMK WIND 3806FT 27014KT
KPHF 011154Z 24008KT 10SM OVC009 24/24 A3002 RMK AO2 CIG 007V012 SLP165 60000 70011 T02440239 10244 20233 53007
CWVF 011200Z AUTO 31012KT 21/18 RMK AO1 T02050181
YCCY 011230Z AUTO 19007KT 9999 // NCD 18/05 Q1016
KCKV 011152Z AUTO 21006KT 8SM BKN006 24/21 A3009 RMK AO2 SLP183 7//// T02390211 10244 20228 52002 $
ETND 011220Z 34005KT 9999 BKN029 BKN080 21/13 Q1018 BLU
KCMY 011158Z AUTO 29006KT 10SM BKN016 20/19 A2982 RMK AO2 SLP097 T02040192 10220 20196 52016 $
K8W2 011235Z AUTO 24003KT 1/4SM OVC002 21/20 A3005 RMK AO1 T02080202
KINW 011156Z AUTO 00000KT 10SM CLR 18/17 A3026 RMK AO2 SLP170 70025 T01780167 10211 20178 55000
KNMM 011156Z 17003KT 10SM SCT200 22/22 A3015 RMK AO2 SLP217 T02220217 10239 20217 53009 $
LGPZ 011220Z 24013KT 9999 FEW018 30/22 Q1007
K9S9 110700Z AUTO 12007KT 10SM CLR 18/05 A3026 RMK AO2 PWINO
FSIA 011200Z 12014KT 090V160 9999 BKN022 26/22 Q1011 NOSIG
FQNP 011200Z 17015KT 9999 FEW010 BKN020 24/16 Q1021
GOOD 011200Z 26006KT 9999 SCT013 SCT015TCU 31/25 Q1013
DXNG 011200Z 21009KT 190V260 9999 BKN007 25/19 Q1017
EDLW 011220Z 35006KT 280V030 9999 SCT021 BKN029 22/16 Q1018
SVMG 011203Z AUTO 11007KT NCD 19/26 Q1013
SKBG 011200Z VRB02KT 9999 FEW005 BKN270 20/20 Q1016 RMK A3001
KISP 011156Z 08004KT 10SM -RA FEW007 BKN036 OVC060 21/20 A3000 RMK AO2 RAE23B53 SLP158 P0001 60017 70017 T02060200 10244 20206 58003
KSPK 011215Z AUTO 13005KT 10SM CLR 21/11 A3016 RMK AO2
PHNG 011157Z AUTO 09009G17KT 10SM FEW024 BKN049 OVC075 A3005 RMK AO2 PK WND 07028/1138 RAB11E55 SLP172 P0006 60007 70007 57009 $
HTIB 011100Z 18005KT 9999 FEW024 28/14 Q1017
K13K 011215Z AUTO 17008KT 10SM CLR 23/22 A2999 RMK AO2 T02270222
KHSD 011215Z AUTO 20013G18KT 10SM FEW120 29/16 A2998 RMK A01
KC62 011235Z AUTO 20009KT 2 1/2SM BR OVC004 A2990 RMK AO2
KOWP 011215Z AUTO 15003KT 10SM SCT120 26/23 A3002 RMK AO2 LTG DSNT S T02610231 PWINO
LEBA 011200Z 25004KT CAVOK 36/18 Q1014
CWAF 011200Z AUTO 14/13 RMK AO1 T01370130
LICT 011155Z 36017KT 9999 FEW025 31/25 Q1013 RMK FEW VIS MIN 9999 WIND THR13 02015KT BLU
SPGM 302200Z 34003KT 9999 FEW040 30/20 Q1011 RMK PP000
KJYR 011215Z AUTO 11005KT 10SM CLR 21/19 A2998 RMK AO2
KPNA 011215Z AUTO 28006KT 10SM CLR 07/02 A3033 RMK AO2
SGLV 010900Z 00000KT CAVOK 22/15 Q1013
PLCH 011200Z 12003KT 9999 FEW020 25/22 Q1010
KMWL 011153Z AUTO 16006KT 10SM CLR 27/18 A3004 RMK AO2 SLP154 T02720178 10311 20272 53006
CWSA 011200Z AUTO 22010KT 9SM FEW250 19/18 A3006 RMK SLP182 DENSITY ALT 400FT
LIMK 011155Z 18007KT CAVOK 30/15 Q1018
PHOG 011154Z AUTO 04008KT 10SM FEW033 SCT044 OVC060 24/20 A3005 RMK AO2 RAB39E50 SLP180 P0000 60001 70001 T02440200 10261 20239 58015 TSNO $
CYSM 011200Z VRB02KT 15SM SCT067 12/07 A2992 RMK AC4 SLP138
K4A6 011215Z AUTO 23004KT 7SM FEW050 BKN065 OVC075 24/24 A3018 RMK AO2
YSWG 011230Z AUTO 10004KT 9999 // NCD 03/02 Q1019
MHGS 011200Z 00000KT 9999 BKN034 21/19
DTTZ 011200Z 11012KT CAVOK 39/15 Q1011
SETN 312200Z 22007KT 170V250 9999 FEW026 BKN100 BKN300 27/23 Q1009 RMK A2981
UERR 011200Z 06004MPS 9999 SCT033CB 24/15 Q0999 R07/CLRD60 NOSIG RMK QFE719/0959
RJCA 010633Z 27004KT 9999 -SHRA FEW020 BKN030 BKN050 25/21 Q1013 RMK 1CU020 5CU030 6CU050 A2992
KHWO 011153Z 10005KT 10SM FEW026 28/24 A3017 RMK AO2 SLP215 60000 T02780244 10289 20250 53001
KMAE 011153Z AUTO 27006KT 10SM CLR 23/17 A2996 RMK AO2 SLP141 T02330172 10272 20233 53002
VTUI 011100Z 24005KT 9999 TS VCSH FEW015CB BKN030 28/24 Q1003 NOSIG
KT82 011215Z AUTO 00000KT 10SM CLR 22/19 A3012 RMK AO2 T02210190
CYZW 010100Z 00000KT 30SM -SHRA SCT087 OVC098 15/13 A2987 RMK AC4AC4 VIRGA SE LAST STFD OBS/NXT 011300Z SLP129 DENSITY ALT 2900FT
KJDN 011148Z AUTO 00000KT 16/08 A2982 RMK AO1 SLP080 T01610083 10250 20161 56008
LFLS 011230Z AUTO 33007KT 260V030 CAVOK 32/08 Q1017 NOSIG
KEAU 011156Z 31014G19KT 10SM FEW020 OVC042 21/17 A2981 RMK AO2 SLP090 70002 T02060167 10211 20200 53014
MMPR 011149Z 06003KT 10SM BKN120 BKN220 24/23 A2992 RMK SLP130 52002 968 8/032
KFTW 011153Z 18010KT 10SM CLR 28/20 A3004 RMK AO2 SLP162 T02780200 10322 20278 53008
RJOW 011000Z 15012KT 9999 FEW040 31/22 Q1010
LRBM 011200Z 27008KT 9999 BKN034 23/15 Q1013
KSNC 011215Z AUTO 00000KT 10SM FEW002 OVC065 21/20 A3003 RMK AO2
UBEE 011200Z 17002KT CAVOK 35/17 Q1005 NOSIG
ZMCK 011230Z 04004MPS 9999 SCT100 25/11 Q1008 NOSIG RMK QFE641.8 42 MOP
TKPN 011200Z 08020KT 9999 SCT019 29/25 Q1017
SAZS 011200Z 18005KT CAVOK M03/M05 Q1016 RMK PP///
FPST 310700Z 16008KT 9999 FEW020 SCT004 SCT011 22/20 Q1015 NOSIG
YLEC 011230Z AUTO 35004KT 9999 // NCD 09/M01 Q1018
K46U 011215Z AUTO VRB05KT 10SM CLR 12/04 A3026 RMK A01
YMRY 011230Z AUTO 31005KT 9999 // NCD 12/01 Q1015
KPUC 011153Z AUTO 03006KT 10SM CLR 19/09 A3025 RMK AO2 SLP140 70001 T01890094 10233 20183 53004
CWLM 011200Z AUTO 23009KT 12/11 RMK AO1 SLP124 T01170109 51008
HTKJ 011000Z 09010KT 9999 BKN026 25/14 Q1021 NOSIG
KMTO 011230Z AUTO 19008KT 10SM -RA SCT044 SCT075 OVC110 19/18 A2995 RMK AO2 LTG DSNT E-SW RAE22B24 TSB1154E16 P0001 T01940183
LFBA 011230Z AUTO 35006KT 290V070 CAVOK 31/17 Q1018 NOSIG
KHME 010950Z 27008KT 9999 FEW030CB SCT035 35/09 Q1008
KFLD 011153Z AUTO 25008KT 10SM OVC017 23/19 A2975 RMK AO2 SLP068 60000 T02280194 10233 20211 53001
OIMT 011200Z AUTO 01006KT //// // ////// 41/09 Q1003
RJSA 011200Z 35003KT 0100 R24/0300V0450N FG -SHRA VV001 22/22 Q1011
OEGN 011200Z 16010KT 9999 SCT030 FEW035CB SCT100 34/27 Q1003 NOSIG
KWHP 010250Z 11007KT 10SM OVC110 27/08 A3003 RMK OBSERVER PT.
LIRQ 011220Z VRB04KT 9999 FEW045 36/11 Q1013
KICL 011215Z AUTO 00000KT M1/4SM FG BKN001 20/20 A2998 RMK AO2
DRRT 011200Z 24014KT 9999 SCT030 31/20 Q1013
LIVC 011155Z AUTO 34002KT //// 18/09 Q1029
VCBI 011210Z 25004KT 210V290 9999 FEW014 BKN016 27/25 Q1006 NOSIG
NZRC 011200Z 33005KT 300V010 50KM NCD 08/03 Q1005 RMK AUTO NZNV VATSIM USE ONLY
SPZO 011230Z 09003KT 9999 SCT050 BKN100 06/M00 Q1033 NOSIG RMK BIRD HAZARD RWY10/28
KEMM 272015Z AUTO 28009G20KT 220V080 10SM CLR 30/M05 A3028 RMK AO2
CWGB 011200Z AUTO 30018KT 20/ RMK AO1 PK WND 28021/1150 SLP113 T0195 53001
ETNG 291750Z 33005KT 9999 FEW045 BKN080 24/13 Q1017 NOSIG
LRIA 011200Z 30014KT 9999 SCT020 22/16 Q1010
LFLX 011230Z AUTO 32007KT 250V010 CAVOK 30/16 Q1019 NOSIG
K54A 011210Z AUTO 07005KT 10SM CLR 27/27 A3015 RMK AO2
CYOD 011219Z 00000KT 1SM R31R/P6000FT/U BR SCT100 SCT250 12/12 A2993 RMK AC4CI1 DENSITY ALT 1990FT VIS LWR E SLP142
LEMO 011230Z 20005KT 130V270 CAVOK 36/17 Q1014 NOSIG
KMIV 011154Z AUTO 04004KT 10SM OVC005 22/21 A2998 RMK AO2 SLP150 60006 70016 T02170211 10222 20217 53003
UNNT 011200Z 35006MPS 9999 -SHRA OVC011CB 19/16 Q1004 R07/090070 R34/////// NOSIG RMK QFE743/0991
KXIF 011156Z AUTO 00000KT 9SM BKN009 BKN016 19/18 A3002 RMK AO2 SLP165 60001 70094 T01930183 10193 20178 51007 VISNO RWY34 $
KLUL 011215Z AUTO 33004KT 10SM BKN021 24/24 A3017 RMK A02 T02400238
KHIF 011158Z 12008KT 10SM OVC140 23/09 A3013 RMK AO2A SLP130 T02320085 10266 20227 52006
EPMO 011230Z 25007KT 200V300 9999 FEW045 25/14 Q1013
KMVY 011153Z 22003KT 10SM SCT075 22/21 A3004 RMK AO2 RAE1058 SLP170 P0000 60003 70003 T02220206 10233 20211 58006
SBCP 011200Z 02003KT CAVOK 22/17 Q1020
RJEB 010700Z 11007KT 8000 FEW003 SCT004 BKN006 16/16 Q1014
KOLY 071655Z AUTO 22004KT 4SM TSRA SCT039 SCT047 OVC055 25/24 A3002 RMK AO2 LTG DSNT ALQS P0001 T02460240
EGQA 011150Z 15011KT 9999 FEW025 16/// Q1014 RMK BLU
KOPL 011215Z AUTO 12003KT 10SM CLR 25/25 A3012 RMK AO2 T02450245
KCID 011152Z 28007KT 8SM CLR 20/18 A2989 RMK AO2 SLP117 60117 70161 T02000183 10222 20189 53017
K38S 011230Z AUTO 27004KT 10SM 13/06 A3014
CYOY 011200Z 01003KT 8SM SCT010 BKN030 17/17 A2994 RMK ST4SC3 DENSITY ALT 1187FT FG BANK N SLP139
WIOO 011200Z 03003KT 6000 FEW011CB BKN012 28/24 Q1006 NOSIG
UNBB 011200Z 02002MPS 9999 SCT040CB 20/16 Q1004 R24/290150 NOSIG RMK QFE731
KHHV 011215Z AUTO 17015KT 8SM SCT023 SCT031 BKN044 28/23 A3005 RMK A01
SBFZ 011200Z 14015KT 9999 SCT025 28/20 Q1015
YLRE 011230Z AUTO 13009KT 9999 // NCD 17/13 Q1017
ENHV 011220Z AUTO 02005KT 350V040 9999 NCD 14/10 Q1012
EEEI 011150Z 09013KT 060V120 9999 BKN040 22/12 Q1011 NOSIG
ZHCC 011200Z VRB01MPS CAVOK 30/24 Q1005 NOSIG
LTBS 011220Z 20013KT 9999 FEW030 33/21 Q1002 NOSIG RMK RWY19 20014KT 1CU030
PARS 011221Z AUTO 00000KT 9SM RA BKN004 OVC016 12/12 A2973 RMK AO2 P0003 $
KHLR 011158Z AUTO 19006KT 10SM CLR 25/20 A3008 RMK AO2 SLP173 T02460202 10290 20245 53006
KEHR 011225Z AUTO 22004KT 10SM FEW009 BKN015 24/23 A3006 RMK AO2
KCBE 011210Z AUTO 00000KT 10SM OVC003 20/19 A3008 RMK AO2 T01950190
CYXX 011200Z 22004KT 30SM FEW180 FEW240 15/13 A2989 RMK AC1CI1 AC TR CONTRAILS SLP122 DENSITY ALT 300FT
KOVS 011153Z AUTO 27005KT 10SM CLR 22/19 A2982 RMK AO2 SLP094 T02170189 10228 20206 53014 $
WSSL 011200Z 09004KT 9999 FEW020 BKN300 28/24 Q1007
GAKD 011200Z 32006KT 9999 BKN025 30/24 Q1014
LICJ 011220Z 02012KT 9999 FEW030 30/24 Q1013
KCKI 011235Z AUTO 25004KT 10SM CLR 26/21 A3014 RMK AO2
MUVR 011150Z 11004KT 9000 FEW020 25/25 Q1020
KPSF 011214Z AUTO 00000KT 10SM BKN013 BKN048 OVC060 20/17 A3003 RMK AO2 T02000172
K9D7 011215Z AUTO 24005KT 4SM -DZ CLR 15/15 A2997 RMK AO2 TSNO
LKPD 011230Z 30009KT 250V330 9999 BKN047 BKN090 25/15 Q1015 NOSIG RMK BLU BLU
KEWB 011153Z 30004KT 10SM BKN040 BKN090 22/21 A3003 RMK AO2 SLP167 60008 70008 T02220206 10228 20211 58005
KRAC 011205Z AUTO 24008G18KT 10SM SCT026 OVC031 24/20 A2978 RMK AO2 T02440200
KPYM 011152Z AUTO 27004KT 10SM FEW007 SCT013 SCT022 23/21 A3003 RMK AO2 RAE14 SLP169 P0004 60012 70012 T02280211 10228 20211 58006
LFBL 011230Z AUTO 29006KT 220V340 CAVOK 29/12 Q1020 NOSIG
CYIN 011200Z AUTO 27003KT 9SM BKN230 17/07 A2994 RMK SLP108 DENSITY ALT 4800FT
CYGR 011200Z 23009KT 20SM BKN270 23/19 A2992 RMK CI7 SLP133 DENSITY ALT 1000FT
SPPY 171400Z 05002KT 7000 3000SE BCFG FEW008 SCT015 BKN050 13/12 Q1029 RMK PP000
K6S2 011215Z AUTO 00000KT 8SM OVC003 14/14 A3000 RMK AO2
GCHI 011200Z 36021KT 9999 SCT015 BKN022 23/19 Q1016
PASO 011153Z AUTO 14005KT 10SM BKN060 OVC080 14/12 A2987 RMK AO2 RAB01E47 SLP114 P0001 60001 70001 T01390122 10156 20128 58023 TSNO
CXVN 011200Z AUTO 20008KT 23/19 RMK AO1 SLP124 T02270190 58008
KADM 011150Z 19008G13KT 10SM BKN120 28/19 A3002
KAIG 011215Z AUTO 27008KT 10SM OVC034 19/19 A2976 RMK AO2 T01920185
KMGY 011206Z AUTO 20007KT 3SM BR OVC005 21/20 A3000 RMK AO2 T02110200
KRFD 011154Z 24011KT 10SM FEW025 22/20 A2984 RMK AO2 SLP098 T02220200 10228 20211 53002
KLRF 011156Z AUTO 00000KT 10SM OVC130 24/23 A3005 RMK AO2 SLP176 70006 T02360234 10245 20232 53007 $
KAFP 011215Z AUTO 22007KT 10SM CLR 26/21 A3010 RMK AO2 T02620206
CWQP 011200Z AUTO 23011KT 23/20 RMK AO1 SLP138 T02250195 58005
SPMF 291320Z 11002KT 9999 SCT020 SCT070 21/18 Q1019 RMK PP000
KFZG 011215Z AUTO 00000KT 10SM CLR 26/23 A3020 RMK AO2 T02610229
KFDY 011225Z AUTO 20010KT 6SM BR FEW008 BKN048 OVC065 22/20 A2994 RMK AO2 T02220200
KW13 011235Z AUTO 19006KT 10SM SCT110 22/20 A3007 RMK AO1 T02180201
CWFD 011200Z AUTO ///// ////SM BKN009 BKN014 BKN019 05/05 A2960
ZUCK 011200Z 07004MPS CAVOK 35/19 Q1001 NOSIG
KSIK 011215Z AUTO 21005KT 7SM OVC006 23/23 A3007 RMK AO2
LFST 011230Z AUTO VRB03KT 9999 FEW001 SCT076 BKN100 30/15 Q1017 TEMPO FEW050CB BKN070
KLVK 011153Z AUTO 30004KT 10SM CLR 17/14 A3000 RMK AO2 SLP154 T01670139 10183 20167 50004
USSS 011200Z 04006MPS 9999 BKN026CB 19/14 Q1014 R08R/010060 R08L/010060 NOSIG RMK QFE740/0987
KONP 011215Z AUTO 22003KT 1 1/4SM DZ OVC003 13/13 A3003 RMK AO2
CWGL 011200Z AUTO 20010KT 21/17 RMK AO1 SLP109 T02120174 58007
SCFM 011200Z 35007KT 9999 FEW020 SCT040 05/02 Q1009
K7L2 011215Z AUTO 10005KT 5SM BR CLR 13/14 A2997 RMK AO2
EBOS 011220Z 01008KT 340V070 9999 FEW025 21/14 Q1020 NOSIG
LFBT 011230Z AUTO 29006KT 220V360 CAVOK 28/19 Q1020 NOSIG
CYBX 011200Z 27002KT 15SM BKN057 OVC100 17/13 A2987 RMK SC6AC2 SLP117 DENSITY ALT 500FT
DNIM 141000Z 23005KT 9999 BKN009 FEW019CB 27/24 Q1014
MMSP 011140Z 13006KT 8SM SCT025 16/11 A3034 RMK SLP134 52001 902 8/500 AC CI
SVFM 011203Z AUTO 13004KT NCD 21/19 Q1016
LTAP 011220Z 03014KT 360V070 9999 FEW040 32/17 Q1007 NOSIG RMK RWY23 04015KT 360V060
KWLD 011154Z AUTO 14006KT 10SM CLR 24/22 A2999 RMK AO2 SLP142 T02390217 10261 20239 55002 $
K2V5 011215Z AUTO 26005KT 10SM CLR 17/14 A3007 RMK AO2 LTG DSNT NE
SLHI 181900Z 00000KT 9999 FEW015 BKN200 25/20 Q1014
KAUH 011215Z AUTO 12006KT 10SM CLR 21/19 A2999 RMK AO2 T02060190
EGNH 011220Z 24008KT 9999 FEW032 20/13 Q1017
KSWW 011215Z AUTO 20017KT 10SM CLR 26/13 A3012 RMK AO2 T02630128
ESNQ 011220Z AUTO 16012KT 9999 FEW049/// 21/10 Q1010
KPOC 010147Z 26010KT 10SM CLR 28/13 A2998
TJSJ 011156Z 09010KT 8SM SCT024 SCT100 29/25 A3008 RMK AO2 SLP184 HZ ALQDS T02940250 10294 20278 53008
HUKA 201400Z 18004KT 9999 FEW021 FEW023CB 25/16 Q/////
EGPU 011150Z AUTO 17016KT 9999 BKN048/// 16/11 Q1013
KEKO 011156Z AUTO 10SM CLR 22/09 A3017 RMK AO2 SLP144 T02170089 10261 20211 51001
EGOW 010750Z 15008KT 9999 FEW030 16/12 Q1018 RMK BLU
KJKL 011218Z AUTO 00000KT 4SM BR OVC006 22/22 A3009 RMK AO2 T02220217
KFIG 011208Z AUTO 21003KT 10SM FEW006 SCT010 OVC021 19/18 A3005 RMK AO2 T01890178
KLWT 011154Z AUTO 21009KT 10SM CLR 14/04 A2999 RMK AO2 SLP109 T01390039 10183 20128 53006
HKGO 011200Z AUTO 11009KT 19/09 Q1025 A30.26
KADC 011215Z AUTO 32008KT 10SM CLR 16/14 A2992 RMK AO2 TSNO
KCTJ 011215Z AUTO 00000KT 10SM BKN090 BKN110 21/21 A3024 RMK AO2 T02090206
CXHR 011200Z AUTO 34002KT 13/13 RMK AO1 T01270127
RPLB 011200Z VRB02KT 8000 -RA SCT018 OVC070 25/24 Q1011 RMK A2985
DXSK 011200Z 18004KT 9999 BKN016 BKN260 27/23 Q////
CZST 010100Z VRB02KT 3SM -SHRA BR FEW012 SCT055 OVC060TCU 18/17 A2993 RMK SC2SC2TCU4 LAST STFD OBS/NEXT 011300Z/ SLP136 DENSITY ALT 400FT
EKVJ 311150Z 18012KT 7000 -RADZ FEW020 BKN040 17/16 Q1014
KTWT 011215Z AUTO 21005KT 10SM OVC013 24/22 A3006 RMK AO2
OIIP 011200Z 21006KT 9999 FEW035TCU 36/08 Q1008 A2979
CYQI 011232Z 20007KT 160V220 15SM BKN007 BKN240 20/18 A3002 RMK ST5CC2 SLP168 DENSITY ALT 700FT
CWJX 011200Z AUTO 12001KT 15/13 RMK AO1 SLP117 T01470126 55006
WBKW 011200Z VRB02KT 9999 FEW016 25/24 Q1009
EGAE 011220Z 16011KT 140V200 9999 FEW035 SCT049 19/13 Q1012
KBMQ 011153Z AUTO 17004KT 10SM CLR 24/21 A3011 RMK AO2 SLP176 T02440206 10283 20244 53004
KLAN 011203Z 19010KT 10SM BKN011 22/18 A2986 RMK AO2 T02170178
K1R7 011215Z AUTO 00000KT 9SM CLR 23/23 A3017 RMK AO2 PWINO
PAKU 011151Z 09010KT 10SM R06/P6000FT BKN005 OVC060 01/01 A3005
YCBB 011230Z AUTO 00000KT 9999 // NCD 09/07 Q1020
BIGJ 291000Z 03010KT 9999 OVC015 06/04 Q1007
YMEN 011230Z AUTO 34010KT 9999 // SCT083 11/08 Q1014
KVPS 011156Z AUTO 00000KT 10SM CLR 26/23 A3013 RMK AO2 SLP209 T02560230 10284 20245 53009 $
KALX 011215Z AUTO 00000KT 10SM CLR 23/23 A3019 RMK AO2 T02330231
WIEE 011200Z VRB01KT 9999 FEW018CB SCT020 29/25 Q1006 RMK CB TO NE
KBOK 011219Z AUTO 00000KT 3/4SM -RA BR OVC003 14/14 A3002 RMK AO2 P0000 $
RJNG 010024Z VRB01KT 9999 FEW015 BKN030 31/25 Q1014 RMK 1CU015 5CU030 A2995
ETSL 011220Z 27007KT 9999 FEW060 27/12 Q1018 BLU+BLU+
KD25 011215Z AUTO 30008KT 10SM OVC010 18/18 A2977 RMK AO2 T01810181
RJCK 011100Z 08004KT 9999 -RA FEW010 BKN017 15/14 Q1016
K8D3 011056Z AUTO A2994 RMK AO1 SLPNO PNO $
RJFM 011200Z 15006KT 9999 FEW010 SCT050 27/26 Q1013
GMFM 011200Z 33007KT 300V040 CAVOK 39/17 Q1016 NOSIG
KSAT 011158Z COR 18007KT 10SM SCT016 SCT023 26/22 A3009 RMK AO2 T02560222 $
SERO 011200Z 21002KT 8000 VCSH FEW010 OVC020 21/20 Q1013
CYSK 011200Z 22010KT 15SM BKN200 10/05 A2981 RMK CC6 SLP098
BIRK 011200Z 34013KT 9999 FEW032 BKN038 11/04 Q1007
YPED 011230Z AUTO 35005KT 9999 // OVC061 10/06 Q1016
KBDR 011152Z 05004KT 10SM OVC055 21/19 A3001 RMK AO2 RAE1054 SLP160 P0000 60036 70036 T02060189 10244 20194 58012
KCGZ 011156Z AUTO 21003KT 10SM CLR 26/21 A3002 RMK AO2 SLP150 6//// 7//// T02610206 10294 20261 50006 $
SBFN 011200Z AUTO 12010KT 070V160 9999 SCT022 28/23 Q1015
KSRC 010456Z AUTO 00000KT 10SM OVC100 24/23 A3007 RMK AO2 SLP179 T02390233
CYKF 011200Z AUTO 19006KT 9SM FEW071 20/20 A2992 RMK SLP129 DENSITY ALT 1900FT
OPST 011155Z 00000KT 5000 FU FEW040 33/24 Q1001 NOSIG RH58
PAHY 011156Z AUTO 22004KT 10SM OVC017 14/13 A3004 RMK AO2 SLP168 60000 T01390128 10139 20133 56002 $
CYCA 011200Z AUTO 31006KT 9SM CLR 16/10 A2983 RMK SLP104 DENSITY ALT 300FT
ENVA 011220Z 21005KT 9999 FEW018 SCT038 BKN055 12/09 Q1014 TEMPO SHRA BKN018TCU RMK WIND 670FT 27005KT
MGQZ 011200Z 09008KT 9999 FEW020 SCT200 12/11 QFE 774/9
SPHI 011200Z 18009KT 9999 BKN006 15/13 Q1015 RMK BIRD HAZARD RWY 19/01 TN14.8 PP000
CYTH 011200Z VRB02KT 15SM FEW020 08/08 A2986 RMK SC1 SLP121
SPEO 281400Z 19008KT 5000 BR OVC007 16/15 Q1017 RMK BIRD HAZARD RWY 01 PP000
KJCA 011215Z AUTO 25004KT 10SM CLR 22/22 A3018 RMK AO2 T02250224
SBAR 011200Z 13014KT CAVOK 27/19 Q1018
EDWE 010420Z AUTO 34005KT 9999 // FEW014/// 15/14 Q1016
LTAI 011220Z 16009KT 130V200 9999 SCT030 31/24 Q1003 NOSIG RMK RWY18C 15008KT 120V180 RWY36R 15009KT 130V190 RWY18L 17008KT 110V200
KLOR 011156Z AUTO 00000KT 10SM CLR 22/22 A3021 RMK AO2 SLP211 T02200215 10240 20210 53010 $
EGSC 011220Z VRB04KT 9999 FEW030 BKN040 23/13 Q1018
KDNL 011153Z AUTO 00000KT 10SM CLR 26/20 A3016 RMK AO2 SLP208 T02560200 10272 20239 52010
GOGG 011200Z 18004KT 9999 BKN015 32/27 Q1014
KOTG 011156Z AUTO 32005KT 10SM CLR 16/15 A2997 RMK AO2 SLP145 T01560150 10183 20150 53009
KQVG 011158Z AUTO 20006KT 6SM BR FEW140 BKN190 15/15 A2999 RMK AO2 SLP180 T01460146 10163 20146 58002 $
KBKF 011158Z 21007KT 10SM SCT220 18/09 A3019 RMK AO2A SLP145 T01830094 10207 20183 55000
KEEO 011153Z AUTO 07004KT 10SM CLR 11/08 A3032 RMK AO2 SLP185 70005 T01110083 10178 20111 53004
KJSO 011235Z AUTO 00000KT 10SM BKN017 BKN023 25/22 A3013 RMK AO2 T02450223 TSNO
PAIG 081656Z AUTO 11/11 RMK AO2 SLPNO T01110106 PWINO $
URSS 011200Z 28005G10MPS 9999 FEW033TCU BKN080 28/22 Q1006 R02/010070 R06/010070 NOSIG RMK R06/28006G10MPS MT OBSC QFE753
NZRO 011200Z 11003KT 31KM NCD 01/01 Q1028 RMK AUTO VATSIM USE ONLY
KCLL 011153Z AUTO 18004KT 10SM CLR 26/22 A3008 RMK AO2 SLP181 T02560222 10289 20250 53006
KSTC 011153Z 32008KT 10SM OVC023 18/14 A2988 RMK AO2 SLP121 T01830144 10200 20178 51008
KSPF 011215Z AUTO 00000KT 10SM CLR 18/09 A2999 RMK AO2
KVAD 011156Z AUTO 00000KT 10SM CLR 25/23 A3019 RMK AO2 SLP223 T02510227 10257 20225 52014 $
YTRE 011230Z AUTO 27004KT 9999 // NCD 10/10 Q1018
LIQC 011155Z 26003KT CAVOK 31/20 Q1014 RMK SKC QUK 1 QUL 1 W VIS MAR 20 KM VIS MIN 9999
KSPA 011235Z AUTO 23004KT 10SM CLR 24/20 A3013 RMK AO2
KIXA 011215Z AUTO 22007KT 10SM CLR 23/23 A3005 RMK AO2
KCDS 011153Z AUTO 19007KT 10SM CLR 27/10 A3003 RMK AO2 SLP137 T02670100 10300 20267 53010
CWZW 011200Z AUTO 28003KT 12/10 RMK AO1 SLP150 T01160095 53004
KMOT 011154Z AUTO 14005KT 4SM RA BR BKN090 OVC110 17/16 A2992 RMK AO2 SLP125 P0014 60029 70029 T01720161 10172 20144 50004
KPRX 011156Z AUTO 19008KT 10SM -RA CLR 26/22 A3008 RMK AO2 SLP178 P0000 60000 70001 T02610217 10306 20261 53014
KKLS 011156Z AUTO 31005KT 10SM OVC010 17/14 A2999 RMK AO2 SLP159 T01670144 10200 20167 53014
KTMA 011215Z AUTO 24003KT 10SM 26/23 A3019 RMK AO2 T02600230
LGTS 011220Z 28010KT 250V330 9999 FEW030 32/16 Q1009 NOSIG
CXAT 011200Z AUTO 31005KT 06/01 RMK AO1 SLP051 T00620013 52015
KRSW 011153Z 10004KT 10SM CLR 27/26 A3016 RMK AO2 SLP210 T02670256 10267 20256 53005
KESN 011150Z 25004KT 10SM BKN008 BKN020 OVC070 24/24 A3003
SCCH 011200Z AUTO 25003KT 9999 SCT023 BKN033 07/06 Q1018
CWBY 011200Z AUTO 04002KT 20/15 RMK AO1 SLP112 T01950147 50001
CYQU 011200Z VRB02KT 25SM BCFG BKN140 OVC250 13/13 A2977 RMK AC6CI2 SLP088 DENSITY ALT 2700FT
KDWA 202225Z AUTO VRB05KT 10SM CLR 36/08 A2996 RMK AO2
KHUL 281853Z AUTO 20008KT 10SM FEW060 BKN080 28/14 A2981 RMK AO2 SLP092 T02830139
KGCD 011215Z AUTO 10005KT 10SM CLR 22/08 A3005 RMK AO2 T02180077
CWRH 011200Z AUTO 24010KT ////SM ////// ///// A2967
KPDT 011153Z AUTO 14008KT 10SM CLR 23/10 A2988 RMK AO2 SLP096 T02330100 10294 20217 53004
LFMU 011230Z AUTO 25010KT 190V290 CAVOK 36/14 Q1014 NOSIG
KHSA 011150Z 00000KT 10SM CLR 23/23 A3013
HTSI 300400Z 07010KT CAVOK 16/12 Q1023
KLGU 011151Z AUTO 00000KT 10SM CLR 18/09 A3011 RMK AO2 SLP134 T01780089 10228 20139 53004
KCWI 011156Z AUTO 26008KT 10SM CLR 19/ A2987 RMK AO2 SLP113 60000 T0194 10222 20178 53012
KLWV 011212Z AUTO 22008KT 10SM OVC010 24/23 A3001 RMK AO2 CIG 008V013 T02440228
GBYD 011200Z 32010KT 9999 BKN012 31/26 Q1013
K2M2 011215Z AUTO 22003KT 6SM BR FEW029 SCT047 BKN055 22/22 A3015 RMK A01
HKWJ 011200Z 17009KT 9999 BKN032 31/15 Q1012
SOCA 011230Z AUTO VRB03KT //// R08///// // NSC 29/24 Q1013
K4O4 011215Z AUTO 00000KT 10SM FEW120 27/22 A3008 RMK AO2
KBIE 011215Z AUTO 00000KT 10SM CLR 22/21 A2999 RMK AO2 T02210213
WMKK 011200Z VRB01KT 9999 FEW030 29/25 Q1006 NOSIG
K77S 011235Z AUTO 00000KT 10SM OVC065 17/15 A2998 RMK A01
KLUV 011215Z AUTO 18009KT 10SM CLR 23/11 A3013 RMK AO2
KMKO 011228Z AUTO 12003KT 1 3/4SM +TSRA BR BKN043 OVC110 25/23 A3006 RMK AO2 LTG DSNT E RAB14 TSB08 P0005 T02500233
KPCW 011215Z AUTO 22008G15KT 9SM BKN070 22/22 A2993 RMK AO2
KPLD 060455Z AUTO 00000KT 10SM SCT045 SCT060 BKN065 24/19 A2991 RMK AO2
KDCA 011152Z 34007KT 10SM SCT016 BKN150 BKN250 24/19 A3001 RMK AO2 SLP162 70048 T02390194 10239 20228 51003
KWRB 011156Z 00000KT 10SM SCT250 24/23 A3017 RMK AO2A SLP216 T02430232 10275 20228 52013
SKAR 011200Z 00000KT 9999 MIFG BKN018 19/19 Q1019 RMK A3010
UASS 011200Z 27003MPS 9999 SCT040CB 28/14 Q1002 NOSIG RMK QFE733/0978
HTDA 011100Z 03012KT 9999 FEW020 SCT023 27/21 Q1018 NOSIG
KEGI 011156Z 00000KT 10SM FEW030 24/20 A3021 RMK AO2A SLPNO WND DATA ESTMD ALSTG/SLP ESTMD $
KS32 312355Z AUTO 32015G24KT 10SM SCT029 OVC036 22/18 A2989 RMK AO2 TSNO
HTSO 011100Z 15005KT 9999 SCT021 24/12 Q1023
YBSG 011230Z AUTO 14004KT //// // SCT038 BKN045 OVC051 25/20 Q1012
LFTW 011230Z AUTO 36008KT 300V050 CAVOK 37/09 Q1014 NOSIG
VEGT 011230Z 00000KT 3000 BR SCT018 FEW025CB BKN100 27/26 Q1001 NOSIG
EDDG 011220Z 33007KT 290V020 9999 SCT031 21/13 Q1018 NOSIG
NFTL 011200Z 07004KT 9999 FEW012 25/24 Q1018
YCOM 011230Z AUTO 31008KT 9999 // NCD 05/M01 Q1015
PAKT 011219Z AUTO VRB04KT 10SM FEW027 SCT039 OVC065 15/12 A3001 RMK AO2 T01500122 TSNO
LIRK 011155Z AUTO 11008KT //// 14/03 Q1024
KCAV 011215Z AUTO 31006KT 9SM CLR 18/17 A2995 RMK A01
LTAF 011220Z 19010KT 160V220 9999 FEW030 34/25 Q1001 NOSIG RMK RWY23 21010KT 170V240 2CU030
LIQW 011155Z /////KT CAVOK 32/13 Q1014 RMK SKC VIS MIN 9999 WIND THR18 16006KT BLU
KGEZ 011153Z AUTO 18007KT 5SM BR BKN009 OVC017 24/22 A2997 RMK AO2 CIG 005V013 SLP141 T02390217 10239 20217 56005
K21D 011215Z AUTO 31006KT 10SM SCT018 OVC027 18/16 A2987 RMK AO2
SAVE 272017Z 36002KT 400 +FG BKN006 BKN020 00/00 Q1020
KLUA 011155Z AUTO 00000KT M1/4SM FG OVC001 20/20 A3004 RMK AO2
YBDV 011230Z AUTO 00000KT 9999 // NCD 16/M02 Q1018
LEJR 011230Z VRB05KT CAVOK 37/18 Q1014
K3AU 011215Z AUTO 17007KT 10SM CLR 23/21 A2998 RMK AO2
UAIT 011200Z 28006MPS 250V330 9999 SCT053CB 34/09 Q1004 NOSIG RMK QFE727/0969
CWCI 011100Z AUTO 26012KT 11/11 RMK AO1 4PAST HR 6011 PK WND 22018/1003 SLP036 P0002 T01140113 50004
CZFA 010100Z 27006KT 250V320 30SM SCT046 BKN062 BKN083 20/11 A2982 RMK CU4SC2AC1 TCU EMBD LAST STFD OBS/NXT 011300Z SLP108 DENSITY ALT 3600FT
VVDN 011200Z VRB01KT 9999 FEW015 30/23 Q1005 NOSIG
CXMD 011200Z AUTO 26006KT 17/14 RMK AO1 SLP131 T01660136 53001
KGCK 011154Z AUTO 00000KT 3SM BR CLR 18/18 A3003 RMK AO2 SLP134 T01830183 10228 20183 55001
KOQN 011215Z AUTO 05003KT 5SM BR OVC009 18/17 A3002 RMK AO2
RJDC 011200Z 13011KT 9999 FEW015 28/26 Q1011
LFHP 011200Z AUTO 36008KT 290V080 CAVOK 29/04 Q1020
ESSB 011220Z 22008KT 170V250 CAVOK 22/10 Q1010
CYGL 011200Z 07009KT 15SM FEW030 BKN140 BKN240 11/07 A2979 RMK SC2AS4CI1 SLP095
MMMD 011144Z 12003KT 6SM SCT300 24/23 A3006 RMK SLP182 57001 907 8/004 HZY
K08D 011215Z AUTO 13012G18KT 10SM FEW120 17/17 A2992 RMK AO2
FQXA 011200Z 13012KT 080V160 9999 BKN020 SCT070 22/16 Q1028
HKGA 011200Z 18022KT 9999 BKN028 31/16
KSYF 011215Z AUTO 23006KT 10SM CLR 17/16 A3007 RMK AO2 T01720155 PWINO
KSBS 011215Z AUTO 32003KT 10SM CLR 10/10 A3035 RMK AO1 T01010101
YBSU 011230Z AUTO 27003KT 9999 // BKN071 OVC125 14/13 Q1020
KD57 011215Z AUTO 00000KT 7SM CLR 13/12 A2989 RMK AO2
FGBT 312300Z 18004KT 9999 SCT010 ///// Q1015
NIUE 011200Z 09003KT 9999 SCT018 22/21 Q1018
YPBO 011230Z AUTO 35010KT 9999 // BKN052 OVC110 23/13 Q1009
CWDM 011200Z AUTO 05005KT 19/13 RMK AO1 SLP115 T01900131 51015
FEFF 011200Z VRB03KT 9999 BKN020 27/21 Q1011 NOSIG
FQTT 011200Z 12013KT 9999 BKN020 29/13 Q1020
OEBA 011200Z 01016KT 9999 SCT030 32/13 Q1012 NOSIG
KGAI 011223Z AUTO VRB03KT FEW005 21/20 A3003 RMK AO2 PWINO $
KONZ 011215Z AUTO 21007KT 10SM BKN110 22/21 A2989 RMK AO2 T02230213
OITP 011200Z 11008KT 9999 SCT035 34/18 Q1005
KACJ 011210Z AUTO 26003KT 10SM CLR 27/22 A3021 RMK AO2
KTGI 011235Z AUTO 27011KT 10SM SCT015 OVC023 27/23 A3000 RMK AO1 T02650234
KGMJ 011215Z AUTO 17003KT 24/22 A3004 RMK AO2 PWINO
YBKE 011230Z AUTO 17003KT //// // ////// 06/03 Q1020
ZGGG 011200Z 12002MPS CAVOK 34/23 Q1004 NOSIG
SCIR 302100Z 17008KT 9999 BKN040 11/06 Q1020
SKUI 011200Z 00000KT 8000 -DZ SCT008 OVC080 23/23 Q1011 RMK A2987
KMGG 011224Z AUTO 31003KT 10SM OVC022 19/14 A2990 RMK AO2 PWINO
FQBR 011200Z 18013KT 9999 SCT018 25/19 Q1023
KPMV 011215Z AUTO 09003KT 10SM CLR 22/20 A2998 RMK AO2 T02200200
CWIL 011200Z AUTO ///// ////SM OVC003 ///// A////
KEKQ 011219Z AUTO 10SM SCT012 BKN029 OVC035 23/23 A3013 RMK AO2 PNO $
KNEL 011200Z AUTO 05006KT 7SM BKN008 OVC024 21/20 A2998 RMK AO2 CIG 006V012 SLP149 6//// 7//// T02110200 10217 20206 58004 $
VAUD 011200Z 23008KT 5000 HZ SCT025 BKN030 29/23 Q1005 NOSIG
VOCB 011230Z 20010G20KT 6000 SCT012 FEW020CB BKN080 28/22 Q1005 NOSIG
LGLM 011220Z 05005KT 9999 FEW018 30/16 Q1010
EGHH 011220Z 19005KT 120V280 9999 FEW043 25/13 Q1018
PALG 011156Z AUTO 07004KT 10SM -RA BKN033 OVC041 12/12 A2973 RMK AO2 SLP069 P0002 60017 70023 T01170117 10128 20117 58012
YMBA 011230Z AUTO 14008KT 9999 // OVC018 19/16 Q1017
OMAA 011200Z 31006KT 270V340 CAVOK 43/17 Q0997 NOSIG
SAOU 280015Z 16012KT 3000 -DZ BR BKN007 BKN010 08/08 Q1021
RKNO 252309Z 00000KT 2400 -DZ BR OVC003 22/22 A2991 RMK CIG003 8/6// 9/8//
KFSM 011153Z 07004KT 7SM CLR 24/23 A3004 RMK AO2 SLP166 70008 T02440233 10250 20244 53009
KFAM 011156Z AUTO 19004KT 10SM CLR 22/22 A3006 RMK AO2 SLP180 60001 70001 T02220217 10244 20217 53009
ESCF 011220Z 29006KT 9999 VCSH FEW040CB BKN045 17/16 Q1011 RESH
PAWG 011231Z AUTO 00000KT 1 3/4SM BR FEW002 OVC009 12/12 RMK AO2 CIG 007V012 TSNO $
CYXS 011200Z AUTO VRB03KT 9SM CLR 14/10 A2985 RMK SLP106 DENSITY ALT 2800FT
EKVG 011150Z 18011KT 9999 DZ SCT006 BKN014 11/10 Q1008 RMK WIND SKEID 21010G23KT 150V260
DATM 011200Z 06007G17KT 030V110 8000 NSC 42/04 Q1008
K0F2 011215Z AUTO 18005KT 10SM CLR 27/19 A3006 RMK AO2 T02730191
EGPE 011220Z 29009KT 9999 SCT048 18/07 Q1013
KPOE 011211Z AUTO 13003KT 9SM FEW006 SCT024 24/24 A3011 RMK AO2 SLP195
DAUE 011200Z 11005KT 9999 FEW040 SCT233 41/03 Q1015
PAHP 011205Z AUTO 05005KT 10SM SCT016 OVC037 10/09 A2973 RMK AO2 PNO $
PAKN 011224Z 20013G22KT 5SM -RA BR OVC009 12/12 A2978 RMK AO2 CIG 005V012 P0000 T01220117
CYMT 011200Z AUTO 20013G20KT 9SM CLR 19/15 A2976 RMK SLP080 DENSITY ALT 2300FT
KBPT 011153Z 17004KT 10SM CLR 24/24 A3008 RMK AO2 SLP184 60002 70002 T02440239 10278 20244 53005
KBLF 011231Z AUTO 27006KT 1 3/4SM +RA BR BKN006 OVC010 19/19 A3017 RMK AO2 RAE1155B01 P0006 T01940189
KDNV 011215Z AUTO 00000KT 7SM -RA BKN110 20/20 A2991 RMK AO2 P0005 T02040195
ENRM 010950Z 29004KT 8000 RADZ FEW008 BKN025 10/09 Q1012
KSLN 011153Z 00000KT 10SM CLR 23/21 A2999 RMK AO2 SLP139 T02280211 10256 20217 53007
EDAC 011220Z 30007KT 270V340 9999 SCT033 BKN038 23/16 Q1016
LEGR 011200Z VRB01KT 9999 FEW050 37/15 Q1017
PAPG 011229Z AUTO 00000KT 10SM OVC013 13/12 A3003 RMK AO2
LICA 011220Z AUTO 27014KT 9999 FEW084/// 32/17 Q1012
LFRD 011230Z AUTO 31008KT 9999 SCT016 SCT021 OVC027 21/16 Q1021 NOSIG
KHOU 011153Z 19003KT 10SM FEW035 FEW060 SCT160 BKN250 27/23 A3007 RMK AO2 SLP185 CB DSNT SE MOV N T02670228 10283 20261 53004
HTMP 011100Z 14004KT 9999 SCT024 30/13 Q1020
UTO8 M M M 070/03/02/3410/M/M 2008 29MM
LTAY 011150Z 29008KT 240V360 9999 FEW035 33/13 Q1008
KC29 011215Z AUTO 28010G17KT 10SM OVC015 22/20 A2982 RMK AO1 T02200201
SAZR 010240Z 09002KT 2500 BR NSC 06/06 Q1017
YMCO 011230Z AUTO 32006KT //// // ////// 09/02 Q1013
CYNA 011200Z AUTO VRB03KT 9SM CLR 20/15 A2984 RMK SLP107 DENSITY ALT 700FT
YJLC 011230Z AUTO 18009KT 9999 // NCD 17/04 Q1015
KS85 011225Z AUTO 11006G11KT 10SM 18/16 A2983 RMK A01 Culbertson
CXWB 011100Z AUTO 29009KT 06/05 RMK AO1 3PAST HR 6010 SLP907 P0001 T00620048 50019
YBNA 011230Z AUTO 00000KT 9999 // NCD 13/12 Q1019
LFQQ 011230Z AUTO VRB03KT 9999 BKN039 BKN045 BKN054 24/14 Q1019 NOSIG
EDDP 011220Z 33013KT 290V360 9999 FEW030 24/17 Q1016 TEMPO 32015G25KT
KGKT 011215Z AUTO 22004KT 10SM FEW023 BKN048 BKN060 23/22 A3014 RMK A01
KGSH 011153Z AUTO 21011KT 4SM BR OVC005 22/21 A2987 RMK AO2 SLP109 T02220206 10222 20200 58014
EPWA 011230Z 31006KT 260V010 9999 FEW042 23/13 Q1013 NOSIG
NCMH 011100Z AUTO 12006KT //// ////// ///// Q1013
HEMA 011100Z 36015KT CAVOK 34/16 Q1002 NOSIG
KFYM 011220Z AUTO 25006KT 5SM BR SCT007 SCT011 BKN065 23/23 A3019 RMK A01
MMOX 011140Z 03005KT 8SM SCT025 BKN220 17/13 A3028 RMK SLP135 5//// 908 8/502
SPJI 301900Z 10004KT 9999 FEW022 33/24 Q1020 RMK TX34.4 PP000
LIPH 011220Z 16005KT 100V220 CAVOK 33/18 Q1013
KK62 011215Z AUTO 23004KT 7SM SCT006 SCT010 OVC020 21/21 A3004 RMK AO2
RODN 011156Z AUTO 13011KT 10SM FEW014 28/25 A2978 RMK AO2 RAE05 SLP089 P0000 60000 70062 T02750253 10296 20271 53009 $
KT74 011215Z AUTO 16004KT 10SM SCT018 24/21 A3008 RMK AO2 T02350214
CYHI 310000Z 33014KT 15SM BKN013 BKN210 08/03 A3010 RMK SC5CI1 LST STFD OBS/NXT 31/1400Z SLP199
META NO CARRIER RING CONNECT 115200 FTWRR7NFW ALL TTAA00 KNFW 292200 .A KNFW 0729 DH2200/PPH 0.00
HSDN 011100Z 27004KT CAVOK 41/05 Q1006
FLRZ 021000Z 0212/0318 08010G15KT 9999 BKN030 BECMG 0215/0217 09005KT CAVOK BECMG 0305/0307 9999 BKN007 BECMG 0308/0310 09010KT BKN020
KAKR 011154Z AUTO 20008KT 10SM CLR 21/17 A2999 RMK AO2 SLP146 T02110172 10211 20189 58008
MMLO 011140Z 02005KT 8SM FEW030 SCT090 SCT220 15/12 A3036 RMK SLP161 52003 907 8/532
SKIB 011200Z 31003KT 8000 VCFG BKN010 BKN100 19/19 Q1019 RMK A3009
UUOL 011130Z 07005MPS 9000 NSC 25/11 Q1016 R33/090060 NOSIG
KDWH 011153Z 00000KT 10SM CLR 24/23 A3008 RMK AO2 SLP182 T02440228 10283 20239 53003
KSTJ 011153Z 00000KT 10SM CLR 22/22 A2996 RMK AO2 SLP137 T02170217 10233 20211 53004
CYAB 281900Z 30017KT 20SM FEW035 FEW050 05/02 A2955 RMK SC1SC1 SC TR SLP010
KTQK 011210Z AUTO 31004KT 2SM BR CLR 18/18 A3005 RMK AO2 T01820178
VELP 010930Z 12003KT 3000 BR FEW006 SCT016 BKN100 26/25 Q1005 NOSIG
KTAZ 011215Z AUTO 20004KT 10SM -RA SCT038 SCT048 SCT060 19/18 A2997 RMK AO2 LTG DSNT NE THRU SE T01860176
OESH 011200Z 22007KT 9999 FEW040 39/18 Q1002 NOSIG
SGME 010900Z 09004KT CAVOK 19/12 Q1010
CXTD 011200Z AUTO 25004KT 24/16 RMK AO1 SLP172 T02360159 53003
KSNS 011153Z AUTO 00000KT 10SM -RA FEW070 FEW120 18/14 A3000 RMK AO2 RAB26 SLP167 P0000 60000 T01780144 10178 20172 53002 TSNO
SLVM 011200Z 00000KT 9999 NSC 13/09 Q1014
FAWB 011200Z AUTO 04012KT //// // ////// 20/07 Q1027
KRKR 011215Z AUTO 00000KT 10SM CLR 24/21 A3005 RMK AO2
KRYY 011150Z 00000KT 10SM OVC095 23/22 A3019 RMK AO2 SLP212 70001 T02280217 10228 20217 51008 $
KSHL 011215Z AUTO 00000KT 4SM BR CLR 14/14 A2996 RMK AO2
KW31 011235Z AUTO 23003KT 7SM OVC003 23/23 A3005 RMK AO1 T02300230
KIKG 011215Z AUTO 00000KT 23/22 A3005 RMK AO2 T02280218 PWINO
HRYR 011230Z VRB06KT 9999 FEW023CB BKN025 26/14 Q1019 NOSIG
VAKE 010730Z 24011G21KT 4000 HZ FEW015 SCT020 BKN80 29/25 Q1004 TEMPO 1000 RA
KI67 011215Z AUTO 22003KT 10SM OVC014 22/20 A3000 RMK AO1
K5C1 011215Z AUTO 00000KT 10SM BKN012 BKN020 22/21 A3012 RMK AO1
KAJO 011156Z AUTO 00000KT 10SM CLR 21/15 A3000 RMK AO2 SLP152 7//// T02060150 10239 20206 56009
ESKN 011220Z 15009KT 110V170 CAVOK 22/08 Q1010
CYBW 011220Z AUTO 10007KT 3SM BR BKN005 BKN043 15/15 A2999 RMK SLP159 DENSITY ALT 4800FT
SCIP 011200Z VRB01KT 9999 FEW030 12/11 Q1025 NOSIG
KM21 011215Z AUTO 22005KT 10SM SCT009 BKN017 OVC025 24/22 A3007 RMK AO2 T02370220
KW22 011215Z AUTO 23005KT 10SM BKN005 BKN012 OVC020 20/20 A3008 RMK AO2
KFAF 011156Z 23006KT 10SM OVC007 24/23 A3000 RMK AO2A SLP162 70009 T02420230 10245 20238 52006 $
SPYL 311900Z 20014KT CAVOK 23/16 Q1012 RMK BIRD HAZARD RWY 17/35 PP000
VABB 011200Z 28008KT 4000 HZ FEW012 SCT020 SCT025 30/26 Q1004 BECMG 3000 HZ
CYKO 011200Z 22011KT 15SM BKN038 10/06 A2965 RMK SC6 SLP044
UTDD 011200Z VRB02MPS 9999 FEW066 34/09 Q1005 R09/D NOSIG RMK QFE686/0915
KT41 011215Z AUTO 19005KT 10SM CLR 27/19 A3008 RMK AO2 T02660194
VOND 011230Z 34003KT 6000 FEW020 BKN070 30/22 Q1004 NOSIG
KLGA 011151Z 06008G17KT 10SM FEW008 OVC043 21/18 A3000 RMK AO2 SLP157 60038 70039 T02110178 10244 20200 56008
SCRG 011200Z 00000KT 0100 FG VV001 07/07 Q1017
RPMD 011200Z 29003KT 9000 SCT016 BKN090 26/26 Q1010 RMK A2980
RJNT 011200Z 20004KT 150V240 9999 FEW010 BKN150 28/24 Q1012
KMNN 011233Z AUTO 20008KT 2 1/2SM BR OVC002 21/21 A2998 RMK AO2 T02060206 TSNO $
CYZX 011200Z 24003KT 15SM BKN250 18/15 A3002 RMK CI7 SLP167
KPCD 011215Z AUTO 17003KT 10SM CLR 24/23 A3003 RMK AO2 T02400230
FDMY 010500Z AUTO 26002KT //// // ////// 14/13 Q1040
VOCL 011230Z 30010KT 6000 BR FEW008 SCT012 FEW025CB OVC080 24/22 Q1004 NOSIG
YMHB 011230Z 31015KT 9999 FEW035 08/03 Q0999
KMAN 011215Z AUTO 00000KT 8SM 18/12 A2993 RMK A01
KPVJ 011215Z AUTO 20008KT 10SM BKN120 28/16 A3003 RMK AO2 T02800162
KEOK 011215Z AUTO 21005KT 10SM CLR 25/24 A2992 RMK A01
KTCM 011158Z AUTO 28005KT 10SM BKN160 OVC210 17/16 A2993 RMK AO2 RAB20E32 SLP137 P0000 60000 T01700157 10252 20170 52011
LBBG 011230Z 31012KT 270V340 9999 SCT030 30/11 Q1008 NOSIG
K10G 011215Z AUTO 20007KT M1/4SM OVC001 17/15 A3002 RMK AO2 PWINO
ETEB 011156Z AUTO 30006KT 9999 CLR 25/19 A3005 RMK AO2 SLP169 T02490188 10255 20190 58005 $
KMTJ 011153Z AUTO 13004KT 10SM SCT075 SCT095 17/11 A3029 RMK AO2 SLP170 T01720106 10222 20167 53007
SUDU 011200Z 11006KT 0500 FG NSC 05/05 Q1019
LTFD 011150Z 06011KT 010V100 9999 SCT035 34/17 Q1007
LFOZ 011230Z AUTO 31006KT 280V350 9999 SCT037 BKN200 24/16 Q1020
DGAA 010500Z 21011KT 9999 BKN010 24/22 Q1013 NOSIG
LBSF 011230Z 29013KT 260V330 9999 SCT063 26/11 Q1014 NOSIG
K3I2 011215Z AUTO 00000KT 7SM CLR 20/20 A3006 RMK AO2 T02010201
KEDJ 011215Z AUTO 21006KT 2 1/2SM BR OVC004 20/20 A2999 RMK A01
OIFM 011230Z 32006KT 9999 SCT040 34/04 Q1012 A2989
OINN 011200Z 03006KT 9999 FEW020CB 30/24 Q1005
LTCT 011150Z 14007KT 090V210 9999 FEW040 34/12 Q1007
KOXD 011215Z AUTO 25004KT 5SM BR BKN009 OVC013 22/20 A3001 RMK AO2 T02220202
KTME 011215Z AUTO 00000KT 7SM CLR 25/24 A3009 RMK AO2
KTDR 011227Z AUTO 00000KT 10SM BKN024 27/25 A3014 RMK AO2 BKN V SCT SLP210 $
KBBB 011216Z AUTO 35006KT 10SM CLR 15/14 A2994 RMK AO2
KOIN 011135Z AUTO 24004KT 7SM CLR 19/19 A3007 RMK AO1 T01900190
CYRL 011200Z 28003KT 220V300 15SM FEW008 FEW140 12/11 A2986 RMK CF1AC1 CF TR AC TR SLP121 DENSITY ALT 1300FT
KMFE 011153Z 11006KT 10SM CLR 24/23 A3003 RMK AO2 SLP165 70001 T02440233 10261 20244 53002
YBRL 011230Z AUTO 02005KT //// // ////// 22/13 Q1013
KSUA 011147Z 14003KT 7SM SCT046 28/24 A3019 RMK WND ESTD.
EGYH 011220Z 23010KT 9999 SCT043 SCT054 ////// 22/11 Q1018 RMK BLU
FYGF 011200Z AUTO 36012G23KT //// // ////// 25/M02 Q1018
RJOB 011200Z 09004KT 9999 FEW030 27/24 Q1014
CYPR 011233Z AUTO 29005KT 1 1/4SM -RA BR SCT004 BKN015 OVC020 13/13 A3002 RMK SLP168
OEAH 011200Z 21008KT CAVOK 37/22 Q0999 NOSIG
KBLM 011156Z AUTO 02006KT 10SM BKN005 OVC030 21/ A3000 RMK AO2 RAB06E23 CIG 004V008 SLP158 P0000 60018 70018 T0206 10228 20206 55003
CYQM 011200Z 18006KT 15SM FEW160 BKN250 22/17 A2996 RMK AC1CI4 SLP147 DENSITY ALT 1100FT
MDPC 011200Z 07012KT 9999 BKN018 SCT070 29/24 Q1018
YBHI 011230Z AUTO 36006KT 9999 // NCD 10/00 Q1018
KPIR 011153Z AUTO 12003KT 10SM CLR 14/13 A2995 RMK AO2 SLP128 T01390133 10189 20133 58004
K8A3 011215Z AUTO 24008KT 10SM BKN005 OVC010 22/21 A3013 RMK A01
KLRD 011156Z 09007KT 10SM CLR 25/22 A3003 RMK AO2 SLP165 T02500222 10283 20250 53002
PHKO 011153Z AUTO 00000KT 10SM FEW050 25/18 A3000 RMK AO2 SLP159 T02500178 10272 20250 58006 TSNO
VTUO 011200Z 17008KT 9999 VCSH SCT030 BKN100 27/25 Q1005 NOSIG
KN38 011215Z AUTO 00000KT 9SM BKN022 17/17 A3004 RMK AO2
KCMR 011215Z AUTO 15007KT 10SM SCT110 12/12 A3039 RMK AO2
KBNL 011235Z AUTO 23004KT 10SM CLR 26/22 A3017 RMK AO2
KGAD 011156Z AUTO 22004KT 10SM -RA SCT075 OVC095 22/22 A3018 RMK AO2 SLP218 6//// 7//// T02220222 10228 20217 51009 $
KRWI 011153Z AUTO 23005KT 10SM CLR 24/22 A3006 RMK AO2 SLP178 70017 T02440222 10244 20233 53008
NCAI 011200Z AUTO 14010KT //// ////// 25/20 Q1018
OEYN 011200Z 26018KT CAVOK 38/24 Q0998 NOSIG
SARI 011200Z 07006KT CAVOK 15/12 Q1017 RMK PP000
YCWR 011230Z AUTO 00000KT //// // ////// 04/04 Q1020
CWIS 011200Z AUTO 22002KT 17/15 RMK AO1 SLP142 T01670147 58002
CYMA 011200Z 00000KT 20SM SCT040 OVC069 13/13 A2987 RMK SC3AC5 CLIMAT16.0/13.2/0.0 SLP128 DENSITY ALT 1900FT
MMCP 011205Z RTD 00000KT 7SM SCT300 23/23 A3004 RMK SLP161 5//// 906 8/001 HZY RTS
SAAC 281200Z 25008KT 4500 TSRA BKN010 FEW045CB BKN050 14/13 Q1012
KGOO 011215Z AUTO 00000KT 10SM CLR 24/09 A3009 RMK A01
CWLY 011200Z AUTO 20013G25KT 9SM OVC200 25/11 A2981 RMK SLP089 DENSITY ALT 2300FT
HEPS 011200Z 35008KT CAVOK 31/27 Q1004
KAMN 011215Z AUTO 18006KT 10SM SCT065 22/19 A2982 RMK AO2 T02180186
KBTA 011215Z AUTO 00000KT 10SM CLR 19/18 A2998 RMK AO2 T01940177
LIQO 011155Z AUTO VRB03KT //// 32/14 Q1018
LFOP 011230Z AUTO 30007KT 240V360 9999 FEW035 SCT047 BKN160 24/14 Q1019 NOSIG
LGNX 011150Z 36012KT CAVOK 29/21 Q1008
KOGS 011215Z AUTO 20005KT 10SM CLR 21/18 A2991 RMK AO2
CWXI 011200Z AUTO 22007KT 16/16 RMK AO1 SLP109 T01630162 52014
KLAR 011153Z AUTO 00000KT 10SM CLR 13/07 A3031 RMK AO2 SLP153 70006 T01280072 10156 20111 55000
CWST 011200Z AUTO 22012G18KT 22/17 RMK AO1 PK WND 23019/1146 SLP122 T02200172 58002
KCNM 011153Z AUTO 16005KT 10SM CLR 24/09 A3008 RMK AO2 SLP122 T02390094 10300 20239 53002 $
MMCV 011142Z 16006KT 12SM FEW080 SCT200 24/18 A3003 RMK SLP162 5//// 961 8/033 DSNT CB SE SC W
KHBR 011153Z AUTO 21014KT 10SM -RA FEW040 BKN110 25/17 A3003 RMK AO2 RAB35 SLP145 P0000 60000 T02500172 10317 20250 53012
CXET 011200Z AUTO 18005KT 20/16 RMK AO1 SLP125 T01990160 58010
SENL 312200Z 36004KT 9999 FEW020 SCT100 27/22 Q1012 RMK A2989
LFSB 011230Z 24007KT 170V290 CAVOK 31/12 Q1017 NOSIG
NCPL 011100Z AUTO 05010KT //// ////// 25/21 Q1018
CWSD 011200Z AUTO 21009KT 22/18 RMK AO1 SLP148 T02180180 50002
KPAE 011153Z AUTO VRB03KT 10SM CLR 16/13 A2993 RMK AO2 SLP130 T01610128 10217 20150 53006
LSGG 011220Z 11006KT 060V140 9999 FEW070 31/10 Q1017 NOSIG
RKJB 011200Z 18011KT 9999 FEW010 BKN025 BKN100 27/25 Q1006 NOSIG
KPEZ 011215Z AUTO 00000KT 10SM CLR 24/22 A3008 RMK AO2 T02440220
KJAS 011215Z AUTO 00000KT 10SM FEW026 FEW032 23/23 A3009 RMK AO2
YJAB 011230Z AUTO 34004KT 9999 // NCD 26/18 Q1012
KGRK 011156Z AUTO 16005KT 10SM CLR 24/20 A3006 RMK AO2 SLP166 T02420197 10289 20242 53007
KCYD 011215Z AUTO 17012KT 7SM HZ SCT019 SCT024 29/25 A3014 RMK A02 T02920246
KBIH 011156Z AUTO 15005KT 10SM OVC110 19/18 A3017 RMK AO2 SLP171 70007 T01940178 10200 20189 55005
KPKB 011229Z VRB03KT 5SM BR OVC002 19/19 A3005 RMK AO2 T01940189
WAPP 011200Z 36002KT 9000 -RA BKN016 25/24 Q1008 NOSIG
FOGO 011200Z /////KT 9999 SCT010 BKN030 26/21 Q////
KPRG 011215Z AUTO 21007KT 10SM VCTS SCT080 SCT110 19/19 A2999 RMK AO2 LTG DSNT ALQS T01900190
MYNN 011200Z 11008KT 9999 FEW020 29/25 A3017
KCWV 011215Z AUTO 00000KT 7SM CLR 27/23 A3019 RMK AO2 T02700229
YMTG 011230Z AUTO 33009KT 9999 -SHRA BKN005 11/10 Q1013
KBDN 011215Z AUTO 27004KT 10SM CLR 24/10 A3005 RMK AO2
LFBU 011230Z AUTO VRB04KT 9999 ////// 30/13 Q1019
LIPS 011155Z /////KT 9999 FEW025 34/21 Q1014 RMK FEW VIS MIN 9999 WIND THR26 13004KT WIND THR08 20004KT BLK BLU
KCIC 011215Z AUTO 00000KT 10SM CLR 23/15 A2998 RMK AO1
PAMK 011156Z AUTO 02004KT 10SM -RA OVC060 12/11 A2975 RMK AO2 SLP075 6//// 7//// T01170111 10133 20111 58015 PNO $
KHWV 011156Z AUTO VRB05KT 9SM -RA BKN037 OVC060 21/18 A3001 RMK AO2 SLP160 P0004 60019 70019 T02060183 10244 20206 58005
KHDN 011156Z 11011KT 10SM CLR 14/09 A3034 RMK AO2 SLP183 T01440089 10206 20139 53004
KCRG 011153Z 18003KT 10SM CLR 26/24 A3019 RMK AO2 SLP224 T02610244 10261 20244 53010
KRDU 011151Z 23007KT 10SM BKN090 BKN250 25/24 A3007 RMK AO2 SLP177 70023 T02500239 10250 20239 53007
K1HW 011158Z AUTO 00000KT 10SM CLR 17/12 A3006 RMK AO2 SLP138 T01650118 10177 20147 55003 $
KTRI 011153Z 24008KT 9SM -RA SCT013 SCT018 BKN036 23/21 A3015 RMK AO2 RAB43 SLP183 P0000 60000 70090 T02280206 10228 20222 51005 $
VOTR 011230Z 23010KT 4000 -RA FEW015 FEW025CB BKN080 26/22 Q1002 NOSIG
UEEE 011200Z 17008MPS 9999 -SHRA BKN020CB 20/19 Q0999 R23L/290150 NOSIG RMK QFE741
YERN 011230Z AUTO 05006KT //// // ////// 14/M01 Q1016
LFRH 011230Z AUTO 25011KT CAVOK 22/16 Q1021 NOSIG
CWIW 011200Z AUTO 05004KT 14/13 RMK AO1 SLP135 T01360132 51003
OEKM 011200Z 23017KT 8000 TS SCT022 FEW025CB 23/16 Q1017 NOSIG
KTKC 011215Z AUTO 30005KT 10SM CLR 16/14 A2997 RMK AO2 T01640141
KD50 011235Z AUTO 19007KT 10SM BKN110 17/16 A2987 RMK AO2
KTQE 011154Z AUTO 34004KT 8SM CLR 18/17 A2996 RMK AO2 SLP131 T01830167 10222 20178 55002
LTCK 011150Z 27014KT 9999 FEW040 35/02 Q1009
PAJN 011153Z 08005KT 10SM SCT007 BKN030 BKN046 13/12 A3001 RMK AO2 SLP162 60000 70065 T01280122 10139 20122 51005 $
RJGG 011200Z 11007KT 9999 FEW020 SCT/// 29/26 Q1013 NOSIG
PABL 011156Z AUTO 00000KT 10SM SCT080 SCT100 10/08 A2985 RMK AO2 SLP109 T01000078 10150 20094 58008
KHJO 011153Z AUTO 32006KT 10SM CLR 26/16 A2995 RMK AO2 SLP142 T02560156 10311 20250 53003
OIBB 011200Z 24006KT 9999 TS FEW030CB SCT040 BKN090 35/26 Q0999 A2950
EDDW 011220Z AUTO 31011KT 280V340 9999 SCT033 21/12 Q1017 NOSIG
SAAP 281230Z 18014KT 9999 BKN005 09/09 Q1017
VYMD 011130Z 18004KT 6000 BKN020 FEW025CB BKN110 32/25 Q1001
KTNB 011210Z AUTO 28010KT 10SM SCT016 SCT021 BKN030 21/18 A3021 RMK AO2 T02050179
CWPD 011200Z AUTO 15002KT 16/15 RMK AO1 SLP104 T01620154 58008
CYTR 011200Z 00000KT 15SM FEW050 20/19 A2992 RMK CU1 DENSITY ALT 1212FT SLP132
KARV 011215Z AUTO 32010G14KT 10SM BKN013 BKN020 OVC025 19/17 A2976 RMK AO2 T01880171
KQFB 011230Z AUTO 12002G13KT 9999 BKN020 28/24 A2985 RMK A02 TSNO
NVSS 011200Z 11003KT 9999 SCT020 BKN040 24/23 Q1013
KPBG 011153Z AUTO 00000KT 10SM CLR 21/17 A2996 RMK AO2 SLP144 T02110167 10211 20150 58003
VYNT 011100Z 23005KT 6000 DZ BKN018 FEW020CB BKN100 29/25 Q1002
LIMW 011150Z AUTO 09011KT 060V120 9999 NCD 34/09 Q1014
LIPQ 011220Z AUTO 23010KT 180V260 9999 NCD 32/11 Q1014
SECU 011200Z 07003KT 9999 FEW010 BKN030 10/10 Q1026 RMK A3032
KSYI 011215Z AUTO 16004KT 9SM SCT043 SCT050 OVC060 23/23 A3014 RMK A01
WMKD 011200Z 00000KT 9999 FEW017CB 29/26 Q1006 NOSIG
KMVE 011215Z AUTO 32007KT 10SM CLR 17/15 A2994 RMK AO2
SBPP 011200Z 36008KT CAVOK 20/14 Q1017
KP59 011151Z AUTO VRB04KT 19/18 A2962 RMK AO1 SLP024 60001 70001 T01890183 10189 20156 55005
SBCX 011200Z 30006KT CAVOK 14/// Q1018
KSNK 011235Z AUTO 18008KT 10SM CLR 25/12 A3011 RMK AO2 T02510121
DNMN 010800Z 28005KT 9999 BKN008 24/22 Q1014
KEBS 011215Z AUTO 30006KT 10SM CLR 18/18 A2994 RMK AO2
LESA 011200Z 08008KT 050V110 9999 FEW047 35/09 Q1019
SBPG 312000Z 24004KT CAVOK 19/09 Q1019
LFLH 011230Z AUTO 34004KT 300V080 CAVOK 31/12 Q1017
LEAG 011200Z AUTO 06009KT CAVOK 26/23 Q1016
PAZK 011156Z AUTO 22004KT 10SM CLR 08/08 A2994 RMK AO2 SLP150 T00830078 10117 20083 58011
KFAY 011153Z 22008KT 10SM CLR 26/23 A3009 RMK AO2 SLP182 70001 T02610228 10261 20244 51006
PAQT 011225Z AUTO 06006KT 10SM BKN003 01/M01 A3006 RMK AO2 T00111006 TSNO $
KMLF 011152Z AUTO 19007KT 10SM CLR 18/15 A3021 RMK AO2 SLP170 60001 70008 T01780150 10189 20178 55005
SAAV 011120Z 07002KT 1200 BR NSC 07/07 Q1016 RMK PP///
KRCR 011215Z AUTO 20011KT 5SM BR OVC006 23/22 A2987 RMK AO2 LTG DSNT SW
KRVL 011215Z AUTO 00000KT 10SM BKN004 OVC013 19/19 A3002 RMK AO2
LFPM 011230Z AUTO 31006KT 280V350 9999 BKN041 BKN160 BKN180 25/16 Q1019
KU42 011215Z AUTO 18011KT 10SM SCT120 24/16 A3016 RMK AO1 T02400161
MMNL 010040Z 14020KT 10SM SCT030 BKN220 36/18 A2995 RMK 8/102
MRLM 011200Z 24005KT 9999 FEW015 BKN200 22/22 A2988
PAKH 131856Z AUTO 20004KT 10SM OVC090 16/12 A2970 RMK AO2 SLPNO T01610117
KOEO 011215Z AUTO 29009KT 10SM OVC026 21/17 A2988 RMK AO2 T02110168 PWINO
KF46 011215Z AUTO 20006KT 10SM CLR 27/20 A3008 RMK AO2 T02650202
DNEN 010800Z 21004KT 7000 BKN009 23/22 Q1014 NOSIG
KMEB 011152Z AUTO 23008KT 10SM FEW100 27/22 A3011 RMK AO2 SLP193 70018 T02670222 10267 20239 53007
SANT 011200Z 35009KT CAVOK 12/05 Q1015 RMK PP000
CWGR 011200Z AUTO 23009KT 23/18 RMK AO1 SLP133 T02280175 58001
KLYH 011154Z 19004KT 5SM BR FEW002 23/22 A3006 RMK AO2 SLP169 70444 T02330222 10233 20222 53011
MUSC 011150Z VRB03KT 9000 SCT020 25/24 Q1020
YMDG 011230Z AUTO 00000KT 9999 // NCD 01/01 Q1020
VAJL 231200Z 22008KT 6000 -DZ FEW020 SCT025 BKN070 25/24 Q1002 NOSIG
PAMH 011156Z AUTO 00000KT 10SM BKN080 OVC110 12/11 A2983 RMK AO2 SLP096 70002 T01170111 10144 20111 58016
LTAB 092040Z 32011KT 280V350 9999 TSRA FEW030CB BKN035 16/15 Q1009 NOSIG RMK RWY06 VRB07KT
VLLB 011200Z 27002KT 7000 VCRA SCT010 OVC083 29/24 Q1001 VCRA/E NOSIG
SLSA 011200Z 00000KT 7000 SCT020 22/21 Q1012
SCTN 011200Z AUTO 08003KT CAVOK 05/05 Q1019
NZHK 011200Z 04010KT 20KM -RA FEW016 BKN028 BKN039 08/08 Q1022 RMK AUTO VATSIM U
KNUI 011223Z AUTO 31006KT 10SM FEW011 26/22 A2999 RMK AO2 T02610222
EHRD 011225Z AUTO 35007KT 270V030 9999 FEW039 22/12 Q1019 NOSIG
BIGR 011100Z 32020KT 7000 RA OVC006 06/05 Q1001
PAWD 011208Z AUTO 18008KT 10SM SCT016 BKN090 OVC110 14/13 A2993 RMK AO2 T01390133 TSNO
RJOK 011100Z 17004KT 150V210 9999 FEW014 28/26 Q1014
KEKN 011230Z AUTO 00000KT 10SM SCT022 21/18 A3010 RMK AO2 T02060183
OSAP 011200Z 25008KT CAVOK 38/17 Q1002
KCLE 011151Z 20009KT 10SM FEW085 21/18 A2994 RMK AO2 SLP150 T02110178 10211 20194 58014 $
EGWU 011220Z 18004KT 9999 BKN033 24/13 Q1018 NOSIG RMK BLU BLU
KMKC 011154Z 23003KT 10SM CLR 25/23 A2996 RMK AO2 SLP138 T02500228 10278 20244 53002
CYBQ 011200Z AUTO 28004KT 9SM OVC050 09/07 A2985 RMK SLP122
KETC 011215Z AUTO 22004KT 7SM BR CLR 25/23 A3006 RMK AO2 T02450230
KJAU 011215Z AUTO 22004KT 10SM OVC024 24/21 A3017 RMK A01
DABS 011200Z 35006KT 9999 FEW030TCU SCT033 36/M00 Q1017
KMWC 011215Z AUTO 27008KT 10SM OVC020 22/18 A2977 RMK AO2
ESIB 011220Z AUTO 25011KT 9999 FEW042/// 21/13 Q1010
KBID 011156Z AUTO 18006KT 9SM -RA BKN055 OVC080 19/17 A3006 RMK AO2 RAB10 SLP178 P0001 60002 7//// T01890167 10233 20189 55006
CYCG 010400Z 11003KT 090V250 15SM BKN140 23/08 A2978 RMK FU5 LAST STFD OBS/NXT 011300Z SLP079 DENSITY ALT 3100FT
CWUX 011200Z AUTO 05002KT 21/17 RMK AO1 SLP111 T02090170 58006
DABT 011200Z 31006KT 9999 FEW026 36/04 Q1018
FTTJ 011200Z 12007KT 3500 -TSRA BKN026 SCT046CB 24/23 Q1012 NOSIG
KI75 011215Z AUTO 33003KT 10SM CLR 22/19 A2997 RMK AO2 T02200192
OSDI 011200Z 27008KT CAVOK 36/09 Q1004
K1IM 011158Z AUTO 18003KT 10SM CLR 15/04 A2994 RMK AO2 SLP106 T01480036 10205 20136 52004 $
CWBZ 011200Z AUTO 24004KT 22/17 RMK AO1 SLP129 T02210173 58008
KRUT 011156Z AUTO 14003KT 10SM CLR 19/16 A3002 RMK AO2 SLP157 T01940161 10194 20161 58005 $
KPHL 011213Z 02006KT 4SM BR OVC009 21/19 A2999 RMK AO2 T02110194
ZSQD 011200Z 02003MPS 9999 SCT040 29/25 Q1004 NOSIG
CWTT 011200Z AUTO 23003KT 18/15 RMK AO1 T01790152
TDPD 011200Z 10010KT 8000 BKN011 28/25 Q1017
LTBJ 011220Z 35021KT 9999 FEW035 34/17 Q1005 NOSIG RMK RWY16 35021KT
KBNW 011215Z AUTO 10SM CLR 20/18 A2997 RMK AO2
YMMB 011230Z AUTO 35013KT 9999 // OVC070 OVC088 12/08 Q1013
OEJB 011200Z AUTO 15005KT CAVOK 41/23 Q0997 NOSIG
LGSY 091707Z 03010G26KT 9000 TS SCT008 FEW012CB BKN015 20/20 Q1009 RMK OVC060 CB NW 15KM
KLAX 011153Z 26004KT 10SM FEW005 FEW010 SCT100 SCT160 21/18 A2999 RMK AO2 SLP153 T02060183 10217 20206 57010
KIDA 011153Z AUTO 01005KT 10SM CLR 13/09 A3013 RMK AO2 SLP151 T01280089 10200 20111 53005
KBBP 302315Z AUTO 24008KT 10SM TSRA SCT019 BKN055 OVC065 25/24 A3013 RMK AO2 P0001 LTG DSNT ALQDS
KHAF 011215Z AUTO 33006KT 9SM BKN003 BKN060 OVC110 14/14 A3002 RMK AO2
OIIK 011200Z 23004KT 9999 SCT035CB BKN100 34/13 Q1010
EDLP 011220Z 35006KT 310V050 9999 FEW010 BKN012 BKN026 19/16 Q1017
KANK 011215Z AUTO 24003KT 10SM CLR 15/11 A3049 RMK AO1 T01490106
PHJR 011153Z AUTO A3008 RMK AO2 SLP194 57010 PWINO TSNO $
LFBI 011230Z AUTO 30007KT 240V360 CAVOK 30/14 Q1019 NOSIG
KHZE 011215Z AUTO 09004KT 10SM BKN110 15/15 A2998 RMK AO2
PAQH 010856Z AUTO 06006KT 5SM -RA BR BKN019 OVC027 12/11 A2973 RMK AO2 SLP068 P0005 60010 T01170111 401330106 56014
CYVL 011200Z AUTO VRB02KT 9SM BKN060 11/05 A2995 RMK SLP155
LFRG 011230Z AUTO 30008KT 260V350 CAVOK 22/16 Q1020 NOSIG
K3L4 011220Z AUTO 11004KT 6SM BR CLR 27/25 A3010 RMK A01
KCQW 011215Z AUTO 22006KT 10SM CLR 25/21 A3011 RMK AO2 PWINO
KGNC 011215Z AUTO 19010KT 10SM CLR 25/12 A3017 RMK AO2 T02450122
SESG 011000Z 20008KT 9999 FEW035 36/10 Q1008
SEJD 292100Z 09004KT 9999 SCT023 31/21 Q1012 RMK A2989
EDDM 011150Z AUTO 27008KT 200V300 9999 ///////// 27/13 Q1017 RE// NOSIG
BIVO 011000Z 22014KT 9999 SCT030 BKN060 09/04 Q1002
CWUW 011231Z AUTO 13013KT ////SM BKN008 BKN013 07/06 A2962
KVKY 011215Z AUTO 19010KT 10SM CLR 30/24 A3015 RMK A01
KTEB 011151Z 08003KT 10SM OVC039 20/18 A2999 RMK AO2 SLP156 60036 70037 T02000183 10228 20200 55010
MMVR 011144Z 00000KT 6SM SCT070 22/22 A3002 RMK SLP147 5//// 951 8/030 HZY
VECC 011230Z 04003KT 3200 HZ SCT018 BKN100 31/26 Q1000 NOSIG
RJKN 010544Z AUTO 20015KT 9999 FEW005 SCT021 BKN026 28/27 Q1009 RMK A2981
K49A 011215Z AUTO 00000KT 10SM SCT001 SCT050 BKN080 A3023 RMK AO2
KGVL 011153Z AUTO 26003KT 10SM CLR 23/21 A3020 RMK AO2 SLP210 70001 T02330206 10239 20222 51007
KFWN 011153Z AUTO 00000KT 10SM OVC032 A3002 RMK AO2 SLPNO 60008 70023 57010
LIBF 011150Z /////KT 9999 FEW050 ///// Q////
KAVP 011226Z 00000KT 7SM BKN005 OVC031 20/18 A3003 RMK AO2 T02000183
KUNO 011153Z AUTO 00000KT 4SM BR CLR 22/22 A3009 RMK AO2 SLP174 T02220217 10233 20222 51007
KSYM 011215Z AUTO 24007G13KT 1SM +RA OVC005 22/22 A3007 RMK AO2
EGSY 011220Z 25007KT 210V290 9999 FEW030 22/13 Q1019
KAVK 011220Z AUTO 10004KT 10SM CLR 23/22 A2997 RMK AO2
VTCT 011200Z 16006KT 9999 FEW025TCU SCT042 29/25 Q1003 NOSIG
ETAR 011156Z AUTO 27008KT 9999 CLR 26/14 A3004 RMK AO2 SLP166 T02580143 10265 20200 58003
LRBS 011200Z VRB05KT 9999 SCT049 27/14 Q1010 NOSIG
CYQW 011200Z AUTO 09004KT 6SM BR OVC038 13/13 A2994 RMK SLP148 DENSITY ALT 2000FT
CYED 291600Z 02005KT 15SM SCT110 SCT250 23/17 A2995 RMK ACC3CI1 DENSITY ALT 3967FT LAST OBS /NEXT 031300 UTC SLP129
DAUZ 011200Z 36002KT CAVOK 38/01 Q1015
SAZB 011129Z VRB01KT 0350 R17/0500N FG VV002 05/05 Q1018
CXEG 011200Z AUTO 13003KT 13/12 RMK AO1 6008 SLP124 T01280121 50001
DAUU 011200Z 24006KT CAVOK 43/05 Q1010
ETHF 011220Z 35006KT 9999 SCT042 BKN300 25/14 Q1016 BLU+BLU+ TEMPO WHT
CXYH 011200Z AUTO 00000KT 14/14 RMK AO1 1PAST HR 8001 SLP084 P0000 T01440140 50033
NCRK 011100Z AUTO 11006KT //// ////// 27/23 Q1013
KJZI 011215Z AUTO 24008KT 10SM CLR 29/23 A3017 RMK AO2
YARG 011230Z AUTO 22007KT 9999 // NCD 26/M00 Q1013
VIGG 310630Z 08005KT 5000 TSRA FEW010 BKN030 FEW035CB OVC080 21/21 Q1004
YESP 011230Z AUTO 35020KT 9999 // SCT059 14/12 Q0994
KBVX 011156Z AUTO 19003KT 10SM FEW120 24/23 A3007 RMK AO2 SLP179 70047 T02440228 10250 20233 53005
VOBM 011200Z 27005KT 8000 SCT012 SCT018 FEW025CB BKN080 26/22 Q1008
CWEU 011200Z 36008G17KT 250V030 15SM FEW250 10/03 A2991 RMK CI2 SLP138
KSAC 011153Z AUTO 20006KT 10SM CLR 18/14 A2996 RMK AO2 SLP146 T01830144 10211 20183 53002
KINK 011153Z AUTO 14013KT 10SM CLR 25/11 A3007 RMK AO2 SLP127 T02500111 10294 20250 53003
CYFR 292200Z 36010KT 15SM FEW060 BKN230 19/06 A3002 RMK CU1CS6 CU TR LAST STFD OBS/NEXT011400Z SLP172 DENSITY ALT 1000FT
KIND 011154Z 20009KT 1 1/2SM R05L/6000VP6000FT -DZ BR OVC006 23/22 A2996 RMK AO2 RAB11E50DZB50 SLP138 P0000 60000 T02280217 10228 20211 55006
FZQA 011200Z 11006KT CAVOK 28/13 Q1020 NOSIG
CYPL 011200Z AUTO 35005KT 310V030 9SM OVC007 12/11 A2979 RMK SLP098 DENSITY ALT 1400FT
NFNM 010400Z 13012KT 9999 FEW018TCU 28/24 Q1013
KVNC 011215Z AUTO 08005KT 8SM CLR 27/26 A3018 RMK AO2
YDPO 011230Z AUTO 28017KT 9999 // SCT034 SCT039 SCT048 10/06 Q1004
KDIJ 011156Z AUTO 00000KT 10SM CLR 11/03 A3025 RMK AO2 SLP167 T01110028 10172 20106 55002
EKAH 011220Z AUTO 29013KT 9999 NCD 20/09 Q1014
KDNN 082355Z AUTO 01020G26KT 10SM TS SCT065 SCT080 BKN090 32/20 A3002 RMK AO2 LTG DSNT ALQDS
MMTO 011141Z 11004KT 10SM FEW200 09/08 A3046 RMK SLP129 54000 905 8/003
KEVW 011153Z AUTO 19005KT 10SM BKN120 18/06 A3033 RMK AO2 SLP154 T01780061 10200 20156 53001 $
HAAB 011100Z ////// 3000M RA SCT012 OVC022 13/12 Q1026
CYBK 011200Z 32020KT 20SM BKN020 OVC040 10/04 A2952 RMK SC6SC2 WIND ESTD SLP001
LFRQ 011230Z AUTO 35006KT 300V030 9999 BKN021 23/16 Q1021 TEMPO BKN014
KELO 011215Z AUTO 32007KT 300V010 10SM SCT010 BKN018 OVC022 14/14 A2982 RMK AO2
K6P9 011215Z AUTO 20005KT 10SM CLR 25/17 A3008 RMK AO2 T02450168
VVCI 011200Z 14008KT 110V170 9999 SCT021 31/27 Q1003 NOSIG
KW81 011215Z AUTO 25003KT 10SM BKN004 OVC039 23/21 A3004 RMK AO1 T02250210
KMMI 011215Z AUTO 00000KT 9SM BKN060 BKN090 OVC110 23/22 A3017 RMK A01
KCRS 011153Z AUTO 17006KT 10SM CLR 26/21 A3009 RMK AO2 SLP181 T02560206 10306 20256 53008
VEKI 040300Z 07004KT 4000 BR SCT025 31/27 Q0998 NOSIG
YWYY 011230Z AUTO 29012KT 9999 // NCD 10/06 Q1004
PAAQ 011153Z AUTO 04004KT 10SM CLR 11/08 A2990 RMK AO2 SLP128 T01060078 10172 20100 58010 TSNO
KMGJ 011154Z AUTO 00000KT 10SM FEW005 BKN065 OVC120 21/19 A3001 RMK AO2 SLP159 60005 70014 T02060189 10206 20189 56011 $
KRAW 281555Z AUTO 25016G20KT 3/4SM +TSRA BKN007 BKN012 OVC024 24/22 A3004 RMK AO2 VIS M1/4V5 LTG DSNT ALQS P0028 T02350221
KDTO 011153Z 19009KT 10SM CLR 29/19 A3005 RMK AO2 SLP164 T02890189 10328 20289 53010
KJOT 011215Z AUTO 24010G15KT 10SM SCT032 SCT055 23/20 A2985 RMK AO2 T02300198
KCRW 011154Z 00000KT 1SM BR SCT000 BKN035 BKN045 20/20 A3006 RMK AO2 SLP173 FG SCT000 60025 70147 T02000200 10206 20189 53003
DTTA 011200Z 06006KT 350V130 9999 FEW030 35/18 Q1013
KCPS 011153Z 20004KT 10SM BKN065 24/23 A3000 RMK AO2 SLP155 T02440228 10250 20239 53009
SCTB 312200Z 00000KT 5000 HZ NSC 16/06 Q1018
CYHZ 011200Z 23006KT 15SM SCT210 OVC250 20/15 A3004 RMK CI3CI5 SLP174 DENSITY ALT 1100FT
KI23 011215Z AUTO 19005KT 10SM SCT006 BKN060 20/19 A3000 RMK AO1
KOFF 011156Z 00000KT 10SM CLR 22/18 A2998 RMK AO2A SLP147 T02190181 10261 20213 52005 PWINO PNO FZRANO TSNO VISNO RWY12 CHINO RWY12 $
RORY 011200Z AUTO 15012KT 9999 NCD 28/26 Q1010
RJCT 312213Z 04004KT 9999 FEW020 BKN030 BKN180 21/16 Q1017 RMK 1CU020 5CU030 7CI180 A3003
FNUB 010600Z 34006KT 9999 FEW030 12/M06 Q1024
KNOZ 011159Z AUTO 14011KT 10SM CLR 28/24 A2995 RMK AO2 SLP090 T02780239 10294 20272 53004 $
KUNU 011215Z AUTO 24006KT 10SM SCT008 OVC014 21/21 A2978 RMK AO2 T02080208
EIDL 011200Z 17015KT 9999 -RA BKN036 17/11 Q1011
EGGW 011220Z AUTO VRB04KT 9999 BKN032 24/11 Q1019
MHSR 011200Z 00000KT 8000 SCT006 BKN020 BKN250 20/20
UWLL 011200Z 02005MPS 340V070 9999 SCT040 26/13 Q1015 R02/090065 NOSIG RMK QFE749/0999
FAGM 010700Z 06009KT 8000 NSC 12/08 Q1030
PAIW 011156Z AUTO 05015KT 10SM OVC003 08/08 A2987 RMK AO2 SLP117 6//// 7//// T00830078 10089 20083 57005 PNO $
ENBL 010750Z 22006KT 9999 FEW015 SCT035 11/06 Q1014
NCAT 011100Z AUTO 09004KT //// ////// ///// Q////
YCEM 011230Z AUTO 36006KT //// // ////// 11/09 Q1014
KOFK 011156Z AUTO 00000KT 10SM CLR 19/16 A2998 RMK AO2 SLP137 T01890156 10222 20167 55004
K1LM 250058Z AUTO M 10SM RA M 15/ A3017 RMK AO2 RAB03E14RAB18 SLPNO P//// RVRNO TSNO $
UATE 011200Z 23003MPS CAVOK 35/12 Q1006 NOSIG RMK QFE753/1004
CYCO 011200Z 23008KT 15SM VCFG FEW003 FEW100 04/03 A3001 RMK SF1AC1 SF TR AC TR SLP165
LTAR 011150Z 36011G22KT 330V050 CAVOK 27/03 Q1015
LGKF 011150Z 27010KT 9999 FEW016 29/25 Q1008
LHSN 011215Z VRB04KT CAVOK 29/09 Q1013 NOSIG RMK BLU
TJIG 011145Z 11011KT 6SM HZ SCT020 SCT035 BKN070 29/25 A3007
KM08 011215Z AUTO 17005KT 10SM BKN055 BKN070 OVC085 23/23 A3012 RMK A01
KQDG 011225Z AUTO 15006KT 3200 BR OVC002 22/21 A3003 RMK AO2 VIS 2400V3200 DZE00 SLP171
UMOO 011200Z 16007G10MPS 9999 SCT020 BKN/// 26/14 Q1013 NOSIG
KEQY 011153Z AUTO 24008KT 10SM CLR 25/21 A3010 RMK AO2 SLP189 T02500206 10256 20239 52007
CYMX 011200Z 23002KT 30SM SCT095 SCT250 20/17 A2992 RMK AC3CI1 ACC EMBD SLP135 DENSITY ALT 1000FT
OPNH 011200Z 23002KT 6000 FEW035 FEW100 40/26 Q0997
KASJ 011235Z AUTO 23005KT 10SM SCT120 25/25 A3005 RMK AO2 T02460246
KRHI 011208Z AUTO 29008KT 10SM BKN012 BKN016 OVC036 20/17 A2976 RMK AO2 T02000172
KSJC 011222Z AUTO 31003KT 10SM SCT011 17/14 A3002 RMK AO2 T01720144 $
CYXC 011200Z 20003KT 25SM SKC 13/02 A2990 RMK SLP104 DENSITY ALT 3700FT
KMTC 011156Z 20009KT 10SM FEW085 SCT250 22/21 A2986 RMK AO2A SLP113 T02230211 10223 20197 57017
KC65 011215Z AUTO 21007KT 180V240 6SM BR OVC007 23/21 A2986 RMK A01
CYCY 011207Z AUTO 34010KT 9SM BKN006 OVC055 03/03 A2972 RMK SLP069
KD07 011156Z AUTO 16016KT 16/13 A2994 RMK AO1 SLP121 T01610133 10206 20161 58015 $
KLXL 011215Z AUTO 30007KT 10SM 17/15 A2990 RMK AO2
KCNW 011155Z 18005KT 10SM SKC 25/22 A3008
K2G4 011215Z AUTO 25003KT 3SM BKN001 OVC006 15/15 A3011 RMK AO1
KQN3 011156Z AUTO 19007G14KT 000V240 9999 CLR 31/20 A2992 RMK AO2 SLP122 WND DATA ESTMD T03120204 10312 20248
KS59 260300Z AUTO 00000KT 10SM 29/09 A2990
UUOB 011200Z 10003MPS 040V130 CAVOK 27/11 Q1013 R11/010070 NOSIG
SAZN 011200Z 32003KT 9999 FEW045 SCT100 04/03 Q1016
EGDM 011150Z 32003KT 9999 FEW035 SCT110 23/12 Q1019 RMK BLU
KFAR 011153Z AUTO 26003KT 10SM CLR 13/12 A2994 RMK AO2 SLP139 70004 T01280117 10178 20111 53001
KSFQ 011215Z AUTO 23005KT 10SM SCT005 BKN110 25/25 A3004 RMK AO2 T02480245
KMDW 011220Z 22012KT 10SM FEW017 BKN027 BKN040 BKN250 24/20 A2981 RMK AO2 T02440200
KPWD 011215Z AUTO 12009KT 10SM CLR 15/14 A2987 RMK AO2 TSNO
KORS 011215Z AUTO 15008KT 10SM 14/13 A2988 RMK AO2
TNCN 241600Z 08010KT 040V110 9999 SCT018 31/24 Q1017 NOSIG
KMLI 011152Z 24007KT 10SM CLR 22/21 A2987 RMK AO2 SLP109 60087 70087 T02220206 10250 20206 53014
KDVN 011152Z AUTO 26008KT 10SM CLR 21/20 A2989 RMK AO2 SLP112 60004 70004 T02110200 10239 20194 53012
KIPL 011153Z AUTO 12009KT 10SM CLR 28/24 A2990 RMK AO2 SLP125 T02830244 10328 20278 53002 $
KEUF 011158Z AUTO 00000KT 9SM CLR 24/23 A3018 RMK AO2 SLP217 70019 T02440233 10244 20222 53010 $
KPLR 011215Z AUTO 00000KT 7SM OVC100 23/23 A3019 RMK A01
KNBT 011200Z AUTO 10SM CLR 31/23 A3008 RMK AO2 SLP190 7//// T03060233 10306 20289 53006
LIED 011155Z 15013KT 9999 FEW025 35/19 Q1013 RMK FEW VIS MIN 9999 WIND THR35 /////KT WIND THR17 15012KT BLU
LGKC 011150Z 05016KT CAVOK 30/21 Q1011
CWPC 011200Z AUTO 22016KT 22/18 RMK AO1 PK WND 22018/1118 SLP147 T02230184 58008
UWWW 011200Z 33004MPS 280V020 9999 VCTS SCT033CB 28/13 Q1013 R33/CLRD60 NOSIG RMK QFE749/0999
KC75 011215Z AUTO 23006KT 10SM SCT026 SCT031 20/20 A2988 RMK AO2 T02010195 PWINO
K2C8 011235Z AUTO 22004KT 10SM FEW110 14/14 A2992 RMK AO2
KRSL 011153Z AUTO 21006KT 10SM CLR 20/19 A2997 RMK AO2 SLP129 T02000189 10239 20200 58002
KJER 011153Z AUTO 11007KT 10SM CLR 22/07 A3004 RMK AO2 SLP120 T02170067 10267 20206 53004
K3S8 011215Z AUTO 00000KT 10SM OVC055 23/17 A2999 RMK AO2
KENL 011215Z AUTO 21006KT 10SM CLR 24/24 A3002 RMK AO2 LTG DSNT N T02380235
KHBI 011215Z AUTO 21004KT 10SM CLR 24/22 A3012 RMK AO2 T02350220
CXEA 011200Z AUTO 30004KT 12/11 RMK AO1 SLP108 T01220113 52015
KDLF 011156Z AUTO 11011KT 10SM CLR 25/19 A3003 RMK AO2 SLP155 T02490188 10305 20249 50000 $
YBWW 011230Z AUTO 11001KT 9999 // OVC030 11/10 Q1020
KS52 011215Z AUTO 00000KT 10SM CLR 13/07 A2989 RMK AO2 T01270073
URKK 011200Z VRB01MPS 9999 SCT///CB 30/20 Q1005 R23L/CLRD70 NOSIG RMK QFE751
VTUK 011200Z 26003KT 9999 FEW030 SCT100 29/25 Q1005 NOSIG
KNFG 011152Z AUTO 00000KT 10SM FEW120 22/19 A2998 RMK AO2 SLP151 T02170189 10222 20200 56010 $
SAME 011200Z 23002KT CAVOK 06/02 Q1015
KJNX 011215Z AUTO 22005KT 10SM CLR 26/22 A3007 RMK AO2
AYMH 010800Z 27008KT 9999 FU HZ SCT050 26/13 Q1018
EKSB 011220Z 31011KT 270V340 CAVOK 20/11 Q1015
KNUC 011156Z AUTO 30003KT 10SM OVC007 17/16 A3001 RMK AO2 SLP160 T01720161 10183 20172 56009
RCNN 011200Z 00000KT 9999 -RA FEW010 SCT025 BKN050 27/24 Q1007 RMK A2975
KMRT 011219Z AUTO 21008KT 5SM OVC005 20/19 A3000 RMK AO1
HECA 011230Z 32009KT CAVOK 35/15 Q1004 NOSIG
SARE 011200Z 14001KT 5000 BR FU NSC 13/11 Q1015 RMK PP///
KOZS 011215Z AUTO 22005KT 10SM CLR 23/20 A3005 RMK AO2
KMRN 311335Z AUTO 00000KT 10SM OVC003 23/22 A3025 RMK AO2 T02300223
KTTN 011233Z 02004KT 10SM BKN013 OVC022 19/19 A2999 RMK AO2 T01890189
FNUE 311400Z 11005KT CAVOK 28/20 Q1018
SCGE 312200Z VRB01KT 9999 BKN030 SCT200 10/08 Q1019
KLWB 011215Z AUTO 26003KT 10SM SCT009 BKN017 OVC030 21/20 A3013 RMK AO2 T02100200
KSYR 011154Z 00000KT 10SM FEW065 FEW180 FEW250 22/17 A2997 RMK AO2 SLP145 T02220167 10222 20161 58006
KCDA 011215Z AUTO 11004KT 10SM CLR 19/16 A3004 RMK AO2 T01880160
CYIV 011200Z AUTO 34004KT 9SM OVC044 15/12 A2980 RMK SLP097 DENSITY ALT 1100FT
KLOT 011215Z AUTO 24013G18KT SCT027 22/20 A2984 RMK AO2 LTG DSNT SE T02210195 PWINO
NZNP 011200Z 28010KT 20KM BKN230 11/08 Q1027 RMK AUTO VATSIM USE ONLY
LIMY 011155Z 32004KT CAVOK 29/18 Q1016
LCPH 011200Z 29009KT 250V320 9999 FEW030 31/24 Q1003
KHCD 011215Z AUTO 28006KT 10SM SCT017 17/16 A2992 RMK AO2 T01650164
LTAV 301110Z 20007KT 9999 FEW025CB BKN030 17/14 Q1014 RETSRA RMK RWY11 17010KT
CWMJ 011200Z AUTO 18003KT 19/17 RMK AO1 SLP124 T01940168 56011
KTZR 011209Z 18004KT 5SM BR SCT004 OVC010 19/19 A3001
ULPB 011200Z 21005MPS 160V250 9999 FEW046 23/12 Q1015 R19/120055 NOSIG RMK QFE758/1010
KP28 011156Z AUTO 11004KT 22/21 A2997 RMK AO1 SLP130 T02220211 10256 20222 55002 $
LFVP 011230Z AUTO 26013KT CAVOK 21/18 Q1015 NOSIG
CXCS 011200Z AUTO 25002KT 14/14 RMK AO1 8PAST HR M P0007 T01440142 50051
YBLN 011230Z AUTO 30023G35KT 9999 -SHRA SCT044 SCT058 BKN110 13/07 Q0990
KSHR 011153Z AUTO 00000KT 10SM CLR 14/07 A2998 RMK AO2 SLP110 T01390067 10206 20139 55003
KNQI 011156Z 15003KT 10SM FEW025 SCT300 24/23 A3004 RMK AO2 SLP169 CB DSNT E AND SE TCU DSNT NE T02440233 10267 20244 53003 $
KFOD 011156Z AUTO 32003KT 10SM CLR 17/16 A2996 RMK AO2 SLP152 T01720161 10217 20172 51013
K1BW 011158Z AUTO 21014KT 10SM CLR 18/10 A3012 RMK AO2 SLP130 T01830104 10189 20157 56008 $
KTMB 011153Z 13007KT 10SM CLR 28/25 A3015 RMK AO2 SLP208 60000 T02780250 10283 20267 53003
CYWA 291700Z 26010G17KT 15SM BKN046 BKN070 23/12 A2981 RMK SC5AC1 DENSITY ALT 1766FT LAST OBS /NEXT 011200 UTC SLP093
KTEW 011215Z AUTO 13005KT 10SM OVC011 21/19 A2987 RMK AO2 T02070186
CYLK 280000Z 30002KT 25SM BKN140 BKN180 22/09 A2998 RMK AC7AC1 CVCTV CLD EMBD LAST STFD OBS NXT/1400Z SLP158 DENSITY ALT 1500FT
LTAD 092331Z 14006KT 9999 BKN040 17/16 Q1007 RESHRA NOSIG RMK RWY29 14006KT
KFST 011053Z AUTO 16010KT 10SM CLR 25/12 A3009 RMK AO2 SLP134 T02500117 $
KQFX 011230Z AUTO 15003KT 9999 BKN075 BKN120 BKN150 30/24 A2970 RMK A02 TSNO
KISQ 011215Z AUTO 20005KT 10SM SCT005 BKN020 OVC025 19/18 A2968 RMK AO2 T01890177
EFKT 011220Z AUTO VRB02KT 9999 SCT043 19/08 Q1011
KRBD 011153Z 19008KT 10SM CLR 26/19 A3005 RMK AO2 SLP166 T02610194 10311 20261 53009
CYNC 152000Z 23009KT 15SM FEW084 BKN130 OVC200 16/11 A2984 RMK AC2AS3CS3 LAST STFD OBS/NEXT 021300UTC SLP108 DENSITY ALT 300FT
CYXR 011200Z AUTO 18008KT 9SM CLR 18/16 A2975 RMK SLP075 DENSITY ALT 1600FT
WALL 011200Z 04002KT 9000 FEW020 26/26 Q1007 NOSIG
KTFP 011155Z AUTO 18003KT 10SM CLR 27/24 A3004 RMK AO2 T02690239
K1JW 011158Z AUTO 23009KT 10SM CLR 17/11 M RMK AO2 SLPNO 70001 T01690114 10212 20169 $
VEBI 011100Z 10003KT 2000 TS FEW004 SCT018 FEW025CB OVC080 25/23 Q1006
LLBG 011220Z 26009KT 230V300 CAVOK 32/21 Q1003 NOSIG
KSRE 011215Z AUTO 10SM CLR 25/18 A3001 RMK AO2 LTG DSNT E
HTMU 011100Z 33010KT 9999 FEW034 28/17 Q1018
SEGS 312200Z 31006KT 9999 BKN023 BKN090 24/19 Q1012 RMK A2990
KFQD 011215Z AUTO 00000KT 10SM OVC110 23/22 A3014 RMK AO2
KSUT 011215Z AUTO 25011G19KT 10SM CLR 28/24 A3013 RMK AO2 T02830244
YSWH 011230Z AUTO 35006KT 9999 // NCD 06/05 Q1017
ZUUU 011200Z VRB01MPS 9999 -SHRA FEW033TCU SCT033 29/20 Q1004 NOSIG
YLEO 011230Z AUTO 34012KT 9999 // BKN100 OVC125 19/11 Q1003
CWPK 011200Z AUTO 22002KT 19/15 RMK AO1 SLP112 T01860149 58007
SCBA 011200Z 27004KT CAVOK M06/M07 Q1015
MNPC 312300Z 09008KT 6000 VCRA FEW014CB SCT016TCU 29/26 Q1011 CBRA/NW TCURA/E/SE/SW
CYXU 011200Z 21008KT 15SM BKN070 21/20 A2991 RMK ACC5 SLP128 DENSITY ALT 1900FT
KQER 011220Z AUTO 14002KT 4000 BR SCT160 27/25 A2971 RMK A02 TSNO
RPLI 011200Z 13005KT 6000 -TSRA FEW017CB SCT018 OVC090 24/24 Q1009 NOSIG RMK A2980 CB NW,S
KAQX 011215Z AUTO 00000KT 10SM CLR 25/22 A3016 RMK AO2
LFGJ 011230Z AUTO 32007KT 200V360 CAVOK 31/14 Q1017 NOSIG
KFWA 011208Z 21009KT 6SM BR OVC005 22/21 A2993 RMK AO2 T02170206
CWVU 011200Z AUTO 15010KT 17/16 RMK AO1 SLP156 T01680155 58005
SBBG 011200Z 18008KT 0500 FG VV002 09/09 Q1019
KTMK 011215Z AUTO 00000KT 7SM OVC007 15/13 A3001 RMK AO2
K22N 011215Z AUTO 00000KT 2 1/2SM BR OVC010 18/17 A3003 RMK AO2
CXKT 011200Z AUTO 00000KT 19/16 RMK AO1 SLP164 T01900155 50002
K4M9 011215Z AUTO 20006KT 3SM BR OVC004 24/24 A3007 RMK AO2 PWINO
YGDI 011230Z AUTO 00000KT //// // ////// 11/10 Q1020
VVCT 011200Z 25003KT 9999 FEW015 SCT050 26/25 Q1006 NOSIG
KCTY 011215Z AUTO 09003KT 10SM CLR 25/24 A3019 RMK AO2 T02490235
RJSH 011047Z 12001KT 9999 FEW004 SCT010 BKN170 23/22 Q1012 RMK 1ST004 4ST010 7AC170 A2990
MHCH 011200Z 02004KT 9999 FEW028 23/20
LSMA 011220Z AUTO 07010KT 9999NDV NCD 28/15 Q1017 RMK
HESH 011200Z 05008KT CAVOK 39/13 Q1001
DGLE 290800Z 23010KT 9999 FEW012 25/22 Q1014 NOSIG
LKKV 011230Z 30006KT 250V350 9999 SCT036 22/13 Q1017
EPZG 011230Z 28010KT 240V320 9999 FEW037TCU 25/15 Q1013
USHH 011200Z 04004MPS CAVOK 21/08 Q1017 R06/010060 NOSIG
KSEQ 011156Z AUTO 16003KT 8SM FEW018 23/22 A3006 RMK AO2 SLP174 T02300220 10258 20228 53005 $
K12N 011154Z AUTO 05004KT 20/18 A3002 RMK AO1 SLP159 60006 70032 T02000178 10206 20194
KJDD 011215Z AUTO 00000KT CLR 26/22 A3010 RMK AO2 PWINO
OIZH 011200Z 36008KT 9999 FEW040 37/10 Q1007 A2976 NOSIG
SBAU 010900Z 12010KT CAVOK 18/08 Q1016
YGFN 011230Z AUTO 00000KT 9999 // NCD 11/10 Q1019
KSWF 011145Z 00000KT 10SM SCT010 BKN070 21/19 A3001
KPTD 011215Z AUTO 19004KT 10SM CLR 22/17 A2994 RMK AO2
KEMP 011153Z AUTO 07004KT 4SM BR CLR 22/21 A2999 RMK AO2 SLP141 T02170206 10256 20217 53004
KEDW 011158Z AUTO 35007KT 10SM CLR 25/18 A3004 RMK AO2 SLP144 T02480175 10280 20248 57006
ETIH 011156Z AUTO 29007KT 9999 FEW060 BKN075 25/12 A3005 RMK AO2 SLP160 T02470123 10257 20206 58001
KCDI 011215Z AUTO 19004KT 7SM OVC003 19/19 A3004 RMK AO2 T01900187
EHKD 011225Z AUTO 07006KT 030V110 9999 OVC340 19/11 Q1019 BLU NOSIG
UACC 011200Z 33004MPS 290V020 9999 SCT043CB 27/12 Q1006 NOSIG RMK QFE724/0965
CYRJ 011200Z 21011KT 40SM FEW060 FEW100 21/17 A2983 RMK SC1AC1 SC TR SLP104 DENSITY ALT 1600FT
UOOO 011200Z 03010MPS 9999 FEW023 10/05 Q1017 R01/CLRD60 NOSIG RMK QFE748/0997
SBFS 011200Z 01004KT CAVOK 21/19 Q1020
KSNT 011151Z AUTO 00000KT 08/05 A3029 RMK AO1 SLP151 T00830050 10150 20072 55000
OENG 011200Z 06010KT 4000 DU FEW028CB SCT030 SCT090 36/15 Q1007 NOSIG
EHAK 011225Z AUTO 21004KT //// // NCD 15/09 Q1019 RE//
CWJI 011200Z AUTO 10005KT 14/13 RMK AO1 SLP109 T01440130 55001
SAWH 011200Z 07006KT CAVOK 04/03 Q1004 RMK PP000
KMCO 011153Z 12003KT 10SM FEW017 FEW250 27/25 A3019 RMK AO2 SLP221 70003 T02670250 10267 20250 53004
KGDP 011151Z AUTO 25011KT 9SM CLR 24/07 A3025 RMK AO2 SLP143 T02390072 10267 20233 55002 $
KIZA 011215Z AUTO 00000KT 10SM CLR 18/15 A3000 RMK AO2
LEBR 011200Z AUTO 26005KT 200V360 9999 NCD 31/16 Q1018
ENSF 011220Z AUTO 22018KT 9999NDV FEW018/// 15/09 Q1014 W///S4
K1ON 290956Z AUTO 00000KT 10SM CLR 11/10 A3007 RMK AO2 SLP189 T01070099 $
RPMR 010900Z 13006KT 090V160 9999 VCSH SCT018CB BKN080 30/22 Q1008 RMK A2977 CB/VCSH NW
KCFO 312047Z 32008KT 10SM SKC 32/03 A3025
KMBS 011153Z 19007KT 10SM CLR 21/17 A2983 RMK AO2 SLP096 T02110167 10211 20189 56015
YDGU 011230Z AUTO 34010KT 9999 // BKN061 OVC070 21/04 Q1007
SASA 011200Z VRB02KT 4000 FU NSC 08/04 Q1018 RMK PP000
CWRT 011200Z AUTO 00000KT 08/07 RMK AO1 SLP135 T00780072 55002
VRMG 300000Z 26015KT 9000 SCT015 FEW016CB OVC090 27/24 Q1010 CB N,NW TEMPO 26020G35KT 2000 TSRA
LTBA 011220Z 04010KT 020V080 CAVOK 30/14 Q1009 NOSIG RMK RWY23 05009KT 010V100
KRVJ 011215Z AUTO 21004KT 10SM CLR 26/23 A3019 RMK AO2 T02560226
LIBG 011150Z 35014KT 310V020 9999 FEW035 33/11 Q1011
KGRY 011210Z AUTO 19005KT 10SM SCT021 SCT027 28/24 A3013 RMK A01
SLMG 011200Z 00000KT 9999 NSC 22/20 Q1012
KMIE 011153Z 21007KT 9SM SCT008 OVC015 23/21 A2996 RMK AO2 SLP133 T02330206 10233 20217 56010
LIPA 011155Z 18006KT 9999 FEW070 31/20 Q1014 RMK FEW VIS MIN 9999 WIND THR05 /////KT WIND THR23 /////KT A2995 BLU
LFRS 011230Z AUTO VRB05KT 9999 FEW037 27/17 Q1020 NOSIG
LSMP 011220Z AUTO VRB02KT 9999NDV NCD 31/10 Q1017 RMK
LGHI 011150Z 01010KT CAVOK 31/17 Q1006
ESNL 011220Z AUTO 12006KT 9999 -RA FEW040/// 15/13 Q1009
SAWC 282337Z 16002KT 8000 VCSH SCT005 BKN050 04/04 Q1000
KEKS 011210Z AUTO 03004KT 10SM CLR 16/04 A3021 RMK AO2
KTRM 011152Z AUTO 00000KT 10SM CLR 27/19 A2990 RMK AO2 SLP128 T02670194 10339 20267 51001
LTCU 011150Z 24011KT 210V270 CAVOK 37/02 Q1008
KLTS 011225Z AUTO 19009KT 10SM FEW095 OVC140 26/17 A3002 RMK AO2 RAE08DZB08E25 SLP146 $
FVCZ 270600Z 00000KT CAVOK 14/11 Q1026
CXCA 011200Z AUTO 35008KT 15/15 RMK AO1 3017 SLP034 T01540146 50022
K6S0 011215Z AUTO 24012KT 10SM CLR 21/02 A3006 RMK A01
CWRY 011200Z AUTO 33011KT 15/14 RMK AO1 PK WND 33018/1103 SLP116 T01520144 51013
KMJD 011215Z AUTO 00000KT 7SM CLR 24/24 A3013 RMK AO2
KLGC 011215Z AUTO 00000KT 10SM CLR 23/21 A3020 RMK AO2 T02300209
VOBZ 011230Z 08006KT 6000 FEW020 SCT025 34/27 Q1000 NOSIG
DTTN 011200Z 05004KT 9999 FEW020 37/05 Q1013
SVJM 011203Z AUTO 03002KT NCD 22/21 Q1014
CWVI 011200Z AUTO 15003KT 13/12 RMK AO1 T01260122
YPPF 011230Z AUTO 36007KT 9999 // OVC063 11/07 Q1016
EFHK 011220Z 13012KT 100V160 9999 FEW037 22/13 Q1012 NOSIG
RJCH 011100Z 11016KT 8000 -SHRA FEW003 BKN005 BKN010 21/20 Q1011
SLAS 152300Z 36005KT 9999 FEW017 BKN200 25/23 Q1009
MMPA 011204Z RTD 03005KT 5SM FEW250 23/23 A3003 RMK SLP128 5//// 973 8/008 HZY ISOL AC RTS
YWLU 011230Z AUTO 33015KT 9999 // OVC069 21/06 Q1006
VLVT 011200Z 20004KT 6000 TS SCT016 FEW030CB 28/25 Q1003 CB OVER AD NOSIG
SPNC 141600Z 08004KT 9999 FEW040 25/11 Q1022 RMK PP000
KRVS 011153Z 00000KT 10SM CLR 25/23 A3001 RMK AO2 LTG DSNT NW SLP162 70035 T02500233 10261 20244 53010
LEGT 011200Z VRB06KT CAVOK 36/12 Q1018
PPIZ 011156Z AUTO 06015KT 10SM CLR 03/02 A2995 RMK AO2 SLP144 6//// 7//// T00330022 10094 20033 58009 PNO $
CWPO 011200Z AUTO 24007KT 15/15 RMK AO1 8PAST HR 3003 SLP145 P0003 T01480148 50008
LRCK 011200Z 30007KT 260V330 9999 FEW030 FEW035CB 27/18 Q1008 NOSIG
RKSF 010116Z 09002KT 9999 BKN015 BKN050 28/25 A2974 RMK CIG015
PACZ 011218Z AUTO 00000KT 10SM FEW004 OVC017 09/09 A2973 RMK AO2 SLP068 TSNO $
SAMR 271552Z 32005KT 9999 OVC010 07/06 Q1022
YLST 011230Z AUTO 34012KT 9999 // OVC110 18/10 Q1004
KHZY 011153Z AUTO 18007KT 10SM CLR 19/17 A2998 RMK AO2 SLP147 T01940167 10194 20172 58008
ENAN 011220Z 03011KT CAVOK 14/12 Q1009
KGOV 011158Z AUTO 20004KT 10SM FEW034 BKN047 20/17 A2978 RMK AO2 LTG DSNT NW SLPNO T01960166 10197 20183 56011 $
KMDQ 011215Z AUTO 19004KT 5SM RA BR SCT032 BKN050 OVC065 23/22 A3017 RMK A02 P0004 T02320225
KFVE 011153Z AUTO 20005KT 10SM CLR 19/15 A2993 RMK AO2 SLP129 T01940150 10194 20167 58001
ENNE 011220Z VRB01KT 9999 FEW025 BKN050 12/06 Q1011 W///S4
KHBV 011215Z AUTO 00000KT 10SM CLR 22/21 A3007 RMK AO2 T02200210
SBPL 011200Z /////KT 9999 FEW030 26/16 Q1019
KIYA 011215Z AUTO 00000KT 7SM CLR 24/23 A3012 RMK AO2 T02420226
URKA 011200Z 21006MPS 9999 BKN021CB 29/23 Q1006 R22/010070 NOSIG RMK QFE749/0999
K1MW 011158Z AUTO 26005KT 10SM M 16/12 A3007 RMK AO2 SLP135 T01630119 10204 20163 56008 $
KONL 011215Z AUTO 00000KT 10SM CLR 17/15 A3001 RMK AO2 LTG DSNT W T01670151
KISW 011230Z AUTO 30007KT 10SM BKN029 BKN035 22/19 A2979 RMK AO2 T02170189
UTSS 011200Z 33004KT 9999 FEW067CB 32/11 Q1006 R27/70D NOSIG
KJKJ 011215Z AUTO 00000KT 7SM CLR 14/13 A2995 RMK AO2 TSNO
FIMP 011200Z 07011KT 2000NW -SHRA FEW003 BKN014 BKN045 21/20 Q1021
CYOC 301700Z 03008KT 35SM FEW020 BKN170 BKN210 10/04 A3004 RMK SF1AC5CI1 SF TR LAST STFD OBS NEXT 08081800 SLP186
KVQQ 011150Z 20005KT 10SM CLR 25/25 A3019
KSTL 011151Z 24006KT 10SM SCT055 SCT120 26/22 A3000 RMK AO2 SLP145 T02610222 10261 20250 53009 $
KJPX 011215Z AUTO 07005KT 7SM RA SCT037 BKN048 OVC075 A3001 RMK AO2 P0006
KHRI 011153Z AUTO 18003KT 10SM CLR 19/14 A2982 RMK AO2 SLP089 T01940144 10311 20189 53005
RJCO 011100Z 13014KT 5000 -SHRA BR FEW006 SCT030 BKN060 19/19 Q1011
K35A 011235Z AUTO 25005KT 10SM CLR 26/22 A3017 RMK A02 T02560223
PAEG 011153Z AUTO 00000KT 10SM OVC070 11/09 A2989 RMK AO2 SLP122 60001 70001 T01110094 10161 20111 58003 TSNO
PAKV 011153Z AUTO 00000KT 4SM HZ SCT075 OVC120 A2983 RMK AO2 SLPNO 56014 TSNO $
KLDM 011215Z AUTO 22013G20KT 10SM SCT011 OVC019 23/21 A2973 RMK AO2 T02260208
OODQ 011150Z AUTO 21025KT 9999 SCT024 SCT033 31/21 Q1000 NOSIG RMK RH57? MAX32 0
EFVA 011220Z AUTO 22011KT 9999 NSC 22/10 Q1011
SAWE 011200Z 32008KT CAVOK 02/00 Q1008 RMK PP000
DNYO 171400Z 33005KT 9999 BKN010 25/25 Q1015
KNFW 011152Z 18011G19KT 10SM SCT150 BKN250 28/19 A3005 RMK AO2 SLP159 T02830194 53008 $
KCGS 011218Z AUTO 35005KT 10SM SCT012 SCT018 A3000 RMK AO1
RJSF 011142Z 10008KT 9999 FEW015 SCT140 BKN150 26/21 Q1015 RMK 1CU015 4AC140 5AC150 A2998
KXNA 011153Z 18004KT 10SM CLR 23/22 A3007 RMK AO2 SLP165 70007 T02330217 10233 20228 53006
LTAU 011220Z 05006KT 360V090 9999 FEW040 33/06 Q1009 NOSIG RMK RWY07 03007KT 340V090
KJVY 011215Z AUTO 25006KT 10SM SCT015 SCT025 BKN034 24/23 A3003 RMK AO2
FQIN 011200Z 17012KT 9999 BKN020 23/18 Q1026
DTTD 011200Z 04004KT CAVOK 36/11 Q1014
KUNI 011215Z AUTO 00000KT 10SM OVC006 A3004 RMK AO2
EFSI 011220Z AUTO 23010KT 180V270 CAVOK 23/09 Q1012
EGXP 011150Z 18005KT CAVOK 22/09 Q1018 BLU
MTCH 312149Z 05010G20KT 7000 SCT020CB 30/25 Q1016 RMK/CB/SE/SW
KBOW 011215Z AUTO 09003KT 10SM CLR 25/24 A3019 RMK AO2
SBBH 011200Z 11014KT 9999 FEW025 20/13 Q1022
ENFB 011220Z AUTO 22018KT 9999NDV FEW015/// BKN067/// 13/08 Q1014 W///S4
SPZA 301100Z 00000KT 4500 BR NSC 11/09 Q1016 RMK PP000
UIII 011200Z 08002MPS 060V130 CAVOK 26/18 Q1002 R30/60D NOSIG RMK QFE707/0943
CWDA 011100Z AUTO 30003KT 18/ RMK AO1 T0180
FALE 011200Z 03003KT 330V090 9999 SCT049 18/10 Q1030 NOSIG
EBCV 011155Z AUTO 33004KT 9999 BKN034/// BKN071/// 23/14 Q1019 BLU
KGGG 011153Z 14003KT 10SM CLR 25/22 A3009 RMK AO2 SLP178 T02500222 10283 20250 53011
ROMY 011100Z 16005KT 9999 -RA FEW013 BKN140 BKN/// 26/25 Q1007
KF45 011145Z AUTO 00000KT 27/27 A3019 RMK AO2
LOWG 011220Z 32005KT 250V010 9999 FEW060 FEW060CB 29/13 Q1015 NOSIG
VTSP 011200Z 30003KT 270V340 9999 -RA FEW015 BKN100 25/25 Q1006 NOSIG
KRCM 011215Z AUTO 15003KT 10SM CLR 23/21 A3000 RMK AO2
KCHD 010347Z 26009KT 8SM CLR 33/18 A2998 RMK LAST
LPCS 011200Z 21006KT 180V240 9999 FEW025 28/17 Q1015
YMNG 011230Z AUTO 36006KT 9999 // SCT038 BKN056 BKN065 10/06 Q1016
CWII 011200Z AUTO 19005KT 18/14 RMK AO1 SLP113 T01810136 56002
KTYS 011153Z 21008KT 10SM -RA FEW005 BKN048 BKN055 OVC150 23/22 A3013 RMK AO2 RAB53 SLP194 VCSH SE-S P0000 60004 70072 T02280217 10228 20228 51004 $
FQNC 011200Z 18013KT 9999 BKN020 BKN100 25/19 Q1019
EHQE 011225Z AUTO /////KT 9999 NSC 17/11 Q1020
K1BM 011158Z AUTO 22011KT 10SM CLR 19/02 A2997 RMK AO2 SLP101 T01910024 10220 20175 52008 $
KINL 011154Z AUTO 31008KT 10SM FEW016 BKN025 14/12 A2987 RMK AO2 SLP115 60001 70006 T01390122 10167 20139 51021
K1JM 011158Z AUTO 27009KT 10SM CLR 15/M01 A2994 RMK AO2 SLP104 T01531013 10200 20124 53003 $
LRSM 011200Z 30011KT 260V330 9999 FEW027 24/16 Q1013
MMSL 011217Z RTD 30010KT 9SM BKN120 28/20 A2997 RMK 8/070 RTS
SBTF 011200Z 00000KT CAVOK 24/24 Q1012
CZEM 311900Z 04003KT 010V100 15SM FEW020 BKN050 OVC120 15/12 A2992 RMK SC1SC5AS2 LAST STFD OBS/NEXT 011300 UTC SLP135
KCIU 011224Z AUTO 19008KT 10SM -RA BKN019 OVC080 20/18 A2970 RMK AO2 RAB17 P0000
YABA 011230Z AUTO 32014KT 9999 // NCD 12/08 Q0988
LFMV 011230Z AUTO 31015KT 280V340 CAVOK 36/12 Q1013 NOSIG
YIBO 011230Z AUTO 31009KT 9999 // NCD 23/16 Q1012
KIFA 011215Z AUTO 29009KT 10SM CLR 19/18 A2995 RMK AO2 T01860180
DAAS 011200Z 31007KT 9999 FEW030 33/09 Q1019
GCFV 011230Z 05014KT CAVOK 26/21 Q1013
CYVM 011200Z 04005KT 10SM -SHRA SCT007 BKN075 OVC095 04/03 A2968 RMK ST4AC3AC1 SLP053
KJXI 011235Z AUTO 00000KT 10SM CLR 25/21 A3010 RMK AO2 T02530211
KLAA 011153Z AUTO 00000KT 9SM CLR 17/16 A3008 RMK AO2 SLPNO T01670156 10211 20161 55001 $
K05U 270025Z AUTO 36009KT 10SM CLR 33/M03 A3012 RMK A01
VOAT 010800Z 31016KT 5000 DZ SCT012 FEW025CB OVC080 27/24 Q1008 TEMPO 4000 RA
OPSK 011200Z 00000KT 4000 HZ NSC 38/27 Q0995 NOSIG
ENGM 011220Z 35010KT 320V030 9999 FEW026 SCT092 18/09 Q1010 NOSIG
KSAD 011151Z AUTO 32007KT 10SM CLR 24/21 A3008 RMK AO2 SLP128 60002 70002 T02440206 10278 20233 58007
CXMM 011200Z AUTO 10005KT 13/07 RMK AO1 SLP128 T01300073 58007
CYQD 011200Z AUTO VRB02KT 9SM CLR 13/11 A2991 RMK SLP136 DENSITY ALT 900FT
EGTC 011220Z 24006KT 210V290 9999 BKN037 21/12 Q1019
KMML 011156Z AUTO 27005KT 10SM CLR 16/14 A2996 RMK AO2 SLP142 70004 T01560144 10200 20150 53006
KASL 011215Z AUTO 00000KT 10SM CLR 24/22 A3012 RMK AO1 T02400220
KHBG 011153Z AUTO 00000KT 10SM FEW024 23/23 A3016 RMK AO2 SLP208 70016 T02330228 10244 20228 53010
MGZA 011200Z 00000KT 9999 SCT016 OVC200 24/23 QFE 990/4 FEW090
SBKG 011200Z 14015KT 9999 SCT020 24/18 Q1018
SBCZ 011200Z 21002KT 5000 BR NSC 23/23 Q1013
YCMM 011230Z AUTO 05006KT //// // ////// 06/05 Q1014
KW75 011235Z AUTO 00000KT 10SM OVC014 25/23 A3001 RMK AO1 T02450226
VERB 270600Z 09005KT 4000 HZ SCT020 BKN080 31/26 Q1006
KHSG 011210Z AUTO 25011KT 10SM CLR 22/01 A3008 RMK AO2 T02170011
KPRS 011215Z AUTO 02005KT 10SM CLR 26/13 A3011 RMK AO2 T02550126
KDLN 011153Z AUTO 21012KT 9SM CLR 17/04 A3014 RMK AO2 SLP151 T01670044 10200 20139 53001
VRMM 011200Z 27019KT 9999 SCT017 FEW018CB OVC240 29/26 Q1007 CB WNW TEMPO 29022G35KT 5000 SHRA
KAWO 011156Z AUTO 33004KT 10SM CLR 14/13 A2992 RMK AO2 SLP135 T01440128 10194 20144 51007
FOOL 011200Z 24006KT 200V270 9999 SCT013 28/21 Q1014 NOSIG
KLVJ 011153Z AUTO 00000KT 10SM CLR 25/23 A3008 RMK AO2 SLP185 T02500228 10278 20250 53005
KPWG 011156Z AUTO 17006KT 10SM CLR 26/22 A3008 RMK AO2 SLP176 T02560217 10300 20256 53006
LEVX 011200Z VRB02KT CAVOK 35/17 Q1016 NOSIG
NZCM 011155Z AUTO 11014G25KT 9999 OVC110 M16/M30 A2936 RMK AO2 SLP949 T11621298 11127 21162 410891162 53003 $
VECO 011200Z 00000KT 2500 HZ BKN020 BKN100 30/28 Q1000
KFSI 011156Z AUTO 20010KT 10SM BKN120 29/14 A3000 RMK AO2 SLP143 T02920142 10315 20292 53012 $
SPQT 011200Z 00000KT 9999 FEW005 BKN100 24/24 Q1012 NOSIG RMK TN22.9 PP000
LFKB 011230Z AUTO 12007KT 080V150 CAVOK 32/20 Q1014 NOSIG
KAFK 011215Z AUTO 05003KT 10SM CLR 23/22 A2998 RMK AO2 T02300217
KHLX 241735Z AUTO 36003KT 10SM SCT037 SCT044 29/19 A3023 RMK AO2 T02850187
KERV 011215Z AUTO 14003KT 10SM SCT015 SCT021 22/20 A3012 RMK AO2 T02200197
KGSB 011156Z 19007KT 10SM SCT200 26/21 A3005 RMK AO2A SLP179 70092 T02630208 10263 20238 53005 $
DAAG 011200Z 04009KT 360V070 9999 FEW026 32/20 Q1016
KMNH 011213Z AUTO 21008KT 10SM CLR 16/05 A3032 RMK AO2
PAHL 011230Z AUTO 04003KT 3/4SM BR CLR 09/09 A2984 RMK AO2
SBGM 011200Z 00000KT CAVOK 24/20 Q1014
PAMD 011151Z AUTO 22006KT 9SM OVC004 12/12 A3001 RMK AO2 SLP151 6//// 7//// T01170117 10133 20117 58002 PNO $
KFSW 011215Z AUTO 21003KT 10SM OVC001 24/24 A2991 RMK AO2 P0003
K1IN 290956Z AUTO 19003KT 10SM M 11/10 A3007 RMK AO2 SLP187 T01130095 $
URWI 011200Z 14004MPS 090V180 CAVOK 34/10 Q1009 R09/010065 NOSIG
LGSR 011150Z 33017KT CAVOK 30/20 Q1007
KCJR 011215Z AUTO 00000KT 10SM OVC006 22/21 A3004 RMK AO2 T02180210
ENSK 011220Z 08011KT CAVOK 18/13 Q1007
KCCU 011215Z AUTO 27004KT 10SM OVC100 12/05 A3075 RMK AO2
YCCA 011230Z AUTO 10001KT 0300 // OVC001 10/10 Q1020
LFBH 011230Z AUTO 30013KT CAVOK 24/18 Q1020 NOSIG
CXMG 011200Z AUTO 34006KT 13/12 RMK AO1 T01280123
LFTH 011230Z AUTO 12011KT CAVOK 30/22 Q1014 NOSIG
KSBP 011156Z AUTO 09004KT 10SM CLR 19/14 A2999 RMK AO2 SLP154 T01890144 10206 20178 55001
FZNA 011100Z 18008KT 6000 SCT018 FEW020CB BKN100 22/14 Q1022 NOSIG
CWJD 141100Z AUTO 18005KT 21/17 RMK AO1 SLP082 T02070168 56014
KBKX 011212Z AUTO 00000KT 8SM CLR 15/14 A2998 RMK AO2
DABB 011200Z 01015KT 9999 FEW026 31/21 Q1013
KCHA 011209Z 11003KT 3SM RA BR FEW005 SCT036 OVC060 23/22 A3016 RMK AO2 P0017 T02330222 $
MMRX 011140Z 08004KT 6SM FEW250 24/22 A3003 RMK SLP216 5//// 953 8/001 HZY DSNT TCU E RTS
KNEW 011153Z 00000KT 10SM FEW030 27/24 A3013 RMK AO2 SLP196 70091 T02720244 10272 20261 53008
KCZL 011215Z AUTO 21003KT 10SM BKN085 OVC095 22/22 A3019 RMK AO2
LEST 011200Z VRB05KT CAVOK 28/18 Q1018 NOSIG
ENRS 011220Z AUTO 33019KT 6000 -SHRA BKN007 OVC009 11/11 Q1009
KFFO 011156Z 18004KT 10SM OVC008 22/20 A2996 RMK AO2A SLP143 T02200196 10209 20187 55009
UGAM 011200Z AUTO 10006KT 070V130 //// ////// 35/16 Q1006
CWCT 011200Z AUTO 14005KT 15/15 RMK AO1 SOG 01 8019 SLP134 T01470146 50035
K1GM 011158Z AUTO 20007KT 10SM CLR 19/01 A2997 RMK AO2 SLP094 T01940014 10237 20179 53002 $
KANQ 011235Z AUTO 20006G12KT 3SM BR OVC004 21/21 A2989 RMK AO2
CYUA 011200Z AUTO 22003KT ////SM OVC003 03/03 A2999
KUCP 011225Z AUTO VRB03KT 10SM BKN005 18/18 A3002 RMK AO2
USCM 011200Z 02004MPS 9999 BKN040CB 24/13 Q1011 R36/090060 TEMPO VRB13MPS 2000 TSRA SQ VV007 RMK QFE720
KALB 011151Z 17007KT 10SM FEW060 FEW110 23/18 A3000 RMK AO2 SLP157 T02280183 10228 20206 56002
URWA 011200Z 07003MPS 340V150 9999 SCT040 36/11 Q1008 R09/010070 NOSIG RMK QFE758/1011
SVMI 011203Z AUTO 06004KT NCD ///// Q1014
KMWK 011215Z AUTO 00000KT 10SM -RA SCT055 BKN095 23/22 A3012 RMK AO2 T02300219
KMCC 011215Z AUTO 18009KT 10SM CLR 19/14 A2997 RMK AO2
KCUL 011217Z AUTO 21006KT 10SM OVC009 25/23 A3004 RMK AO2
KLMT 011153Z AUTO 08005KT 10SM CLR 19/12 A3010 RMK AO2 SLP135 T01940122 10272 20172 57001 $
CYRV 011200Z AUTO 00000KT 9SM CLR 16/12 A2983 RMK SLP099 DENSITY ALT 2100FT
CXHD 011200Z AUTO 15006KT 12/12 RMK AO1 T01240123
KBMG 011214Z 23010G18KT 4SM BR OVC005 24/22 A3000 RMK AO2 T02390222
MMAN 011140Z 00000KT 12SM SKC 23/18 A3009 RMK SLP/// 5//// 9// RTS
EBFS 011155Z 25003KT 9999 FEW009 SCT015 BKN035 20/17 Q1019 WHT WHT TEMPO GRN
LTFG 011150Z 22008KT 190V250 9999 FEW030 31/26 Q1003
RKPC 011200Z 22008KT 190V250 9999 BKN040 BKN130 29/24 Q1007 NOSIG
CWAR 011200Z AUTO 18011KT 18/16 RMK AO1 SLP150 T01800156 51013
UUDL 011200Z 04002MPS 350V080 9999 BKN040 24/09 Q1019 R23/010060 NOSIG RMK QFE756
YPLC 011230Z AUTO 30006KT 9999 // NCD 05/04 Q1014
CYPW 010200Z 28004KT 20SM FEW250 28/16 A2987 RMK CI2 LAST STFD OBS NEXT OBS 011300 UTC SLP116 DENSITY ALT 2100FT
CYRB 011200Z 05023KT 30SM OVC055 08/03 A2980 RMK SC8 SLP099
EGWC 011150Z 18003KT 9999 SCT048 SCT250 21/10 Q1019 RMK BLU
OINZ 011200Z 34008KT CAVOK 33/23 Q1006
KBIL 011153Z 23012KT 10SM FEW150 SCT230 22/04 A2995 RMK AO2 SLP099 T02220039 10283 20206 53004
YPMQ 011230Z AUTO 00000KT 2900 // NCD 08/08 Q1018
NZPP 011200Z 36016KT 9999 NCD 11/06 Q1022 NOSIG RMK KAUKAU 36030KT AUTO NZWN VAT
EDLN 011220Z 30008KT 260V330 9999 SCT043 24/13 Q1017
MDLR 011200Z 06010KT 9999 FEW018 27/25 Q1017 NOSIG
K3F3 011215Z 14005KT 10SM CLR A3014 RMK AO2
KHVS 011215Z AUTO 00000KT 10SM CLR 24/21 A3013 RMK AO2
UIBB 011200Z VRB01MPS 9000 NSC 22/18 Q1002 R30/CLRD60 NOSIG RMK QFE709/0946
KDMO 011153Z AUTO 22011KT 10SM CLR 24/22 A3000 RMK AO2 SLP150 T02390217 10256 20239 53006
KTYQ 011215Z AUTO 20009KT 3SM VCTS BR OVC006 22/22 A2996 RMK AO2 LTG DSNT NW T02240216
KPVF 011215Z AUTO 00000KT 10SM 22/13 A3008 RMK AO1
KSJX 011215Z AUTO 22009KT 10SM SCT007 SCT019 BKN028 19/19 A2970 RMK AO2 T01880186
KHYW 011215Z AUTO 25005KT 10SM CLR 26/23 A3014 RMK AO2
CYSP 011200Z CCA 00000KT 3/4SM BR VV001 11/11 A2961 RMK FG8 /R06 AFT 18UTC/ SLP032 DENSITY ALT 1200FT
UNWW 011200Z VRB01MPS 9999 BKN040CB 22/18 Q1003 R19/290155 NOSIG RMK QFE726
KLNN 011215Z AUTO 21004KT 10SM CLR 21/17 A2995 RMK AO1 T02110165
MUCC 011150Z 08010KT 9000 SCT018CB 28/26 Q1019
K9L2 011158Z AUTO 32006KT 10SM SCT220 24/17 A3006 RMK AO2 SLP151 T02420174 10267 20242 56005 $
KE11 011215Z AUTO 20010G15KT 10SM CLR 24/13 A3013 RMK AO2 T02440126
KBIS 011152Z 05005KT 10SM CLR 14/13 A2994 RMK AO2 SLP132 T01390128 10172 20133 56008
KCFJ 011215Z AUTO 26028G39KT 5SM /VCTSRA BKN007 OVC012 21/15 A3001 RMK AO2 LTG DSNT ALQS T02130149
SBPJ 011200Z 00000KT CAVOK 27/16 Q1015
LLIB 011150Z AUTO 06006KT 9999 FEW035 34/20 Q1003
KWMC 011156Z AUTO 18012KT 10SM CLR 23/09 A3008 RMK AO2 SLP119 T02280089 10289 20228 52003
UWKS 011200Z 36002MPS 340V050 9999 SCT040 24/13 Q1017 R06/010060 NOSIG RMK QFE747
YCDU 011230Z AUTO 04008KT 9999 // NCD 08/04 Q1013
KHNB 011156Z AUTO 22008KT 7SM OVC007 24/23 A3004 RMK AO2 CIG 006V011 SLP168 T02390233 10239 20228
KC83 011215Z AUTO 26016G22KT 10SM CLR 21/12 A2996 RMK AO2
KAZO 011153Z 18011KT 10SM OVC008 22/19 A2985 RMK AO2 SLP100 T02220194 10222 20200 56020
KHSI 310353Z AUTO 16007KT 10SM CLR 22/14 A3008 RMK AO2 SLP171 T02170144
KLEE 011207Z 15008KT 10SM FEW009 27/26 A3019 RMK AO2 T02720261
KMDS 011215Z AUTO 00000KT 10SM CLR 15/15 A2997 RMK AO2
OETB 011200Z 32004KT CAVOK 39/04 Q1005 NOSIG
YCFS 011230Z AUTO 32002KT 9999 // NCD 12/11 Q1018
GMAG 011200Z 25005KT 210V280 6000 NSC 31/18 Q1012 NOSIG
KCLS 010435Z AUTO 23005KT 10SM CLR 24/17 A2989 RMK AO2
FWKI 011200Z 11014KT 9999 BKN035 24/09 Q1023 NOSIG
SKRG 011200Z 13003KT 9999 4000S BCFG BKN008 OVC080 13/13 Q1026 REDZ BECMG FM1300 NSW RMK A3030
YSBK 011230Z AUTO 24003KT 9999 // NCD 09/02 Q1018
SKMD 011200Z 00000KT 9999 FEW020 BKN100 18/16 Q1021 REDZ RMK A3017
HTTB 011100Z 14015KT 9999 BKN023 27/13 Q1020 NOSIG
LTFH 011150Z 34009KT 310V020 9999 SCT033 28/22 Q1008 NOSIG
KROC 011154Z 22008KT 10SM FEW075 20/17 A2997 RMK AO2 SLP147 T02000167 10200 20172 58005
CXFM 011200Z AUTO 28007KT 13/13 RMK AO1 4PAST HR M P0002 T01250131 50004
KINS 011158Z AUTO 00000KT 10SM BKN150 OVC180 23/21 A3011 RMK AO2 SLP152 T02310213 10238 20225 55002
PATO 011153Z AUTO 12007KT 090V150 10SM OVC033 14/11 A2995 RMK AO2 SLP141 T01390111 10144 20083 56008 TSNO $
EGPL 011220Z 18013KT 9999 FEW020 SCT030 BKN049 16/09 Q1012
KBAC 011215Z AUTO 00000KT 9SM CLR 13/13 A2996 RMK AO2
RJOR 011200Z 17010KT 9999 FEW040 BKN/// 31/23 Q1012
CWWA 011200Z AUTO 00000KT 19/15 RMK AO1 SLP120 T01890149 52004
KPQN 011215Z AUTO 00000KT 10SM CLR 16/14 A2997 RMK AO2
KCDR 011153Z AUTO 00000KT 10SM CLR 16/13 A2998 RMK AO2 SLP121 70007 T01610133 10239 20150 56009
LMML 011215Z VRB04KT 9999 FEW028 31/22 Q1013 NOSIG
KBAZ 011151Z 17004KT 10SM CLR 23/21 A3007 RMK AO2 SLP172 T02280211 10278 20228 53001
KAQW 011152Z AUTO 10005KT 10SM BKN055 21/17 A3002 RMK AO2 SLP164 60000 T02110172 10211 20172 56006
VEBS 011230Z 26003KT 3000 -TSRA SCT016 FEW030CB BKN100 28/27 Q1001 NOSIG
SKLT 011200Z VRB02KT 9999 SCT012 BKN080 24/23 Q1012 RMK A2991
OISF 011200Z 17004KT 9999 SCT040 SCT100 31/18 Q1010 A2984
CWEL 010900Z AUTO 28017KT 22/18 RMK AO1 PK WND 28022/0839 SLP114 T02200179 53006
YMIA 011230Z AUTO 01007KT 9999 // NCD 08/04 Q1018
KPSC 011153Z AUTO 36005KT 10SM CLR 19/16 A2979 RMK AO2 SLP084 T01890161 10250 20183 51008
OTHH 011200Z 06013KT CAVOK 36/26 Q0998 NOSIG
K4F2 011215Z AUTO 00000KT 10SM CLR 23/22 A3010 RMK AO2 T02300225
K1AW 011158Z AUTO 25007KT 10SM CLR 16/10 A3014 RMK AO2 SLP142 T01640103 10184 20163 55006 $
KORL 011153Z 14003KT 10SM CLR 28/24 A3019 RMK AO2 SLP225 T02780244 10278 20261 53004
SCHR 292000Z 27008KT CAVOK 09/00 Q1009
FWCL 011200Z 11014KT 9999 BKN035 24/09 Q1023 NOSIG
KHOB 011150Z 15011KT 10SM SKC 24/10 A3013
KOAK 011153Z 26003KT 10SM FEW005 BKN007 16/13 A3002 RMK AO2 SLP164 T01560133 10161 20156 51005
OEWJ 011200Z 26013KT CAVOK 33/26 Q1001 NOSIG
RKTS 010906Z 28001KT 9999 SCT030 BKN050 28/25 A2974 RMK CIG050
CWWS 011200Z AUTO 35015KT 16/16 RMK AO1 3006 PK WND 35021/1101 SLP101 T01640164 50003
K4S1 011215Z AUTO 19004KT 2 1/2SM BR OVC003 14/13 A3001 RMK AO2
EBLG 011220Z 33007KT 290V360 9999 FEW030 22/15 Q1019 NOSIG
KATW 011145Z 25009KT 10SM SCT009 BKN017 21/19 A2972
KAXH 011215Z AUTO 00000KT 10SM CLR 24/23 A3008 RMK AO2 T02410233
UWKE 011200Z 06004MPS 9999 TS BKN033CB 21/16 Q1014 R03/090070 NOSIG RMK QFE744/0992
PATK 011153Z AUTO 00000KT 10SM BKN045 OVC060 12/11 A2990 RMK AO2 SLP128 70001 T01220106 10178 20106 58010 TSNO
KIKV 011215Z AUTO 31007KT 10SM CLR 21/18 A2996 RMK AO2
CYDC 010100Z 23012G20KT 220V290 25SM SKC 35/M04 A2988 RMK LAST STFD OBS/NEXT 01 1300Z SLP102 DENSITY ALT 5100FT
KCUT 011153Z AUTO A3013 RMK AO2 SLPNO 56012 PWINO
CYUS 011203Z AUTO 02020KT ////SM //// BKN005 BKN015 OVC100 06/06 A2935
CWQK 011200Z AUTO 25020KT 12/ RMK AO1 PK WND 27028/1106 SLP121 T0122 53007
SBRP 011200Z 13006KT 100V160 CAVOK 18/10 Q1019
CWTG 011200Z AUTO 04005KT 18/16 RMK AO1 SLP113 T01810164 53004
GOTK 011200Z 26004KT 9999 BKN015 29/23 Q1014
KGCN 011154Z AUTO 00000KT 10SM CLR 13/12 A3037 RMK AO2 SLP197 70004 T01280122 10161 20122 53002 TSNO
CXAK 011200Z AUTO 07004KT 15/14 RMK AO1 T01460135 50044
RJBT 010900Z 17006KT 150V210 9999 FEW030 BKN/// 31/24 Q1011
CZTB 011200Z AUTO 30009KT 17/16 RMK AO1 SLP052 T01730159 53017
EGSH 011220Z 20006KT 120V280 9999 FEW033 SCT047 23/13 Q1019 NOSIG
LOAN 011200Z 34015KT 9999 FEW035 FEW050TCU SCT050
RJNW 011000Z 12002KT 9999 FEW040 BKN/// 28/25 Q1014
CZSJ 011215Z AUTO 29004KT 9SM -RA OVC071 12/12 A2980 RMK SLP100 DENSITY ALT 1000FT
LFBP 011230Z AUTO VRB03KT CAVOK 27/19 Q1019 NOSIG
K2R9 011215Z AUTO 00000KT 10SM CLR 24/22 A3008 RMK AO2 T02410222
KIAH 011153Z 17003KT 10SM FEW020 FEW150 SCT250 25/23 A3007 RMK AO2 SLP181 T02500233 10283 20244 53003
KFTN 011215Z AUTO 07004KT 10SM CLR 24/21 A3007 RMK A01
KMOD 011153Z AUTO 31005KT 10SM CLR 21/13 A2995 RMK AO2 SLP142 T02060133 10244 20206 50004 $
KMBO 032015Z AUTO 00000KT 10SM CLR 28/27 A3004 RMK AO2
KMMK 011228Z AUTO 00000KT 10SM FEW006 SCT046 OVC065 22/19 A3002 RMK AO2 T02170189
GOGS 011200Z 22008KT 9999 SCT015 30/25 Q1014
KFSO 011215Z AUTO 19006KT 10SM CLR 23/19 A2995 RMK AO2 T02280186
ETSN 011220Z 29008KT 9999 FEW055 BKN070 26/13 Q1017 BLU BLU+ TEMPO BLU
CYGK 011200Z 19009KT 15SM FEW030 23/20 A2994 RMK CU1 SLP139 DENSITY ALT 1300FT
KGBD 011156Z AUTO 34003KT 5SM BR CLR 19/19 A3000 RMK AO2 SLP140 T01940189 10233 20194 55001
LTCN 011150Z 20006KT 160V230 CAVOK 40/05 Q1002 NOSIG
HKEL 011200Z 27006KT 9999 FEW021CB BKN023 19/12 Q1024
ETAD 011156Z AUTO 29007KT 9999 SCT033 BKN047 24/15 A3006 RMK AO2 SLP156 T02350145 10238 20175 58002
FAGG 011200Z 13008KT 100V160 CAVOK 15/03 Q1027
KE38 011215Z AUTO 21006KT 10SM CLR 20/09 A3026 RMK AO2 T01990092
KGED 011219Z AUTO VRB04KT 10SM BKN012 BKN030 OVC080 26/23 A2997 RMK AO2 T02610228
KCVO 011156Z AUTO 31011KT 10SM CLR 16/13 A2997 RMK AO2 SLP148 T01560128 10183 20156 50005
LESB 011200Z AUTO 19009KT 160V220 CAVOK 34/17 Q1016
CYDF 011200Z 22009G15KT 15SM FEW030 FEW210 22/17 A2990 RMK CU1CI1 SLP128 DENSITY ALT 1000FT
KBWG 011153Z AUTO 20007KT 10SM FEW039 24/22 A3008 RMK AO2 SLP181 60000 70010 T02440222 10250 20239 50001
PATQ 011056Z AUTO 06011KT 10SM OVC005 02/01 A3004 RMK AO2 SLP176 T00170011 FZRANO TSNO
CWQH 011200Z AUTO 24001KT 19/16 RMK AO1 SLP142 T01920164 58005
LFKC 011230Z AUTO 36011KT 330V040 CAVOK 31/22 Q1014 TEMPO FEW050TCU
KDMW 011215Z AUTO 31003KT 10SM SCT006 21/21 A3002 RMK AO2
KPGD 011153Z 05004KT 10SM CLR 26/24 A3018 RMK AO2 SLP219 T02560244 10267 20239 51005
CWHO 011200Z AUTO 15/08 RMK AO1 SLP100 T01450080 51014
HKLO 011100Z 07012KT 9/9 SCT028 SCT090 31/18
ETHA 011220Z 29011KT 9999 FEW060 25/11 Q1019 BLU+BLU+
KALN 011150Z 20007KT 10SM SCT050 SCT060 24/23 A2999
ZUGY 011200Z 21004MPS CAVOK 26/17 Q1010 NOSIG
KQFU 011230Z AUTO 13003KT 9999 BKN065 29/24 A2975 RMK A02 TSNO
KCCY 011215Z AUTO 27007KT 10SM CLR 19/18 A2991 RMK AO2
NZAA 011200Z 02003KT 9999 NCD 07/06 Q1028 NOSIG RMK AUTO VATSIM USE ONLY
UTSB 011200Z 32008KT CAVOK 34/09 Q1005 R01/CLRD70 NOSIG
KOCF 011151Z 17003KT 10SM CLR 26/24 A3019 RMK AO2 SLP223 6//// 7//// T02610244 10267 20244 53005 PNO $
LEVS 011200Z VRB05KT 9999 FEW060 34/12 Q1018
KSRB 011215Z AUTO 20005KT 8SM BKN007 OVC010 23/23 A3014 RMK A01
SUSO 011200Z 13004KT CAVOK 08/07 Q1017
MUCU 011150Z 34005KT 9000 FEW020 27/24 Q1018
NCRG 011230Z AUTO 09009KT 9999 FEW018/// SCT035/// BKN047/// 23/21 Q1020
LTCF 011150Z 11009KT 040V160 9999 SCT040 29/09 Q1014
EGUW 011150Z 16006KT 9999 SCT030 23/13 Q1019 NOSIG RMK BLU BLU
KFNL 011156Z 00000KT CLR 18/13 A3015 RMK AO2 SLP145 T01780133 10217 20156 55002 PWINO $
SBHT 011200Z 33007KT 9999 BKN015 BKN080 ///// Q1014
GOTT 011200Z 26006KT 9999 FEW011 BKN013 30/23 Q1014
KEFT 011215Z AUTO 27009KT 10SM CLR 22/19 A2982 RMK AO2 T02150191
CYTS 011200Z 20008KT 15SM SCT060 BKN130 18/15 A2967 RMK SC3AC4 SLP051 DENSITY ALT 1800FT
KGUY 011153Z AUTO 06003KT 10SM CLR 20/19 A3003 RMK AO2 SLP117 T02000189 10256 20200 55002
KLYO 011215Z AUTO 00000KT 3SM BR CLR 21/20 A2999 RMK AO2 T02090204
KRWF 011153Z AUTO 30007KT 10SM CLR 17/16 A2992 RMK AO2 SLP126 T01720156 10206 20167 53001
KGNT 011235Z AUTO 30003KT 10SM 17/14 A3038 RMK AO2 T01710141
BIHN 011200Z 14009KT 9999 FEW035 BKN060 10/06 Q1003
YWWL 011230Z AUTO 00000KT //// // ////// 03/00 Q1020
SCVD 011200Z AUTO 00000KT 0400 R35/0550N FG VV002 03/03 Q1020
SBLB 011200Z AUTO 07011KT 9999 FEW070 22/18 Q1020 W/////
SBME 011200Z 07008KT CAVOK 24/18 Q1020
KLZZ 011215Z AUTO 00000KT 10SM CLR 24/19 RMK AO2 T02360190
TNCE 011155Z AUTO 06016KT 040V100 //// // ///////// 30/25 Q1017 RE//
FQMA 011200Z 18009KT 9999 BKN020 21/14 Q1028 NOSIG
KPNE 011154Z 01006KT 8SM OVC005 20/19 A3001 RMK AO2 SLP160 60000 70018 T02000189 10211 20200 53004 PNO $
CWLS 011200Z AUTO 20005KT 19/17 RMK AO1 SLP126 T01920172 56011
KDKX 011215Z AUTO VRB04KT 10SM 23/22 A3014 RMK A01
KGHG 011215Z AUTO 23005G11KT 10SM FEW070 22/20 A3002 RMK AO2
SBCJ 011200Z 01003KT 9999 SCT006 SCT019 24/21 Q1018
LIPU 311350Z VRB05G15KT CAVOK 34/11 Q1013
EDDS 011220Z AUTO 04003KT 020V090 9999 VCSH FEW///TCU 25/15 Q1017 TEMPO SHRA
CYGX 011200Z 01008KT 15SM FEW029 BKN090 12/09 A2982 RMK SC2AC3 SLP105
LFGA 011230Z AUTO 03005KT 360V090 CAVOK 29/14 Q1016
KSAN 011151Z 01003KT 10SM FEW009 BKN120 22/19 A2999 RMK AO2 SLP154 T02170189 10222 20211 56009
KGRF 011158Z 27004KT 10SM SCT160 SCT190 BKN210 16/13 A2992 RMK AO2A RAB10E19DZB19E21 SLP133 P0000 60000 T01620131 10246 20162 52011 $
BKPR 011230Z 31004KT 240V360 9999 FEW040 28/06 Q1014 NOSIG
RKJK 011222Z 18012KT 10SM BKN023 BKN038 OVC090 27/26 A2966 RMK AO2A RAE10DZB10E11RAB11E12 CIG 023V038 CIG 022 RWY36 SLP048
CYBV 011200Z 12003KT 15SM BKN040 15/13 A2981 RMK SC6 SLP099 DENSITY ALT 1100FT
KILE 011156Z AUTO 19005KT 10SM CLR 24/21 A3009 RMK AO2 SLP175 T02440206 10289 20244 53007
VIAX 311430Z 13003KT 6000 SCT020 BKN090 27/22 Q1000 NOSIG
VOAR 010900Z 05005KT 6000 SCT018 35/22 Q1001 NOSIG
WMKJ 011200Z 07003KT 030V100 9999 FEW020 28/25 Q1006
LSZB 011220Z 29005KT 230V350 CAVOK 29/10 Q1018
KUYF 011215Z AUTO 3SM BR OVC003 20/19 A3000 RMK AO2
SBBQ 011200Z 03006KT 5000 BR BKN010 17/14 Q1025
K2J5 011215Z AUTO 21004KT 10SM CLR 25/22 A3018 RMK AO2 T02520219
YLTN 011230Z AUTO 35016KT //// // ////// 18/09 Q1005
K0VG 011215Z AUTO 22008KT 9SM FEW007 SCT014 BKN027 22/22 A3015 RMK AO2
YPWR 011230Z AUTO 01009KT 9999 // NCD 10/M01 Q1016
MYSM 311813Z AUTO 08015G26KT 9999 BKN021 BKN026 31/25 A3016
FBMN 011200Z 03013KT CAVOK 29/M00 Q1018
YPPD 011230Z AUTO 01005KT 9999 // NCD 22/19 Q1012
ESST 040750Z 14003KT 110V170 9999 -RA FEW009 SCT021 BKN042 15/15 Q1010
YNTN 011230Z AUTO 26003KT 9999 // SCT094 23/16 Q1013
PAFS 011201Z AUTO 00000KT 10SM OVC055 13/12 A2979 RMK AO2 SLP091 70001 T01330122 10161 20133 58015
LRTR 011200Z 02007KT 340V050 CAVOK 27/11 Q1013
KMGR 011215Z AUTO 00000KT 5SM BR CLR 23/22 A3021 RMK AO2
TNCC 011200Z 09014KT 9999 SCT018 28/24 Q1014 NOSIG
KLWM 011154Z 21007KT 10SM FEW080 BKN120 23/18 A3003 RMK AO2 RAB39E51 SLP166 P0000 60000 T02280183 10228 20217 58002
KABI 011152Z 18010KT 10SM CLR 27/16 A3008 RMK AO2 SLP153 T02670156 10317 20267 53009 $
KGPZ 011156Z AUTO 33017G21KT 10SM OVC020 15/12 A2989 RMK AO2 RAE39 SLP121 P0000 60000 T01500122 10178 20144 51013
K40B 011216Z AUTO VRB03KT 21/16 A2995 RMK AO1 SLP139 T02070158 10209 20157 57005
VTSS 011200Z VRB02KT 9999 FEW020 BKN100 27/22 Q1006 NOSIG
TNCB 011155Z 08016KT 050V110 9999 FEW017 SCT023 28/25 Q1013
KHYA 011156Z 27005KT 10SM CLR 23/20 A3002 RMK AO2 RAE04 SLP167 P0000 60003 70003 T02330200 10250 20222 57004
DAAJ 011200Z 18006KT 100V230 CAVOK 36/M00 Q1016
PASH 011156Z AUTO 04010KT 10SM OVC055 09/09 A2988 RMK AO2 SLP117 6//// 7//// T00890089 10089 20078 56005 PNO $
EHGR 011225Z AUTO 01008KT 310V060 9999 FEW027 BKN032 BKN038 22/15 Q1019 BLU NOSIG
ROAH 011200Z 16008KT 9999 FEW008 27/26 Q1009 RMK 1ST008 A2980
OITZ 011200Z 21016KT 9999 BKN035CB SCT070 31/04 Q1012 A2989
SGSJ 010900Z 00000KT CAVOK 14/11 Q1018
CTRA 011200Z AUTO 33003KT 12/11 RMK AO1 SLP113 T01210112 51019
LGAL 011220Z 21006KT 9999 FEW025 30/16 Q1009
KCDH 011215Z AUTO 16004KT 10SM FEW120 25/25 A3010 RMK AO2
KD55 011215Z AUTO 25005KT 9SM SCT055 BKN070 14/14 A2995 RMK AO2
KEDU 011215Z AUTO 10SM CLR 17/14 A2997 RMK AO1
SBRF 011200Z 16015KT 9999 SCT025 27/20 Q1016
EPSY 011230Z 30006KT CAVOK 23/11 Q1012
RKNW 010143Z 07003KT 8000 BR FEW015 BKN040 BKN070 29/27 A2977 RMK CIG040
CYDQ 011200Z AUTO 00000KT 9SM CLR 13/12 A2977 RMK SLP084 DENSITY ALT 2600FT
PADM 011156Z AUTO 34004KT 10SM -RA OVC070 11/10 A2977 RMK AO2 SLP088 P0008 60011 70011 T01060100 10133 20106 58014
KHTS 011151Z 19003KT 10SM BKN004 BKN010 OVC065 21/20 A3004 RMK AO2 SLP167 60004 70225 T02110200 10217 20200 53001 $
EBCI 011220Z VRB03KT 9999 SCT032 23/13 Q1019 NOSIG
CWEH 011200Z AUTO 04014G20KT 15/12 RMK AO1 PK WND 03020/1158 SLP092 T01510120 51003
DNMM 010800Z 24011KT 7000 -TSRA BKN009 FEW020CB 25/23 Q1015 TEMPO 5000 -TSRA
LFJL 011230Z AUTO 31009KT 280V350 CAVOK 24/15 Q1019 NOSIG
CYEK 011200Z 29011G18KT 15SM OVC034 09/06 A2968 RMK SC8 SLP054
KEXX 011215Z AUTO 22003KT 10SM CLR 24/24 A3009 RMK AO2 T02350235
RJNK 011200Z 13002KT 9999 FEW030 SCT/// 31/25 Q1012
LWSK 011200Z 00000KT CAVOK 30/08 Q1013 NOSIG
KLKR 011215Z AUTO 22007KT 10SM SCT100 26/22 A3013 RMK AO2
KSCH 011146Z 00000KT 15SM CLR 21/19 A3001 RMK FIRST
KNLC 011156Z AUTO 30009KT 9SM CLR 25/14 A2996 RMK AO2 SLP142 T02500139 10300 20250 50004
ENDR 011220Z AUTO 28012KT 9999NDV FEW022/// 13/08 Q1013 W///S4
YPCC 011230Z AUTO 12005KT 9999 // NCD 28/24 Q1009
CWSR 011200Z AUTO 15002KT 09/08 RMK AO1 SLP143 T00940082 58001
CWJR 011200Z AUTO 07005KT 19/03 RMK AO1 SLP101 T01900028 52009
LIVO 011155Z 00000KT 9999 BKN030 28/12 Q1017 RMK BKN VIS MIN 9999
FMMT 011200Z 16009KT 9999 FEW017 26/20 Q1019 NOSIG
CWYY 011200Z AUTO 10001KT 18/11 RMK AO1 SLP089 T01820106 53003
NZCH 011200Z 10006KT 020V130 9999 NCD 06/03 Q1015 NOSIG RMK SUGARLOAF 32026KT AU
LELL 011200Z 19008G19KT 130V270 CAVOK 35/15 Q1016
PALP 011145Z 06007KT 10SM BKN021 03/01 A3005
KOGB 011153Z AUTO 21004KT 10SM CLR 24/22 A3016 RMK AO2 SLP209 T02390217 10244 20222 52010
CWJB 011200Z AUTO 35009KT 21/ RMK AO1 T0207
KSUS 011154Z 25008KT 10SM SCT060 24/22 A2999 RMK AO2 SLP145 T02440222 10250 20239 53009
KGYL 011215Z AUTO 27003KT 5SM BR OVC019 17/16 A2990 RMK AO2 T01700160
KMHL 011235Z AUTO 23003KT 10SM CLR 23/22 A3000 RMK AO2
YSCR 011230Z AUTO 34018KT 9999 // SCT011 BKN018 BKN029 14/13 Q0997
K1S5 011235Z AUTO 00000KT 10SM CLR 18/16 A2982 RMK AO2 T01770156
EHHW 011225Z AUTO 34005KT 9999 FEW033/// 16/08 Q1019
KBVY 011153Z 26005KT 10SM FEW060 BKN120 23/19 A3001 RMK AO2 SLP156 60002 70002 T02330194 10233 20206 58002
CMFM 011200Z AUTO 00000KT 16/14 RMK AO1 SLP139 T01630141 58008
CWQO 011200Z AUTO 24015KT 11/10 RMK AO1 PK WND 24017/1117 T01120104
AZUH 010951Z 03016KT 9999 SCT035TCU 34/14 Q1008
KISM 011156Z 13004KT 10SM FEW008 27/25 A3020 RMK AO2 SLP225 6//// 7//// T02670250 10267 20250 52003 PNO $
SPAY 291325Z 03002KT 8000 BCFG SCT012 24/22 Q1016
CWDQ 011200Z AUTO 19004KT 19/17 RMK AO1 SLP122 T01850166 57006
SBCY 011200Z 27005KT CAVOK 22/13 Q1016
KAND 011156Z AUTO 22005KT 10SM SCT065 24/22 A3015 RMK AO2 SLP197 T02440222 10256 20222 51008
LJMB 011230Z 18001KT 9999 -RA VCSH FEW043 FEW057TCU SCT070 30/13 Q1015
NZWK 011200Z 18002KT 2700 BCFG NCD 04/03 Q1028 RMK AUTO VATSIM USE ONLY
CXRB 011200Z AUTO 06023KT 09/03 RMK AO1 PK WND 05029/1130 SLP091 T00860032 52005
CYMH 011200Z AUTO VRB02KT 9SM CLR 16/14 A2984 RMK SLP107 DENSITY ALT 300FT
ZBYN 011200Z 09005MPS CAVOK 29/20 Q1008 NOSIG
K1M5 200100Z AUTO 00000KT 10SM CLR 28/24 A2987 RMK A01
KI69 011215Z AUTO 23007KT 7SM OVC005 22/21 A3003 RMK AO2 T02200211
SGSP 010000Z 00000KT CAVOK 20/15 Q1013
KSUN 011215Z AUTO 32010G15KT 10SM CLR 16/05 A3019 RMK AO2
KSEA 011153Z 18006KT 10SM FEW120 OVC160 19/14 A2993 RMK AO2 SLP137 T01890139 10267 20189 53008
KVES 011210Z AUTO 24006KT 3SM BR OVC003 21/21 A2998 RMK AO2
VOBG 011230Z 20008KT 6000 SCT012 SCT018 FEW025CB 25/23 Q1007 NOSIG
KCHS 011156Z 22006KT 10SM FEW250 27/23 A3016 RMK AO2 SLP212 T02670233 10267 20256 53012
KHQM 011153Z AUTO 24007KT 5SM BR OVC006 16/14 A2999 RMK AO2 CIG 003V009 SLP158 T01560144 10156 20144 53003
KMVL 011154Z AUTO 00000KT 10SM SCT002 18/16 A3000 RMK AO2 SLP157 T01780161 10178 20139 58005
AGGL 162300Z 09010KT 9999 -SHRA SCT017 27/24 Q1013
K1V6 011215Z AUTO 29011KT 7SM CLR 20/09 A3021 RMK AO2
KLZU 011156Z 23003KT 10SM CLR 23/22 A3018 RMK AO2 SLP220 70001 T02330222 10233 20217 51006
YHOO 011230Z AUTO 07006KT //// // ////// 22/M07 Q1014
KGSO 011154Z 25007KT 10SM BKN110 BKN250 23/22 A3008 RMK AO2 SLP175 70004 T02330222 10233 20228 51007
K2D5 011215Z AUTO 00000KT 3/4SM BR VV005 13/13 A2995 RMK AO2
EHBK 011225Z AUTO 30006KT 230V020 9999 NSC 24/14 Q1018 NOSIG
ROYN 011200Z AUTO 16004KT 120V210 9999 FEW018 SCT023 BKN033 29/26 Q1008
KS21 011215Z AUTO 18005KT 10SM FEW036 FEW041 SCT120 18/12 A3014 RMK AO2
SCFA 011200Z 30001KT 9999 BKN027 13/08 Q1017 NOSIG
CYQX 011200Z CCA 25011G16KT 20SM FEW020 FEW200 SCT250 21/15 A2990 RMK SC1CC1CI4 SC TR CC TR CONTRAILS SLP129 DENSITY ALT 1300FT
K4V1 011210Z AUTO 27005KT 10SM CLR 17/11 A3027 RMK AO2 T01720110
KSDF 011202Z 22006KT 10SM FEW011 SCT025 OVC035 24/23 A3003 RMK AO2 T02440228
YOOD 011230Z AUTO 04007KT //// // ////// 15/M02 Q1017
YTNG 011230Z AUTO 00000KT 9999 // OVC056 13/12 Q1020
LFML 011230Z AUTO 27006KT CAVOK 35/12 Q1013 NOSIG
KFRH 011235Z AUTO 23006KT 10SM OVC009 A3004 RMK AO1
CMGB 011200Z AUTO 21002KT 22/17 RMK AO1 SLP142 T02180173 58004
KGEY 011153Z AUTO 24003KT 10SM CLR 17/05 A3002 RMK AO2 SLP118 T01670050 10239 20167 53003 $
RJOF 011133Z 11013KT 9999 FEW007 SCT010 BKN014 27/25 Q1012 RMK 1ST007 3CU010 7CU014 A2989
KSRR 011215Z AUTO 23003KT 10SM 17/08 A3037 RMK AO2 TSNO
KFVX 011235Z AUTO 20003KT 10SM SCT004 SCT028 BKN075 23/23 A3003 RMK AO2 T02310231
PHLI 011153Z AUTO 06017KT 10SM FEW026 SCT035 BKN060 26/21 A3012 RMK AO2 SLP197 T02560211 10267 20256 58007 TSNO
KBCR 011158Z AUTO 00000KT 8SM CLR 23/22 A3018 RMK AO2 SLP178 6//// 7//// T02330222 10239 20222 53013 PNO $
KNKT 011156Z 23010KT 10SM CLR 26/23 A3010 RMK AO2 SLP189 70054 T02610233 10261 20244 53006
KDQH 011215Z AUTO 00000KT 10SM CLR 25/22 A3021 RMK AO2 T02490222
RKTE 010036Z 15004KT 9999 FEW020 BKN040 BKN080 27/25 A2972 RMK CIG040
ESNZ 011220Z 31013KT 9999 BKN050 11/09 Q1010
MNJU 312300Z 09006KT 9999 SCT020CB 30/24 Q1010 CB/N/NE/E/S
KFXE 011153Z 12006KT 10SM SCT023 SCT049 29/26 A3016 RMK AO2 SLP214 60015 70015 T02890261 10294 20261 53002
YPKT 011230Z AUTO 00000KT //// // ////// 23/21 Q1012
CORR 310836Z 25007KT 5000 HZ SCT025 FEW030CB BKN100 34/28 Q1000 NOSIG
CWSL 011200Z AUTO 20002KT 17/13 RMK AO1 SLP094 T01680127 53009
KCVG 011208Z 22006KT 5SM BR FEW008 OVC018 23/23 A3001 RMK AO2 T02280228
KOQT 011153Z AUTO VRB03KT 10SM BKN007 BKN012 OVC028 23/22 A3015 RMK AO2 SLP193 70047 T02330217 10233 20228 50004
PARY 011156Z AUTO 07004KT 10SM CLR 12/11 A2983 RMK AO2 SLP109 70003 T01170106 10161 20117 58006
HKME 011100Z 15004KT 9999 SCT015 OVC080 16/14 RERA
ENHF 011220Z 06007KT CAVOK 17/11 Q1011 RMK WIND 1254FT VRB01KT
LIRX 011155Z 27003KT CAVOK 33/11 Q1016 RMK SKC VIS MIN 9999 VIS MAR 30 KM
KMLU 011153Z 16003KT 10SM CLR 24/23 A3012 RMK AO2 SLP198 T02390228 10261 20233 53010
PAHX 011102Z AUTO 11005KT 10SM OVC033 13/12 A2977 RMK AO2 SLP082 T01330117 PNO $
KJKA 011135Z AUTO 00000KT 10SM FEW025 28/24 A3014 RMK AO2 LTG DSNT NW
WMKE 011200Z AUTO VRB02KT //// // ////// 27/23 Q1007
SCPQ 011200Z AUTO 18003KT 9999 SCT043 01/00 Q1019
CWZG 011200Z AUTO 03003KT 14/12 RMK AO1 SLP121 T01350115 51001
KFLL 011153Z 13010KT 10SM SCT025 SCT085 SCT250 29/24 A3015 RMK AO2 SLP208 60000 T02940244 10294 20272 53002
PHNY 011156Z AUTO 06012KT 10SM BKN017 BKN022 BKN032 22/19 A3009 RMK AO2 SLP168 60000 T02170189 10222 20211 58006 $
KF44 011215Z AUTO 00000KT 10SM CLR 25/21 A3008 RMK AO2
KCCB 011210Z AUTO 00000KT 10SM CLR 22/14 A3002 RMK AO2
HKMO 011200Z 15013KT 9999 BKN025 26/20 Q1015 NOSIG
DAUL 011200Z 00000KT 7000 FEW033 41/// Q1016
ETOU 011156Z AUTO 23003KT 9999 FEW050 OVC095 26/14 A3002 RMK AO2 SLPNO T02600141 10268 20223 58009
OEBH 011200Z 30006KT 9999 FEW030 36/17 Q1006 NOSIG
YYNG 011230Z AUTO 00000KT 9999 // NCD 00/00 Q1020
LJLJ 011230Z 20008KT 130V230 9999 VCSH FEW070TCU SCT078 31/14 Q1015 NOSIG
KQEP 011230Z AUTO 13008G13KT 9999 BKN070 30/23 A2973 RMK A02 TSNO
KOWB 011156Z 21007KT 8SM BKN008 OVC026 24/23 A3005 RMK AO2 SLP173 T02390228 10239 20233 53002
SCFT 011200Z AUTO 29003KT 270V360 9999 OVC053/// M01/M01 Q1019
KBAM 011215Z AUTO 28004KT 10SM CLR 22/09 A3013 RMK AO1
CYZH 011200Z AUTO 10008KT 1/8SM FG BKN014 16/15 A2983 RMK SLP105 DENSITY ALT 2600FT
BIKF 011230Z 36019KT 9999 FEW025 SCT064 11/05 Q1008
KSAV 011153Z 25006KT 10SM FEW070 FEW250 25/22 A3018 RMK AO2 SLP219 T02500217 10261 20239 53012
YHID 011230Z AUTO 14009KT 9999 // BKN012 OVC017 25/23 Q1011
LGAV 011220Z 07019KT 9999 FEW025 31/16 Q1009 NOSIG
KHDL 011215Z AUTO 00000KT 9SM 25/24 A3018 RMK AO2 TSNO
MMVA 010906Z RTD 07009KT 5SM SCT012 BKN060 24/24 A2998 RMK SLP151 5//// 9// 8/460 RTS
OTBH 011156Z 07008KT 9000 HZ CLR 39/26 A2948 RMK AO2A SLP983 T03870260 10400 20338 57014 FZRANO $
DNJO 010800Z 26011KT 9999 BKN004 19/18 Q1019
KMKS 011215Z AUTO 23006KT 10SM CLR 26/22 A3016 RMK AO2
KFBR 011215Z AUTO 26007KT 10SM SCT120 19/04 A3034 RMK AO2 T01900036
HKEM 011200Z 00000KT 9999 BKN016 BKN080 18/14
K1H2 011215Z AUTO 24009KT 10SM OVC006 24/23 A3004 RMK AO2 LTG DSNT NW THRU NE T02370226
EGCK 011220Z 20011KT 9999 BKN020 BKN036 19/14 Q1018
EGTK 011220Z 10004KT 010V140 9999 SCT048 23/11 Q1018
KBAB 011158Z 20004KT 8SM SCT160 20/14 A2995 RMK AO2A SLP144 T02010144 10240 20201 53008 $
MZBZ 011200Z 08006KT 9999 FEW020 28/26 A2998 Q1015 NOSIG
HTKA 011100Z 28009KT 9999 FEW022 FEW023CB SCT090 28/20 Q1016 NO SIG
FDSK 011200Z 19007KT 9999 FEW025 BKN030 17/10 Q1031 NOSIG
SARP 011200Z 11004KT CAVOK 15/12 Q1016
KWWD 011226Z AUTO 27006KT 10SM OVC011 25/23 A2997 RMK AO2 $
KCKC 011217Z AUTO 30008G16KT 250V340 7SM SCT007 BKN012 OVC019 15/14 A2973 RMK AO2
KEHY 011215Z AUTO 24003KT 10SM CLR 20/01 A3028 RMK AO2 PWINO
ESOK 011220Z AUTO 18011KT 9999 FEW020/// 22/13 Q1008
NZOH 011000Z 33010KT 20KM FEW028 SCT050 09/07 Q1025 RMK VATSIM USE ONLY
CXVW 011200Z AUTO 13009KT 13/13 RMK AO1 SLP084 T01330129 58014
KBKD 011215Z AUTO 19010G15KT 5SM HZ CLR 28/17 A3006 RMK AO2 T02810168
VOKN 011230Z 30007KT 3000 -TSRA FEW004 SCT012 FEW025CB OVC080 26/25 Q1004 TEMPO 1500 RA
KHOT 010453Z AUTO 06003KT 10SM FEW120 26/23 A3008 RMK AO2 SLP177 T02610233 PWINO
KBFL 011154Z 31003KT 8SM CLR 28/14 A2995 RMK AO2 SLP132 T02780139 10317 20272 55002
KEFD 011154Z 00000KT 10SM FEW035 26/23 A3007
KXWA 011151Z AUTO 12013KT 10SM CLR 17/15 A2988 RMK AO2 SLP111 T01720150 10200 20167 50001
NZNS 011200Z 17002KT 20KM BKN060 06/04 Q1023 RMK AUTO VATSIM USE ONLY
YLLE 011230Z AUTO 16007KT 9999 // NCD 15/M00 Q1018
MMHO 011140Z 04004KT 10SM SCT090 26/24 A2998 RMK SLP150 57009 901 8/030
SPTU 011200Z VRB02KT 9999 BKN030 23/21 Q1012 RMK TX31.4/TN20.1 BIRD HAZARD RWY 01/19 PP000
KHZD 011215Z AUTO 21006KT 6SM BR CLR 24/23 A3009 RMK A01
OMAL 011200Z 28003KT 180V320 8000 FEW045 39/19 Q1001 NOSIG
EDQM 011220Z 30004KT 250V340 9999 VCSH FEW036 BKN046 BKN056 17/16 Q1018
VEBD 050300Z VRB02KT 6000 SCT025 SCT100 32/26 Q1001 NOSIG
LPAR 011200Z 17007KT CAVOK 30/16 Q1015
KTCC 011153Z AUTO 00000KT 10SM OVC120 23/19 A3011 RMK AO2 RAE03 SLP123 P0000 60003 70003 T02330194 10256 20228 50005
ZSYT 201000Z 11002MPS 040V210 9999 -RA FEW040 24/19 Q1004 NOSIG
KNRS 011221Z AUTO 10022KT 9SM OVC009 19/18 A2999 RMK AO2 T01890183 $
HEIS 011200Z 32009KT CAVOK 36/18 Q1004
ENTC 011220Z 04011KT CAVOK 18/10 Q1009 NOSIG RMK WIND 2600FT 12005KT
ENUN 011220Z AUTO 00000KT 9999NDV BKN028/// BKN160/// 12/05 Q1012 W11/S6
KABY 011153Z 00000KT 8SM CLR 24/23 A3020 RMK AO2 SLP223 T02390228 10256 20222 53012
KBYS 011158Z AUTO 00000KT 10SM SCT240 23/23 A3007 RMK AO2 SLP159 70020 T02310229 10256 20231 56002 FZRANO $
LTCR 011150Z 25008KT 190V290 CAVOK 41/10 Q1002
YBAF 011230Z AUTO 00000KT 9999 // SCT052 SCT060 BKN095 14/12 Q1020
KMCE 011153Z AUTO 33005KT 10SM CLR 23/14 A2995 RMK AO2 SLP141 T02280144 10267 20228 53003
CWAQ 011200Z AUTO 13007KT 16/14 RMK AO1 SLP097 T01620143 56011
KMNV 011215Z AUTO 23005KT 10SM 23/23 A3016 RMK A01
CZFM 311900Z VRB06KT 35SM SCT050 OVC260 19/09 A2994 RMK CU3CI5 LAST STFD OBS/ NXT 021300Z SLP143 DENSITY ALT 600FT
SLCO 011200Z 00000KT 8000 FEW080 24/23 Q1013
CWHL 011200Z AUTO 30013KT 13/13 RMK AO1 SLP162 T01340128
CWNE 011200Z AUTO 22015KT 21/19 RMK AO1 PK WND 22018/1131 SLP135 T02120186 53004
CBBC 011200Z AUTO VRB03KT 9SM CLR 14/13 A2999 RMK SLP157
SBMO 011200Z 12013KT 9999 SCT030 27/19 Q1018
YKNT 011230Z AUTO 14004KT //// // ////// 21/11 Q1014
LFRM 011230Z AUTO 29006KT 240V330 9999 FEW034 25/15 Q1020 NOSIG
ORER 011200Z 19012KT 8000 NSC 45/02 Q1002
EGDR 011220Z AUTO 22009KT 9999 FEW009/// OVC015/// 19/15 Q1020
KLNL 011235Z AUTO 30006KT 7SM -RA OVC007 18/18 A2976 RMK AO2 T01810181
KDCY 011215Z AUTO 22008KT 10SM OVC011 24/23 A3002 RMK AO2 T02370232
SLPO 011200Z 00000KT 9999 NSC 02/M05 Q1035
K7BM 011215Z AUTO 00000KT 10SM SCT090 SCT120 14/ A3057 RMK AO2
HSSS 112000Z 18010KT CAVOK 31/18 Q1011 NOSIG
PANW 011223Z AUTO 19011KT 2 1/2SM -RA BR OVC003 11/11 A2977 RMK AO2 P0001
PATA 011211Z AUTO 04004KT 10SM 12/10 A2984 RMK AO2 T01220100 TSNO $
RJTE 010151Z 28007KT 9999 FEW020 BKN/// 32/26 Q1013 RMK 1CU020 A2994
KLKU 011215Z AUTO 00000KT 1/2SM FG OVC002 21/ A3005 RMK AO2 T0205////
KGPM 011150Z 19007KT 10SM SKC 27/20 A3007
KDLH 011217Z 32011G20KT 9SM OVC009 16/14 A2982 RMK AO2 T01560139 $
FYLZ 011200Z AUTO 31013KT //// // ////// 14/08 Q1018
EGGD 011220Z AUTO 28008KT 9999 NCD 22/11 Q1019
KGUS 011224Z AUTO 22008KT 8SM -RA OVC008 23/22 A2991 RMK AO2 RAB24 SLP126 $
LIRN 011220Z 05012KT 010V100 CAVOK 34/11 Q1013 NOSIG
KLGD 011156Z AUTO 00000KT 10SM CLR 16/11 A3000 RMK AO2 SLP130 T01610111 10217 20144 51004
KCEY 011215Z AUTO 21007KT 10SM OVC008 23/23 A3009 RMK AO1
KGWO 011153Z AUTO 20003KT 10SM FEW110 25/23 A3013 RMK AO2 SLP200 T02500228 10256 20250 53016
SBMK 011200Z 08010KT CAVOK 23/14 Q1021
KMMV 011153Z AUTO 21006KT 10SM CLR 16/13 A2995 RMK AO2 SLP141 T01560128 10211 20156 51008
EDNY 011220Z 24007KT 180V280 CAVOK 28/13 Q1018
KGGI 011215Z AUTO 29007KT 10SM CLR 21/19 A2996 RMK AO2 T02060189
CYYG 011200Z 21009KT 15SM FEW200 BKN250 21/17 A2998 RMK CC1CI6 SLP153 DENSITY ALT 900FT
FYKM 011200Z AUTO 07007G18KT //// // ////// 30/M00 Q1017
YWTN 011230Z AUTO 15004KT 9999 // NCD 19/11 Q1016
KOEB 011215Z AUTO 22007KT 4SM BR OVC006 21/20 A2989 RMK AO2 T02060195
SBST 011200Z 03001KT 7000 NSC 19/15 Q1019
KLVL 011215Z AUTO 22004KT 24/23 A3005 RMK AO1 T02370232
FAUT 011200Z 11005KT CAVOK 16/04 Q1027
KLNP 011215Z AUTO 24008KT 10SM OVC007 20/19 A3019 RMK AO2
OIAG 011200Z 24012KT 9999 SCT040 42/24 Q0998
KBAK 011155Z 20007KT 7SM OVC009 22/21 A2999
NSTU 011150Z 11017KT 10SM FEW018 SCT040 BKN100 27/23 A2996 RMK SLP147 60001 70023 8/820 T02660234 10269 20257 56003
HEBA 011200Z 31013KT CAVOK 32/21 Q1005
CXDI 011200Z AUTO 19003KT 21/20 RMK AO1 SLP131 T02050198 58009
LFBC 011230Z AUTO 29007KT 250V010 CAVOK 28/16 Q1019 NOSIG
LGMK 011220Z 01021G31KT 9999 FEW018 29/18 Q1007
YPOD 011230Z AUTO 32014KT 9999 // SCT026 BKN050 BKN073 11/09 Q1012
KEVB 011147Z 10SM SKC RMK AWOS OTS.
CYUY 011200Z 19008KT 15SM SCT057 BKN082 BKN100 18/15 A2976 RMK SC3AC4ACC1 ACC TR SLP080 DENSITY ALT 1800FT
KNSI 011153Z AUTO 21003KT 10SM OVC003 16/15 A3000 RMK AO2 SLP153 T01610150 10172 20161 58004 $
KDRI 011215Z AUTO 15003KT 25/24 A3012 RMK AO2 T02510243 PWINO
AGGM 010000Z 09007KT 9999 FEW020 31/25 Q1009
YWCA 011230Z AUTO 27005KT //// // ////// 05/01 Q1019
KMMU 011145Z 00000KT 10SM OVC030 21/21 A3001
LIRZ 011220Z AUTO 35005KT 280V050 9999 NCD 35/07 Q1014
LFKJ 011230Z AUTO 21009KT CAVOK 32/21 Q1014 NOSIG
KSLI 011158Z AUTO 00000KT 10SM FEW100 SCT130 20/19 A2996 RMK AO2 SLP148 T01950187 10218 20193 57010 $
KBKT 011215Z AUTO 25005KT 2SM BR OVC002 23/23 A3005 RMK AO1 P0001 T02300230
KFKL 011210Z AUTO 19006KT 10SM FEW003 BKN095 18/18 A3003 RMK AO2 $
KBQX 011215Z AUTO 20013KT 9SM 29/24 A3008 RMK A01
PGUA 011226Z AUTO 08012KT 10SM SCT015 27/24 A2990 RMK AO2 SLP115 $
KHAI 011215Z AUTO 21008KT 3SM BR OVC006 22/21 A2987 RMK AO2 T02150205
LRFT 011200Z 33012KT 9999 SCT040TCU BKN070 28/18 Q1009 BLU BLU
CYQF 011200Z AUTO 25006KT 9SM CLR 16/15 A2991 RMK SLP127 DENSITY ALT 3800FT
KQRH 011156Z AUTO 27017G30KT 210V350 2200 HZ FEW018 BKN023 BKN030 38/19 A2955 RMK AO2 SLP009 WND DATA ESTMD T03820189 10397 20349 57018
KPNC 011153Z AUTO 14007KT 10SM CLR 25/21 A2997 RMK AO2 SLP134 70031 T02500211 10272 20244 53000 $
KMNZ 011215Z AUTO 18006KT 10SM CLR 24/19 A3010 RMK AO2 T02430188
KGCC 011153Z AUTO 18011KT 10SM CLR 19/10 A3002 RMK AO2 SLP109 T01940100 10228 20183 55005
LIRU 011150Z VRB05KT CAVOK 35/14 Q1013
KFWS 011150Z 17006KT 10SM CLR 27/21 A3008
MNBL 312300Z 03004KT 5000 -DZ BKN017 SCT070 27/26 Q1011
EPPO 011230Z 33004KT 240V050 9999 SCT040TCU 25/17 Q1012
VEJR 011100Z 00000KT 5000 HZ SCT025 BKN080 30/24 Q1005
SBBW 011200Z 09005KT CAVOK 20/13 Q1017
KTVC 011233Z 17005KT 10SM -RA SCT019 BKN027 OVC040 21/18 A2971 RMK AO2 LTG DSNT E AND SE TSE27 P0001 T02060183 $
ZSNB 011200Z 19002MPS CAVOK 29/24 Q1006 NOSIG
LBIA 011200Z 30016KT 9999 SCT070 31/10 Q1009
KXMR 011156Z AUTO 17004KT 10SM CLR 27/26 A3016 RMK AO2 SLP216 T02660255 10266 20233 53004 $
KWAL 011233Z AUTO 26006KT 10SM FEW015 BKN028 OVC038 27/23 A2999 RMK AO2 T02720233
KMTN 011226Z 31005KT 10SM BKN010 BKN016 BKN023 23/21 A3000
KDAL 011153Z 19006KT 10SM FEW100 BKN160 BKN250 28/21 A3005 RMK AO2 SLP169 T02830206 10328 20283 53009
KRND 011156Z AUTO 18004KT 10SM FEW014 24/22 A3006 RMK AO2 VIS 2 RWY33R SLP169 T02370221 10262 20231 53003
PAOT 011153Z AUTO 00000KT 10SM BKN075 09/08 A2986 RMK AO2 SLP111 T00890078 10100 20072 56006 TSNO
PAAD 011215Z AUTO 06006KT 10SM OVC004 00/00 A3003 RMK AO2 T00000000
KWDG 011150Z 14004KT 10SM BKN130 23/21 A2995
PAFR 011156Z AUTO 00000KT 10SM SCT020 OVC120 10/10 A2986 RMK AO2 SLP117 60000 T01030095 10156 20085 57013 VISNO RWY35 CHINO RWY35 $
ENEV 011220Z 36010KT CAVOK 19/12 Q1008 RMK WIND 1400FT 01009KT
KTSP 011215Z AUTO 00000KT 10SM CLR 20/10 A3017 RMK AO2
RJKI 011200Z AUTO 15006KT 120V200 9999 FEW015 28/26 Q1011
MYAF 011100Z AUTO 10007KT 9999 FEW026 28/24 A3015
DAUI 011200Z 07018KT 040V100 9000 DRSA NSC 43/// Q1009
KFFC 011153Z AUTO 00000KT 10SM CLR 22/21 A3019 RMK AO2 SLP216 T02220206 10228 20211 53008
KS34 011155Z AUTO 10SM 11/M16 A2996 RMK Plains
OESK 011200Z 26009KT CAVOK 43/04 Q1005 NOSIG
LTCO 011150Z VRB07KT 9999 FEW040 34/M02 Q1012
KMYJ 011235Z AUTO 23006KT 10SM BKN050 23/22 A3000 RMK AO2
KCEF 011215Z 17006KT 8SM -RA FEW008 SCT025 BKN060 20/20 A3000 RMK AO2A SLP164
KSFM 011156Z AUTO 21003KT 10SM CLR 22/18 A3000 RMK AO2 SLP160 T02170178 10217 20156 58007
RJBB 011200Z 19008KT 9999 FEW010 29/23 Q1013 NOSIG
MYGF 011200Z 13007KT 9999 FEW020 BKN150 29/24 A3017
KROW 011151Z AUTO 25003KT 10SM CLR 24/09 A3011 RMK AO2 SLP121 T02390089 10300 20228 51006
SADP 011140Z 00000KT 3500 BR NSC 06/06 Q1018
LIML 011220Z 31004KT 190V360 CAVOK 33/13 Q1014 NOSIG
KWRI 011222Z 05004KT 10SM BKN007 21/20 A2998 RMK SLP151 $
MHPL 010000Z 05010KT 9999 BKN024TCU SCT080 27/23 Q1011
ZGSZ 011200Z 18007MPS CAVOK 31/26 Q1005 NOSIG
EDDB 011220Z AUTO 31009KT 9999 -SHRA SCT025 BKN031 BKN038 FEW///TCU 20/17 Q1015 NOSIG
UCFO 011200Z 16006MPS 140V200 9999 FEW050CB 30/10 Q1007 R12/0///95 NOSIG
YTEE 011230Z AUTO 20004KT 9999 // NCD 16/06 Q1017
CWGM 010900Z AUTO 10001KT 13/10 RMK AO1 T01300102
LTCD 011150Z VRB03KT CAVOK 35/05 Q1008 NOSIG
LIMC 011220Z 25006KT 180V320 9999 FEW090 34/11 Q1014 NOSIG
SBJU 011200Z 15010KT CAVOK 25/17 Q1020
KNFL 011156Z AUTO 18006KT 10SM CLR 22/11 A3009 RMK AO2 SLP157 T02220111 10267 20222 55002
LFJR 011230Z AUTO 31005KT 260V360 CAVOK 24/16 Q1020
LTFC 011220Z 34009KT 300V010 9999 SCT035 35/12 Q1007 RMK RWY23 31010KT 250V350
GMMX 011230Z VRB04KT 9999 FEW040 45/10 Q1013 NOSIG
KTHA 241135Z AUTO 18004KT 10SM CLR 23/21 A3015 RMK A01
KBWW 011235Z AUTO 16008KT 10SM CLR 16/14 A2993 RMK AO2
PHNL 011153Z 05008KT 10SM FEW032 BKN045 BKN055 23/20 A3006 RMK AO2 RAE03B34E47 SLP180 P0000 60000 T02330200 10261 20233 58010
KCUH 011215Z AUTO 16003KT 10SM CLR 25/21 A2999 RMK AO2 LTG DSNT SE T02470207
UHSS 011200Z 19003MPS 9999 NSC 13/12 Q1014 R19/70D NOSIG RMK QFE759/1012
LFSL 011230Z AUTO 32008KT 270V040 CAVOK 32/14 Q1019 NOSIG
KEMV 011215Z AUTO 20003KT 10SM SCT007 24/24 A3005 RMK AO2 T02420236
YBPN 011230Z AUTO 18005KT 9999 // OVC012 19/17 Q1018
KNJK 011156Z AUTO 11006KT 10SM CLR 28/24 A2992 RMK AO2 SLP146 T02780244 10328 20278 53003 $
KSIY 011153Z AUTO 30003KT 5SM HZ CLR 22/18 A3003 RMK AO2 SLP146 60000 70009 T02170178 10272 20217 50003
KRIC 011154Z 23006KT 10SM BKN007 BKN180 24/23 A3002 RMK AO2 CIG 006V010 SLP170 60000 70018 T02390228 10239 20228 53008
KCAE 011156Z 23004KT 10SM SCT150 24/21 A3014 RMK AO2 SLP202 T02390211 10250 20228 51010
KSQI 011156Z 23005KT 10SM BKN043 20/20 A2987 RMK AO2 SLP977 60002 70002 T02000200 10222 20194 53014
SLOR 010100Z 00000KT 9999 NSC 06/M05 Q1034
KRVF 011215Z AUTO VRB04KT 10SM CLR 14/08 A3014 RMK AO2
KLLN 011215Z AUTO 21013KT 10SM CLR 25/10 A3014 RMK AO2
CWQS 011200Z AUTO 31013KT 13/13 RMK AO1 SLP188 T01330127 58003
KIDP 011215Z AUTO 00000KT 10SM CLR 24/23 A3000 RMK AO2 T02400228
KRWL 011153Z AUTO 05005KT 10SM CLR 18/07 A3027 RMK AO2 SLP135 60000 T01830067 10228 20183 53002
YBOK 011230Z AUTO 09002KT 9999 // OVC031 11/11 Q1021
KMCI 011153Z 22005KT 8SM BKN250 24/22 A2998 RMK AO2 SLP138 T02390222 10261 20233 53002
SPMS 312100Z 09004KT 9999 FEW020 31/23 Q1008 RMK BIRD HAZARD RWY 09/27 PP000
CYET 011234Z AUTO 00000KT 6SM HZ FEW120 10/ A2987 RMK DP MISG SLP132 DENSITY ALT 3300FT
LEVT 011200Z 04011KT 010V080 9999 FEW025 26/17 Q1020
KSME 011215Z AUTO 25007KT 10SM FEW013 BKN018 OVC044 24/23 A3009 RMK AO2
PAFE 011156Z AUTO 06004KT 10SM CLR 11/11 A3005 RMK AO2 SLP187 70007 T01110106 10139 20111 50002 $
KSKA 011158Z AUTO 07004KT 10SM SCT170 BKN190 22/05 A2987 RMK AO2 SLP092 T02160051 10266 20210 57003 $
GMFF 011200Z 02007KT 330V050 9999 FEW033 39/11 Q1016 NOSIG
FMMS 011200Z 18008KT 9999 VCSH BKN017 25/20 Q1019
KSET 011154Z AUTO 19005KT 10SM FEW060 24/22 A2998 RMK AO2 SLP146 T02440217 10250 20233 53009
MSSA 010050Z 00000KT 9999 FEW037 28/20 Q1018 A3006
KLEX 011206Z 24008G17KT 10SM BKN011 BKN055 24/22 A3006 RMK AO2 T02390217
PTKK 011150Z 06006KT 15SM FEW014 BKN280 28/25 A2982 RMK SLP101 8/101 T02830253 10304 20278 52014
KCMA 011155Z AUTO 00000KT 6SM HZ CLR 19/16 A2999 RMK AO2 SLP163 T01890161 10211 20189 58006
KCVC 011215Z AUTO 00000KT 10SM CLR 23/21 A3018 RMK AO2
FEFO 241000Z 04006KT 9999 BKN020TCU 26/20 Q1018
LTBU 011220Z 14010KT 9999 SCT035 BKN070 30/14 Q1010 RMK RWY22 16010KT 110V220
SCJO 011200Z AUTO 00000KT 9999 OVC045/// 04/04 Q1019
VGHS 011230Z 09004KT 4000 HZ SCT012 BKN100 30/24 Q1001 NOSIG
KTXW 011210Z AUTO 13006KT 10SM CLR 25/24 A3004 RMK AO2 T02550235
KTOP 011153Z 00000KT 8SM CLR 23/22 A2997 RMK AO2 SLP139 T02330217 10278 20222 53002
OERK 011200Z 34005KT 9999 FEW040 SCT080 38/18 Q1003 NOSIG
KQD3 011206Z AUTO 25018G30KT 220V280 2000 HZ SCT020 BKN026 OVC031 37/19 A2961 RMK AO2 CIG 000V026 SLP011 WND DATA ESTMD
K7W6 011215Z AUTO 22006KT 10SM CLR 26/26 A3006 RMK AO2 T02600257
CZEL 011200Z AUTO 13002KT 18/16 RMK AO1 SLP133 T01810155 58010
UATG 011200Z 36002MPS 9999 SCT033CB 34/09 Q1007 NOSIG RMK QFE757/1010
EGEO 011220Z VRB02KT 9999 BKN043 16/08 Q1014
LIEA 011220Z 03010KT 340V080 CAVOK 37/14 Q1013
KMYL 011151Z AUTO 00000KT 10SM CLR 16/07 A3012 RMK AO2 SLP138 T01560067 10250 20150 55001
OIFS 011200Z 33006KT 9999 FEW030CB SCT035TCU 31/07 Q1016
CYMU 051900Z 19012KT 12SM BKN007 BKN019 BKN050 05/03 A2994 RMK CF5SC2SC1 SC TR LAST STFD OBS SLP145
EBFN 011155Z 01006KT 9999 FEW023 SCT060 BKN200 22/15 Q1019 BLU BLU
KBEH 011153Z AUTO 18008G16KT 8SM OVC008 23/21 A2981 RMK AO2 CIG 007V012 SLP089 T02280206 10233 20211 58013
KNOG 011156Z AUTO 05003KT 10SM FEW016 BKN023 24/22 A3007 RMK AO2 SLP160 6//// 7//// T02390217 10261 20233 53007 PNO $
DRRN 011200Z 21013KT 180V240 9999 SCT026 FEW033CB 31/19 Q1012 NOSIG
OIMS 011200Z 05006KT 9999 SCT035 36/06 Q1009
LGMT 011220Z 32013KT 280V360 9999 FEW020 33/18 Q1008
LRSV 011200Z 34010KT 9999 -SHRA FEW040CB 20/17 Q1012
WMKB 011200Z 10003KT 8000 TS FEW017CB SCT024 29/26 Q1006 TEMPO 6000 -TSRA
OICI 011200Z 26008KT 8000 FEW045 37/14 Q1012 A2989
YMGB 011230Z AUTO 10005KT //// // ////// 25/21 Q1012
LYPG 011230Z VRB02KT CAVOK 35/04 Q1010 NOSIG
CYBR 011200Z 00000KT 10SM -DZ SCT018 OVC090 16/16 A2990 RMK SC4AS4 SLP130 DENSITY ALT 1800FT
YWBL 011230Z AUTO 33014KT 9000 // NCD 10/08 Q1012
LIMP 011150Z VRB04KT CAVOK 34/11 Q1013
KSUW 011215Z AUTO 30010KT 10SM OVC018 17/15 A2982 RMK AO2 T01720145
PAED 011156Z 06003KT 10SM BKN024 BKN060 BKN120 12/11 A2989 RMK SLP118 70001 T01210105 10147 20118 57011
KAAF 011153Z AUTO 02003KT 10SM CLR 26/26 A3017 RMK AO2 SLP214 T02610256 10261 20239 53011
KLNC 011215Z AUTO 00000KT 10SM CLR 26/20 A3008 RMK AO2 T02570200
CZCP 011200Z AUTO 09008KT ////SM //// NCD 06/04 A3001
CYLC 291900Z 15006KT 15SM FEW070 SCT160 BKN180 BKN250 10/05 A2956 RMK AC1AC3AC2CS1 CS TR LASTSTFD OBS/NXT 021200Z SLP014
YFRT 011230Z AUTO 01015KT 9999 // OVC082 15/01 Q1008
NCMR 011100Z AUTO 05010KT //// ////// ///// Q1019
KPQL 011153Z 00000KT 10SM FEW044 25/24 A3014 RMK AO2 LTG DSNT SE SLP206 T02500239 10250 20239 53010
KFOK 011153Z 03007KT 3SM -RA BR BKN047 OVC070 21/19 A3002 RMK AO2 SLP166 P0004 60020 70020 T02060194 10239 20200 56014 $
CYXJ 011200Z CCA 03003KT 6SM BR BKN002 OVC006 16/16 A2977 RMK ST6SC2 SLP086 DENSITY ALT 3100FT
FDMS 011200Z VRB02KT 8000 VCFG FEW010 BKN025 OVC035 13/12 Q1031 NOSIG
PAMC 010153Z 16004KT 10SM OVC080 19/11 A2993 RMK $
OMRK 011200Z 34011KT 8000 NSC 39/22 Q0999 A2951
LERT 011200Z 20006KT 150V300 CAVOK 31/24 Q1014 NOSIG
CYPO 011200Z AUTO 20005KT 9SM BKN170 OVC200 11/09 A2976 RMK SLP080
HKNW 011200Z 17011KT 9999 BKN020 BKN070 18/13 Q1023
KAXV 011205Z AUTO 18007KT 5SM BR OVC004 21/20 A2996 RMK AO2
ENVR 010550Z 35015KT 9999 FEW005 BKN014 12/10 Q1010
UACP 011200Z 04005MPS 010V070 9999 FEW033CB 24/17 Q1008 NOSIG RMK QFE744/0992
KETB 011235Z AUTO 26010G16KT 10SM BKN013 OVC030 22/20 A2976 RMK AO2
LATI 011220Z 31011KT 260V340 CAVOK 35/06 Q1009 NOSIG
KLLJ 011155Z AUTO 00000KT 10SM CLR 16/07 A3018 RMK AO2 SLP148 T01560067 10228 20139 53004 $
LFOE 011230Z AUTO 32006KT 240V030 9999 FEW036 SCT045 BKN180 25/14 Q1019 NOSIG
NZHS 011200Z 30007KT 20KM NCD 09/03 Q1025 RMK AUTO NZNR VATSIM USE ONLY
VEAT 011200Z 00000KT 4500 BR SCT020 BKN100 29/25 Q1002 NOSIG
VOTV 011230Z 30010G20KT 2500 -RA SCT008 SCT012 FEW025CB OVC080 26/24 Q1006 NOSIG
FDBB 010500Z AUTO 21003KT //// // ////// 16/11 Q1029
PASC 011153Z 07008KT 10SM OVC003 01/01 A3003 RMK AO2 SLP170 T00110006 10033 20011 58005
KDYB 011215Z AUTO 00000KT 10SM CLR 26/24 A3015 RMK AO2
SBJV 011200Z 10002KT 9000 NSC 15/13 Q1019
LIBR 011220Z 34012KT 310V010 CAVOK 30/19 Q1012
YCKN 011230Z AUTO 13009KT 9999 // SCT033 BKN046 BKN058 22/19 Q1014
K0E0 011215Z AUTO 34003KT 10SM CLR 17/17 A3033 RMK AO2 T01670165 TSNO
K48A 011215Z AUTO 28005KT 10SM CLR 26/22 A3019 RMK AO2 T02590222
RJCB 011100Z 14007KT 8000 SHRA FEW004 SCT012 BKN016 17/16 Q1015
KILG 011216Z 36006KT 2SM BR OVC009 21/19 A3000 RMK AO2 CIG 004V010 T02110194
SGPI 010900Z 00000KT 9999 FEW034 13/11 Q1014
BIBD 011200Z 36006KT 310V030 9999 SCT020 BKN028 10/04 Q1009
GOOY 011200Z 20012KT 9999 SCT015 FEW016TCU 30/24 Q1013
KPNM 011215Z AUTO 30005KT 10SM OVC026 19/15 A2988 RMK AO2 TS
KBDU 011215Z AUTO 00000KT 10SM CLR 18/08 A3015 RMK AO2
PFWS 011156Z AUTO 21015G19KT 5SM -RA BR OVC005 12/11 A2982 RMK AO2 RAE20B54 SLP137 P0000 60003 70004 T01170111 10133 20117 58012
YMAV 011230Z AUTO 34011KT 9999 // NCD 11/07 Q1012
HEAR 291100Z 30010KT CAVOK 33/16 Q1009 NOSIG
KRMG 011222Z AUTO 00000KT 10SM FEW003 OVC090 23/22 A3016 RMK AO2 T02330217
LYKV 011230Z VRB07KT 9999 SCT060 29/11 Q1013 NOSIG
MYCB 011100Z AUTO 07007KT //// R09///// // FEW018 27/24 A3016
KAIT 011215Z AUTO 30005KT 10SM OVC025 16/13 A2987 RMK AO2
CWBV 011200Z AUTO 24009KT 14/13 RMK AO1 SLP163 T01350131 53005
RJAO 152207Z 18011KT 9999 SCT015 BKN150 27/26 Q1009 RMK 3CU015 7AC150 A2982
NCNS 011100Z AUTO 08008KT //// ////// 27/22 Q1014
KAQO 011215Z AUTO 00000KT 10SM CLR 23/18 A3009 RMK AO2
VOPC 011200Z 10003KT 6000 FEW015 32/25 Q1002 NOSIG
LIRH 011155Z 27005KT 9999 FEW040 34/14 Q1013 RMK FEW MON LIB NC VIS MIN 9999 WIND THR16 25007KT BLU
LTCC 011220Z 23018KT CAVOK 41/04 Q1003 NOSIG RMK RWY16 19018KT SKC
NLWW 011230Z AUTO 11010KT 070V140 9999 BKN024/// 27/24 Q1013 TEMPO 3000 SHRA BKN014 FEW018CB SCT020TCU
CWUS 011200Z AUTO 23002KT 20/03 RMK AO1 SLP103 T01970032 53004
TBPB 011200Z 10016KT 9999 FEW012CB 29/24 Q1014 NOSIG
MHCA 011200Z 03010KT 9999 SCT028TCU FEW030CB SCT250 23/22 CB SW
NZGS 011200Z 30004KT 20KM NCD 05/03 Q1026 RMK AUTO VATSIM USE ONLY
KSKX 011156Z AUTO 08003KT 10SM CLR 13/12 A3041 RMK AO2 SLP245 70031 T01280122 10156 20122 53002
LGKL 011220Z 16012KT 9999 FEW030 31/22 Q1008
KSVE 011235Z AUTO 31006KT 10SM CLR 21/07 A3013 RMK AO2
K7N0 011156Z AUTO VRB04KT 10SM CLR 28/26 A3014 RMK AO2 RAB1058E09 SLP204 6//// 7//// T02830256 10283 20272 53008 PNO $
ETNS 011220Z 31013KT 9999 FEW037 SCT300 20/09 Q1016 BLU+BLU+
KGUR 011158Z AUTO 00000KT 9SM BKN150 15/13 A3005 RMK AO2 SLP147 T01460125 10208 20133 56004
LEBB 011200Z 03007KT 340V060 9999 BKN024 OVC030 24/19 Q1020 NOSIG
KLDJ 011235Z AUTO 11003KT 10SM SCT018 OVC023 22/19 A3000 RMK AO2 T02150192
ENVD 011220Z 15005KT 0300 FG VV001 13/13 Q1012
KHLC 011153Z AUTO 00000KT 8SM CLR 21/19 A3000 RMK AO2 SLP133 T02060194 10250 20206 58004
FKKL 011100Z /////KT 9999 SCT030 30/23 Q1014
ORBI 011200Z 21009KT 180V240 CAVOK 48/06 Q0997 NOSIG
LZTT 011230Z 26010KT 9999 SCT066 23/11 Q1015 NOSIG
CWLP 011200Z AUTO 27009KT 12/12 RMK AO1 SLP155 T01230123 55001
KSXK 011215Z AUTO 24003KT 8SM CLR 17/16 A2997 RMK AO2
KAJG 011215Z AUTO 25009KT 10SM OVC011 25/24 A3002 RMK AO2 T02450235
FNMO 010700Z 27011KT CAVOK 13/09 Q1017
YNRC 011230Z AUTO 34011KT //// // ////// 10/09 Q1014
DAAT 011200Z 12008KT 060V170 CAVOK 35/// Q1019
KMYP 011215Z AUTO 27013KT 10SM SCT060 OVC080 10/04 A3082 RMK AO2
LFLY 011230Z AUTO 02008KT 340V060 CAVOK 33/10 Q1017 NOSIG
KGOP 011215Z AUTO 10SM CLR 24/20 A3010 RMK AO2
LRTM 011200Z 30009KT 260V320 9999 FEW025 FEW028TCU 22/15 Q1013
VVNB 011200Z 16006KT 120V190 CAVOK 29/25 Q1003 NOSIG
GOSP 011200Z 24002KT 9999 SCT013 32/24 Q1012
CZZJ 011200Z AUTO 32001KT 10/09 RMK AO1 6011 SLP123 T00980093 50017
KJYL 011215Z AUTO 00000KT 10SM CLR 26/22 A3019 RMK AO2 T02550218
KHST 011156Z AUTO 11006KT 10SM FEW020 29/25 A3012 RMK AO2 SLP203 T02870251 10287 20269 53003
KROS 011215Z AUTO 29004KT 10SM OVC026 18/14 A2986 RMK AO2 T01770141
KT69 011215Z AUTO 10SM CLR 24/23 A3006 RMK A01
YDLQ 011230Z AUTO 36007KT //// // ////// 08/05 Q1018
KMNM 011234Z AUTO 24005KT 10SM SCT023 OVC065 21/20 A2969 RMK AO2 PNO $
KGPC 011215Z AUTO 4SM BR OVC004 23/23 A2998 RMK AO2 LTG DSNT N AND W T02290226
KCGC 011215Z AUTO 00000KT 10SM CLR 26/23 A3019 RMK AO2
KIDI 011215Z AUTO 24004KT 6SM BR BKN007 OVC012 19/18 A3009 RMK A01
KVOK 011156Z 30008KT 10SM BKN017 21/18 A2977 RMK AO2A SLP079 53014
LFRB 011230Z AUTO 25003KT 210V310 9999 OVC019 21/16 Q1021 TEMPO BKN014
OLBA 011200Z 24008KT 8000 FEW026 31/23 Q1005 NOSIG
KTIK 011156Z AUTO 18011KT 10SM FEW190 26/17 A2998 RMK AO2 SLP144 70005 T02550171 10265 20248 53005
EDVE 011220Z 31010KT 280V350 9999 FEW023 OVC034 21/16 Q1017
KINF 011235Z AUTO 00000KT 5SM BR CLR 26/26 A3019 RMK AO2
CWIP 011200Z AUTO 35002KT 18/17 RMK AO1 T01810172
FAMM 011200Z 04016KT 9999 FEW040 22/05 Q1024 NOSIG
MMCU 011140Z 20006KT 10SM SKC 16/08 A3020 RMK SLP123 5//// 901 RTS
NFTV 011200Z 08009KT 9999 SCT016 BKN290 25/23 Q1017
FOON 011200Z /////KT 9999 SCT011 BKN023 26/19 Q1015
KMAI 011153Z AUTO 00000KT 10SM CLR 24/23 A3017 RMK AO1 SLP213 T02390233 10250 20222 53012
KBVI 011215Z AUTO 16003KT 1/2SM FG OVC003 19/18 A3003 RMK AO2 T01900177
MMPQ 011202Z RTD 00000KT 4SM OVC020 23/22 A2991 RMK 8/7// BR
MDBH 011200Z 00000KT 9999 FEW018 27/26 Q1018
WSAP 011200Z 12003KT 9999 FEW018 BKN300 28/24 Q1007
KWJF 011156Z AUTO 02004KT 10SM CLR 24/17 A3007 RMK AO2 SLP159 T02440172 10283 20244 56004
KSFF 011153Z AUTO 04003KT 10SM CLR 19/07 A2987 RMK AO2 SLP093 T01890072 10239 20178 51002
CWAJ 011200Z AUTO 21006KT RMK AO1 55010
BIEG 011200Z 21006KT 180V240 9999 -RA SCT047 BKN061 11/03 Q1002
KHEF 011220Z 35005KT 10SM FEW012 SCT037 23/20 A3003 RMK AO2 PNO $
SPHO 011200Z 14002KT CAVOK 09/M00 Q1029 RMK TN8.7 PP000
GMFO 011200Z 32010KT 260V010 CAVOK 35/19 Q1017 NOSIG
KRCE 011215Z AUTO 20012KT 10SM CLR 28/16 A3000 RMK AO2
RKSQ 010107Z 09003KT 6000 BR OVC002 26/26 A2975 RMK CIG002
KFIT 011152Z AUTO 00000KT 10SM OVC100 22/18 A3003 RMK AO2 RAB1053E08B36E51 SLP166 P0000 60000 T02170178 10217 20194 58003
MMCS 011142Z 23005KT 10SM SCT250 25/13 A3013 RMK SLP068 5//// 957 8/008 ISOL AC RTS
KHUM 011147Z 07003KT 7SM SCT025 SCT055 25/24 A3013
SPST 011200Z 16003KT 9999 SCT015 21/21 Q1013 RMK BIRD HAZARD RWY 17/35 TN20.3 PP000
KFNB 011153Z AUTO VRB05KT 10SM CLR 22/22 A2996 RMK AO2 SLP135 T02220217 10250 20217 53008
USPP 011200Z 04006MPS 010V070 CAVOK 24/12 Q1014 R03/090060 NOSIG RMK QFE750
SANU 261240Z 16005KT 2000 -DZBR OVC010 09/08 Q1017
CWMQ 011200Z AUTO 13006KT 16/14 RMK AO1 SLP113 T01560143 51015
EGQK 011220Z AUTO 01008KT 9999 BKN048/// 18/08 Q1013
OIZC 010900Z 17014KT 5000 SA FEW035 SCT090 36/26 Q0999
EKBI 011220Z AUTO 29014KT 260V320 9999 NCD 19/09 Q1016
LROP 011200Z VRB02KT CAVOK 27/14 Q1010 NOSIG
SBML 010300Z 18002KT CAVOK 22/14 Q1019
KMIC 011153Z 31008KT 10SM OVC026 19/15 A2986 RMK AO2 SLP106 T01940150 10222 20189 53011
KLBO 011215Z AUTO 22005KT 10SM CLR 23/21 A3007 RMK AO2
VOON 282200Z 32002KT 2500 -RA S CT004 SCT012 FEW025CB BKN8000 24/23 Q1007 NOSIG
RCKH 011200Z 09004KT 9999 FEW018 SCT060 BKN150 28/24 Q1007 NOSIG RMK A2974
VOMM 011200Z 15010KT 6000 SCT020 FEW025CB 33/27 Q1000 NOSIG
ZHHH 011200Z 08003MPS 050V110 CAVOK 34/22 Q1004 NOSIG
KFHB 011215Z AUTO 20007KT 10SM CLR 27/25 A3020 RMK AO2
K1V4 061254Z AUTO 17/13 A2981 RMK AO1 SLP089 T01720133
EIWF 011200Z 21014KT 1400 BR OVC002 17/17 Q1017
CYYN 011200Z AUTO 05006KT 4SM BR SCT001 15/15 A2989 RMK SLP111 DENSITY ALT 3400FT
KSHV 011156Z 17003KT 10SM FEW250 26/23 A3009 RMK AO2 SLP186 T02560228 10278 20250 53010
ZYCC 011200Z VRB01MPS CAVOK 22/20 Q1006 NOSIG
KBUU 011215Z AUTO 24008KT 10SM BKN021 23/21 A2980 RMK AO2 T02260206 PWINO
OIAI 011052Z 21008KT 8000 NSC 41/23 Q1000
YFTZ 011230Z AUTO 36004KT //// // ////// 21/03 Q1011
PKMJ 011056Z 06013KT 15SM FEW015 SCT050 BKN300 28/25 A2985 RMK LAST
KASX 011230Z AUTO 29008KT 10SM SCT017 OVC030 19/16 A2979 RMK AO2 T01890161
MMLT 010040Z 30018KT 8SM SCT030CB BKN100 BKN240 28/23 A2991 RMK 8/963 VCRA CB W Y S HZY
KLIC 011155Z AUTO 01004KT 10SM CLR 12/10 A3019 RMK AO2 SLP149 T01220100 10172 20122 55005
FNSA 311200Z 00000KT CAVOK 32/09 Q1017
KTIX 011147Z 18003KT 7SM FEW017 27/26 A3020
LEZL 011200Z 30004KT 250V040 CAVOK 35/19 Q1014 NOSIG
VOBL 011230Z 29008KT 6000 SCT015 SCT020 27/22 Q1007 NOSIG
KMGE 011156Z 00000KT 10SM BKN085 BKN250 23/21 A3017 RMK AO2A SLP208 T02290213 10233 20214 52008 $
VGEG 011200Z 21005KT 6000 FEW026 SCT100 31/27 Q1002 NOSIG
KAOO 011153Z AUTO 00000KT 5SM BR SCT020 OVC032 19/18 A3005 RMK AO2 SLP169 70069 T01890178 10189 20178 50001
GMML 011200Z 02016KT 6000 NSC 28/24 Q1012 NOSIG
CYSF 011230Z AUTO 00000KT 9SM SCT001 06/06 A2991 RMK SLP143
KEDN 011215Z AUTO 00000KT 10SM CLR 24/24 A3019 RMK AO2 T02400240
LZPP 011230Z 31006KT 220V030 9999 FEW045 29/15 Q1014
CYXY 011200Z 00000KT 40SM OVC035 13/10 A2994 RMK SC8 SLP151 DENSITY ALT 2700FT
MMIO 312152Z 36005KT 10SM SKC 28/10 A3018
KQTZ 011155Z 18005KT 9999 SKC 48/M02 A2945 RMK SLP970 WND DATA ESTMD ALSTG/SLP ESTMD 57012
NFFN 011200Z 12007KT 9999 FEW028 SCT120 24/22 Q1015 NOSIG
KSPG 011153Z 16011KT 10SM CLR 27/26 A3015 RMK AO2 SLP209 70004 T02720256 10283 20272 51007
PAFB 011158Z AUTO 08004KT 10SM CLR 11/11 A2986 RMK AO2 SLP118 T01140109 10175 20113 57011
KRMY 011215Z AUTO 20006KT 10SM OVC007 21/20 A2987 RMK AO2 T02100195
KBKE 011153Z AUTO 00000KT 10SM CLR 15/12 A3003 RMK AO2 SLP140 T01500117 10211 20128 51004
MHRO 011200Z 09012KT 9999 SCT020CB BKN070 27/25 Q1015 A2997 RERA NOSIG
SCCC 291800Z VRB09G22KT 9999 FEW040 14/M06 Q1008
MDSD 011200Z 03005KT 9999 FEW018 27/24 Q1019
FTTD 011000Z 22002KT 9999 SCT040 30/// Q1013
KOLM 011154Z AUTO 19007KT 10SM CLR 16/13 A2995 RMK AO2 SLP138 T01560133 10222 20156 53009 $
LFBE 011230Z AUTO VRB05KT CAVOK 33/15 Q1018 NOSIG
KGLH 011153Z 20007KT 10SM BKN110 26/23 A3011 RMK AO2 SLP202 70007 T02560228 10256 20239 53015
LTFE 011220Z 34011KT 310V010 CAVOK 39/11 Q1002 NOSIG RMK RWY10 02010KT 330V080
KENW 011230Z 26011G20KT 10SM SCT023 25/21 A2979 RMK AO2 T02500211
WBGY 011200Z AUTO 00000KT //// // ////// 27/26 Q1006
KEGV 011215Z AUTO 29007KT 10SM OVC010 19/19 A2974 RMK AO2 T01900190
CWJH 011100Z AUTO 23001KT 05/05 RMK AO1 SLP146 T00500048 53004
KCNO 011153Z AUTO 00000KT 10SM CLR 22/13 A3001 RMK AO2 SLP154 60000 T02220133 10250 20211 58009
KBLU 011152Z AUTO 15006KT 10SM SCT110 19/09 A3024 RMK AO2 SLP137 T01940094 10217 20194 55002 $
KONA 011215Z AUTO 30006KT 10SM SCT025 20/18 A2984 RMK AO2
LIBC 011150Z 01014KT 330V050 CAVOK 32/11 Q1012
KAVC 011215Z AUTO 22005KT 10SM CLR 24/22 A3011 RMK AO2 T02360224
MMML 010747Z 07007KT 10SM FEW200 28/23 A2992 RMK 8/008
K4R5 011235Z AUTO 29011G16KT 10SM SCT013 OVC025 18/16 A2976 RMK AO2 T01810162
MDCY 011200Z 00000KT 9999 BKN016 27/26 Q1018
YMHU 011230Z AUTO 36004KT 9999 // NCD 23/09 Q1013
CWIG 011200Z AUTO 21013G18KT RMK AO1 PK WND 22020/1138
EGJJ 011220Z 26011KT 230V300 9999 SCT008 BKN022 20/17 Q1021
KVIS 011156Z AUTO 00000KT 10SM CLR 24/19 A2996 RMK AO2 SLP148 T02440189 10289 20244 53006
KAWM 010453Z AUTO 17004KT 10SM CLR 23/22 A3006 RMK AO2 SLP175 T02330222
LEGE 011200Z 19013KT 160V220 9999 SCT040 35/15 Q1016
LFLV 011230Z AUTO 28006KT 220V350 CAVOK 31/12 Q1018
YOLW 011230Z AUTO 35013KT 8000 SHRA SCT054 SCT074 BKN097 22/22 Q1010
CXBO 011200Z AUTO 25004KT 21/17 RMK AO1 T02080171
CWMZ 011200Z AUTO 24016KT 20/18 RMK AO1 PK WND 24019/1153 SLP109 T02040177
LGSK 011150Z 34007KT 9999 FEW018 30/19 Q1010
GQPP 011200Z 05010KT 8000 NSC 28/22 Q1014 NOSIG
UHBB 011200Z 16002MPS 9999 FEW033CB 23/22 Q1003 R18/090060 NOSIG RMK QFE737/0983
CXAG 011200Z AUTO 13005KT 11/11 RMK AO1 T01120110
GMMC 011200Z 36006KT 8000 NSC 29/22 Q1013
KLXY 011215Z AUTO 17003KT 10SM CLR 24/21 A3009 RMK AO2 T02420213
PAGK 011153Z AUTO 19005KT 10SM CLR 12/10 A2995 RMK AO2 SLP137 70001 T01170100 10183 20111 58002 TSNO $
KHMP 011215Z AUTO 24004KT 10SM CLR 22/21 A3023 RMK AO2 T02180211
KJSV 011215Z AUTO 08005KT 5SM -RA CLR 23/22 A3005 RMK AO2 TSNO
KAGI 011215Z AUTO 16009KT 10SM CLR 28/23 A3010 RMK AO2 LTG DSNT E T02820227
KPTT 011215Z AUTO 16005KT 10SM CLR 22/22 A3001 RMK AO2 T02230220
SBSN 011200Z 11008KT 9999 SCT015 SCT100 28/25 Q1013
CTCK 011200Z AUTO 18004KT 20/18 RMK AO1 SLP125 T01950178 58009
KDKK 011153Z AUTO 19010KT 10SM FEW050 22/17 A2996 RMK AO2 SLP141 T02170167 10217 20206 58005 $
WBKT 011200Z VRB05KT 9999 FEW014 29/25 Q1008
CYJF 272200Z 03008KT 15SM FEW120 FEW240 25/10 A3003 RMK AC1CI1 CI TR FU/LAST STFD OBS/NXT 011400Z SLP172 DENSITY ALT 1900FT
KBPC 011215Z AUTO 24008KT 10SM CLR 24/12 A3004 RMK AO2
KTVR 011153Z AUTO 18003KT 10SM CLR 23/22 A3013 RMK AO2 SLP207 T02330222 10250 20228 53007 $
GCXO 011230Z 28014KT 9999 3000NW FEW002 22/18 Q1018 NOSIG
GMMB 011200Z 33009KT 290V020 CAVOK 34/21 Q1014 NOSIG
KSEG 011153Z AUTO 03003KT 10SM OVC010 19/18 A3002 RMK AO2 SLP164 60000 70012 T01940183 10200 20183 50001 $
DAOY 011200Z 31008KT 8000 FEW030 SCT233 34/01 Q1022
ZLLL 011200Z 13003MPS 9999 FEW046 25/16 Q1011 NOSIG
LYTV 011230Z VRB05KT CAVOK 32/10 Q1011 NOSIG
KPMH 011215Z AUTO 00000KT 1 3/4SM BR OVC003 22/20 A3005 RMK AO2 T02150196
KFOT 011215Z AUTO 36004KT 3SM OVC003 13/13 A3001 RMK AO1
SKVP 011200Z 07008KT 9999 FEW010 BKN200 27/21 Q1012 RMK A2991
KMBL 011156Z AUTO 21004KT 10SM BKN017 OVC090 22/21 A2973 RMK AO2 LTG DSNT NE RAE05 SLP063 P0000 60000 T02220206 10222 20200 56015
ENAT 011220Z 30010KT CAVOK 18/11 Q1010 RMK WIND 700FT 30006KT
LESU 011200Z 20008KT 170V250 9999 FEW060 31/16 Q1020
KM40 011215Z AUTO 00000KT 7SM OVC110 24/24 A3017 RMK AO2
SCAS 291900Z 28007KT 9999 SCT040 11/06 Q1016
YCFL 011230Z AUTO 15012KT //// // ////// 23/22 Q1014
YGLB 011230Z AUTO 34001KT 9999 // NCD 00/M00 Q1018
KVCV 011215Z AUTO 14005KT 10SM CLR 23/20 A3012 RMK AO2
KCCR 011153Z AUTO 27007KT 10SM CLR 17/13 A3000 RMK AO2 SLP144 T01720133 10194 20172 53004
LDRI 011230Z 23005KT 160V290 9999 FEW050 31/13 Q1014
VTSE 011100Z 21005KT 210V290 9999 SCT020 29/25 Q1005 NOSIG
KULM 011215Z AUTO 31008KT 10SM CLR 17/14 A2992 RMK AO2
MMUN 011140Z 00000KT 7SM FEW015 27/25 A3006 RMK SLP180 52001 905 8/100
KSTP 011226Z 31007KT 10SM OVC028 20/16 A2987 RMK AO2 T02000156
EGPH 011150Z 24010KT 210V290 9999 SCT037 18/07 Q1015
K2J9 011235Z AUTO 00000KT 10SM FEW060 25/23 A3021 RMK AO2
CYZY 011200Z AUTO 17002KT 9SM SCT091 SCT110 OVC140 16/14 A2978 RMK SLP086 DENSITY ALT 3100FT
YPKU 011230Z AUTO 02004KT 9999 // NCD 20/13 Q1012
LWOH 011230Z 34008KT 9999 FEW040 29/01 Q1014
KUTS 011153Z AUTO 00000KT 10SM CLR 26/23 A3009 RMK AO2 SLP182 T02560228 10294 20256 53004
KRIV 011158Z AUTO 29004KT 10SM FEW110 23/10 A3002 RMK AO2 SLP149 T02330103 10258 20233 57014
LIPB 011150Z VRB03KT 9999 FEW080 33/13 Q1014
KOCH 011156Z AUTO 00000KT 10SM CLR 23/23 A3010 RMK AO2 SLP192 T02330228 10278 20233 53004
CYQQ 011200Z 33006KT 20SM BKN250 18/14 A2989 RMK CI5 SLP121
PTYA 011150Z VRB04KT 12SM FEW016CB BKN130 OVC300 26/25 A2986 RMK SHRAB22E33 CB NW SLP112 60028 70049 8/378 T02570250 10281 20254 52019
HKLU 011200Z 18006KT 9999 SCT027 28/20
UWGG 011200Z 02003MPS 340V070 9999 SCT040 24/11 Q1018 R36R/090070 NOSIG
ZJSY 011200Z 12003MPS 100V160 9999 FEW033 30/24 Q1004 NOSIG
KGNR 011156Z AUTO 00000KT 21/15 A2998 RMK AO1 SLP148 T02060150 10206 20172 58007
PADL 011219Z AUTO VRB05KT 10SM BKN006 OVC015 11/11 A2977 RMK AO2 RAB01E17 CIG 003V008 P0000
MMGM 010143Z 27009KT 10SM FEW080 SCT200 31/25 A2987 RMK 8/032
KRAS 011215Z AUTO 17007KT 10SM SCT020 28/24 A3007 RMK AO2 T02800241
YAYT 011000Z 32006G10KT 9999 FEW045 41/06 Q1004
KVKS 011215Z AUTO 18005KT 10SM CLR 25/25 A3012 RMK A01
RPLC 011200Z 04004KT 6000 SCT020 OVC100 26/24 Q1011 NOSIG RMK A2985
FNKU 010600Z 00000KT CAVOK 15/13 Q1020
KPHD 011203Z AUTO 17003KT 4SM BR OVC003 19/18 A3002 RMK AO2 T01890183
KDAN 011153Z AUTO 22003KT 10SM SCT100 24/22 A3006 RMK AO2 SLP169 60000 70008 T02390222 10239 20228 53009
KUMP 011215Z AUTO 21007KT 5SM OVC009 24/23 A2996 RMK AO2 T02360230
PAII 011229Z AUTO 27013KT 10SM FEW009 BKN026 OVC050 11/11 A2987 RMK AO2
ESPE 011220Z AUTO 12011KT 9999 SCT033/// BKN039/// 21/15 Q1009
KWRL 011153Z AUTO 21003KT 10SM CLR 14/04 A3003 RMK AO2 SLP122 T01440039 10244 20139 53004
KSGT 011156Z AUTO 19007KT 10SM OVC100 24/23 A3010 RMK AO2 SLP190 70081 T02440228 10244 20239 53010
LFRC 011230Z AUTO 30009KT 260V330 CAVOK 21/14 Q1020 NOSIG
KY31 011215Z AUTO 00000KT 10SM SCT032 SCT041 BKN070 18/16 A2981 RMK AO2 T01820157
LGSM 011150Z 34012G22KT 310V030 CAVOK 34/17 Q1005
CYHA 011200Z 29012KT 15SM FEW029 FEW067 FEW200 FEW230 09/06 A2970 RMK CU1AC2CI1CC1 CU TR CI TR CC TR SLP059
CXBW 011200Z AUTO 32007KT 15/15 RMK AO1 T01480147
KJBR 011224Z AUTO 20004KT 4SM BR OVC002 23/23 A3008 RMK AO2 T02330233 $
K3T5 011215Z AUTO 00000KT 10SM CLR 23/22 A3006 RMK AO2 T02320220
KOVE 011153Z AUTO 18004KT 10SM CLR 23/15 A2998 RMK AO2 SLP151 T02280150 10261 20228 53009 $
YTGM 011230Z AUTO 14005KT 9999 // NCD 14/01 Q1019
LICF 011155Z 01003G13KT 9999 FEW030TCU 31/15 Q1013 RMK SCT QUK 2 QUL 0 VIS MAR 20 KM MON CIME INC NC VIS MIN 9999
FNHU 010600Z VRB02KT 5000 BR NSC 11/05 Q1023
CWDC 011200Z AUTO 06004KT 10/07 RMK AO1 SLP144 T00950073 57004
LIPO 011220Z AUTO 19006KT 150V260 9999 NCD 33/14 Q1013
KVAY 011227Z AUTO 03003KT 2SM BR OVC007 22/20 A2999 RMK AO2 CIG 005V009 T02170200
LFBO 011230Z AUTO 36009KT 300V050 CAVOK 32/15 Q1018 NOSIG
CYAT 011220Z AUTO 04007KT 9SM OVC025 12/09 A2974 RMK SLP072
KWST 011153Z AUTO 00000KT 10SM FEW039 FEW065 BKN085 22/19 A3004 RMK AO2 RAB13E37 SLP172 P0000 60018 70018 T02170194 10233 20200 55007
KGKY 011153Z 17008G17KT 10SM CLR 28/21 A3006 RMK AO2 SLP166 T02780206 10322 20278 53010
KTRK 011219Z AUTO 00000KT 10SM BKN100 14/11 A3028 RMK AO2
SBSP 011200Z 04004KT 010V090 4000 BR SCT002 BKN006 14/13 Q1022
SKSM 011200Z VRB02KT 9999 SCT020 SCT200 28/23 Q1012 RMK A2988
TJNR 011153Z AUTO 05008KT 8SM FEW020 OVC046 29/26 A3009 RMK AO2 SLP187 60000 T02890261 10294 20283 53008
LTAE 011150Z VRB05KT 9999 SCT040 32/13 Q1009 NOSIG RMK RWY21 VRB03KT
SBUA 011200Z VRB02KT 7000 NSC 25/24 Q1013
KP58 011155Z AUTO VRB05KT 22/17 A2982 RMK AO1 SLP090 T02170172 10222 20200 56014
YSDU 011230Z AUTO 08004KT 9999 // NCD 03/02 Q1020
LDPL 011230Z 24008KT 200V270 9999 FEW050 32/14 Q1014 NOSIG
KEBG 011215Z AUTO 06004KT 10SM SCT021 24/23 A3005 RMK AO2 T02360230 PWINO
YWUD 011230Z AUTO 03007KT //// // ////// 07/02 Q1015
LGKO 011220Z 33017G27KT CAVOK 32/18 Q1004
KEKX 011215Z AUTO 23008KT 10SM OVC008 23/23 A3008 RMK AO2 T02270225
PHHI 011225Z AUTO 00000KT 10SM -RA FEW006 BKN016 OVC021 21/17 A3010 RMK AO2 DZB05E21RAB25 CIG 016V020 SLP182 $
CYVO 011200Z 18010KT 15SM FEW060 BKN084 BKN260 18/14 A2979 RMK SC1AC5CI1 CI TR SLP091 DENSITY ALT 1900FT
VADN 020730Z 28005KT 3500 DZ FEW008 SCT018 FEW025CB OVC080 26/26 Q1001 NOSIG
KDLO 011215Z AUTO 00000KT 10SM SCT120 24/15 A2995 RMK AO2 T02390151
KJCT 011151Z AUTO 00000KT 10SM CLR 24/18 A3012 RMK AO2 SLP157 T02440178 10294 20239 53005
EDDF 011220Z VRB05KT CAVOK 28/14 Q1016 NOSIG
LIRL 011155Z 22010KT 9999 FEW025 35/10 Q1013 RMK FEW MON LIB NC VIS MIN 9999 WIND THR12 /////KT WIND THR30 24011KT BLU
KVCB 011153Z AUTO 24006KT 10SM CLR 19/14 A2996 RMK AO2 SLP144 T01890139 10222 20189 51012
KANJ 011155Z AUTO 00000KT 10SM FEW024 BKN070 OVC085 19/15 A2969 RMK AO2 LTG DSNT NE RAE1056 SLP048 P0000 60003 70003 T01890150 10194 20172 56009
KI63 011215Z AUTO 16005KT 10SM SCT017 BKN026 OVC045 23/23 A2995 RMK AO2 T02310231
PAIM 011155Z AUTO VRB03KT 10SM OVC075 09/08 A2986 RMK AO2 SLP112 T00910079 10137 20094 57010
FABL 011200Z 02006KT CAVOK 21/03 Q1027 NOSIG
KORD 011151Z 22009KT 10SM FEW017 SCT045 BKN100 BKN250 22/21 A2980 RMK AO2 RAE1054 SLP085 P0000 60000 T02220206 10239 20222 55016 $
LESO 011200Z 02005KT 320V070 9999 BKN020 BKN031 24/19 Q1020
KMTK 011215Z AUTO 15012KT 10SM FEW026 30/24 A3012 RMK A01
KBKS 011215Z AUTO 00000KT 4SM BR CLR 23/23 A3004 RMK AO2 SLP132 T02290227 $
KEPH 011153Z AUTO 29008KT 10SM CLR 29/03 A2981 RMK AO2 SLP081 T02890033 10333 20267 53001
YCMT 011230Z AUTO 15003KT 9999 // NCD 17/11 Q1019
KBLH 011152Z AUTO 10004KT 10SM CLR 29/19 A2993 RMK AO2 SLP129 T02940194 10339 20294 55000 TSNO
UUDD 011200Z 16003MPS 120V200 CAVOK 25/08 Q1018 R88/60D NOSIG
KCFD 011215Z AUTO 00000KT 10SM CLR 24/23 A3010 RMK AO2 T02400229
SBAT 011200Z 26002KT 5000 FU NSC 26/18 Q1015
KRBL 011154Z AUTO 18003KT 10SM CLR 25/16 A2996 RMK AO2 SLP141 T02500161 10278 20250 50002 $
LTAG 011220Z 19006KT 9999 SCT035 33/24 Q1001 NOSIG RMK 3CU035
CWRO 011200Z AUTO 29016G21KT 14/ RMK AO1 PK WND 29022/1114 SLP172 T0141 56001
KSLB 011215Z AUTO 24006KT 3SM BR CLR 16/16 A2998 RMK AO2
YSCO 011230Z AUTO 31005KT 9999 // NCD 08/08 Q1019
MPBO 011200Z 25004KT 9999 SCT016 BKN090 25/24 Q1011
LDSP 011230Z 23010KT 9999 SCT060 31/15 Q1012 NOSIG
KASD 011153Z AUTO 00000KT 10SM CLR 24/23 A3013 RMK AO2 SLP201 T02440228 10272 20239 53007 TSNO
KECP 011153Z 00000KT 10SM CLR 24/24 A3016 RMK AO1 SLP222 60000 T02440239 10244 20228 53012
KUNV 011153Z 00000KT 2SM BR SCT002 BKN008 OVC035 19/19 A3004
SKRH 011200Z 09015KT 9999 SCT016 28/22 Q1012 RMK A2989
RJSO 010651Z VRB01KT 8000 -SHRA FEW005 BKN008 BKN015 22/22 Q1013 RMK 1ST005 5ST008 7CU015 A2994
CWPZ 011200Z AUTO 00000KT 08/07 RMK AO1 SLP118 T00810073 50001
YNSM 011230Z AUTO 35014KT //// // ////// 14/11 Q0998
SBUG 211600Z 35008KT 320V020 CAVOK 26/19 Q1011
WBKK 011200Z 11005KT 080V140 9999 FEW014 26/25 Q1008 NOSIG
SLRY 011200Z 00000KT 9999 BKN020 FEW023CB 22/21 Q1013
PACV 011225Z 11003KT 1 1/4SM BR OVC002 12/11 A3002 RMK AO2 T01170111
KIMM 011215Z AUTO 00000KT 10SM CLR 28/26 A3016 RMK AO2
OJAM 011200Z 29009KT 6000 NSC 32/13 Q1008 NOSIG
CYYT 011200Z 29014G22KT 15SM FEW240 20/15 A2993 RMK CI1 SLP139 DENSITY ALT 1200FT
VTSB 011200Z 21005KT 9999 FEW020 25/25 Q1006 NOSIG
K24J 011215Z AUTO 00000KT 10SM CLR 24/24 A3019 RMK A01
KRAP 011152Z 00000KT 10SM CLR 17/11 A2997 RMK AO2 SLP119 T01670111 10206 20144 56017
KPTK 011153Z 19005KT 10SM FEW040 FEW070 FEW210 21/17 A2988 RMK AO2 SLP109 T02110172 10211 20194 58018
ANYN 010500Z 09007KT 9999 FEW020 30/24 Q1007
KHKY 011153Z 00000KT 10SM FEW110 24/22 A3011 RMK AO2 SLP172 70001 T02390222 10239 20228 51006
KVEL 011153Z AUTO 27003KT 10SM CLR 19/08 A3020 RMK AO2 SLP148 T01890083 10244 20178 53004
KFPK 011215Z AUTO 20011KT 10SM OVC009 21/19 A2985 RMK AO2 T02060187
KIIY 011215Z AUTO 25005KT 10SM CLR 24/22 A3017 RMK AO2 T02450216
KW78 312335Z AUTO 00000KT 1 1/4SM BKN008 BKN028 OVC055 25/24 A3010 RMK AO1 P0022 T02500235
KRHP 281935Z AUTO 27008KT 10SM SCT040 BKN050 BKN110 31/21 A3007 RMK AO2 T03130212
KMCD 011215Z AUTO 18007KT 10SM SCT028 BKN070 OVC085 20/17 A2970 RMK AO2 T02040167
K2WX 011156Z AUTO 17004KT 18/11 A2991 RMK AO1 SLP102 T01780111 10200 20172 56015 $
LTAN 011150Z 06008KT 360V100 9999 FEW040 32/11 Q1010 NOSIG
KQEX 011230Z AUTO 18006G12KT 9999 CLR 27/24 A2969 RMK A02 TSNO
CZSP 011200Z AUTO 20009KT 23/18 RMK AO1 SLP150 T02310180 55000
MGES 011200Z 00000KT 9999 OVC014 21/20 QFE 910.7 PCPN NE/ENE/E
KWWR 011215Z AUTO 18012KT 10SM BKN120 26/14 A3001 RMK AO2
OKAS 011155Z COR 11016G20KT 8000 BLDU FEW180 44/24 A2947 RMK SLPNO ALSTG ESTMD COR 1200
KEOE 011235Z AUTO 24005KT 10SM CLR 25/23 A3018 RMK AO2
SBCB 011200Z 07014KT CAVOK 22/17 Q1020
K46D 011215Z AUTO 27006KT 10SM FEW120 15/14 A3001 RMK AO2
OIMM 011200Z 34012KT 9999 FEW035 FEW040CB SCT110 30/16 Q1009 A2982
K18A 011215Z AUTO 23004KT 10SM CLR 24/22 A3017 RMK AO2 T02440223
CWWF 011000Z AUTO 17006KT 17/15 RMK AO1 0PAST HR 8028 SLP114 P0008 T01690154 50169
KGGE 011235Z AUTO 23008KT 10SM CLR 27/23 A3016 RMK AO2
SBSJ 011200Z 04004KT 340V090 1500 R34/P2000 R16/P2000 BR OVC003 13/12 Q1021
YSRN 011230Z AUTO 27017KT 9999 -SHRA SCT031 BKN048 OVC084 10/06 Q1002
VIDP 011230Z 25006KT 5000 HZ SCT035 FEW040CB BKN100 32/25 Q1000 NOSIG
VTPP 011200Z 00000KT CAVOK 29/25 Q1003 NOSIG
KM75 011215Z AUTO 26008KT 10SM CLR 16/09 A2978 RMK A01
EGQM 011150Z AUTO 25012KT 9999 FEW047/// 20/08 Q1016
KHPT 011215Z AUTO 28008KT 10SM CLR 18/17 A2993 RMK AO2
RJOC 011100Z 16006KT 120V190 9999 FEW050 SCT/// 32/23 Q1010
KBMT 011210Z AUTO 00000KT 10SM CLR 26/25 A3008 RMK AO2 T02560247
MMMV 011205Z RTD 00000KT 10SM SKC 24/12 A3006 RMK RTS
KAGS 011153Z 00000KT 10SM CLR 23/21 A3015 RMK AO2 SLP208 T02330211 10233 20206 53012
KBGR 011153Z 21003KT 10SM SCT060 BKN080 BKN200 21/17 A2998 RMK AO2 SLP148 T02060172 10206 20172 58002
RJOA 011200Z 27002KT CAVOK 26/23 Q1015
MGHT 011200Z 27006KT 9999 BKN018 15/14 MTN N/NE/NW CUB/CL
CYYZ 011200Z 17005KT 150V220 15SM FEW065 FEW080 21/19 A2991 RMK CU2AC1 AC TR SLP128 DENSITY ALT 1400FT
KFNT 011153Z 20007KT 10SM SCT065 22/18 A2986 RMK AO2 SLP108 T02170178 10217 20189 56013
CXTO 011200Z AUTO 21/18 RMK AO1 SLP129 T02110183 58008
KDUA 011215Z AUTO 21007KT 10SM OVC120 29/16 A3008 RMK AO2
KSLK 011151Z AUTO 20003KT 10SM CLR 17/16 A3001 RMK AO2 SLP155 T01720161 10172 20094 57004
KP08 180245Z AUTO 20019G28KT 10SM VCTS FEW039 SCT065 BKN085 31/20 A2982 RMK AO2 LTG DSNT ALQDS
K24A 011215Z AUTO 00000KT 3/4SM BR BKN025 OVC032 20/20 A3026 RMK AO2 VIS 1/4V5 T01980196
EGVA 011156Z AUTO 22006KT 9999 CLR 23/11 A3007 RMK AO2 SLP183 60000 70001 T02340108 10234 20155 57007 $
LFRI 011230Z AUTO 34005KT 270V030 CAVOK 27/16 Q1020 NOSIG
EGSS 011220Z AUTO 20005KT 110V250 9999 SCT035 BKN045 23/14 Q1019
K9S5 011155Z AUTO 00000KT 10SM 11/06 A3005 RMK Three Forks
CWNK 011200Z AUTO 25004KT 14/13 RMK AO1 SLP127 T01400130 55000
KBNO 011153Z AUTO 26006KT 10SM CLR 23/05 A3006 RMK AO2 SLP121 T02330050 10300 20222 55006
EFIV 011220Z AUTO 21006KT 9999 SCT030 18/11 Q1011
CXKI 011200Z AUTO 18/15 RMK AO1 SLP069 T01800147 57015
VOCP 011100Z 26002KT 6000 FEW020 35/22 Q1000 NOSIG
DTTB 011200Z 34011KT 290V350 9999 SCT020 34/19 Q1013
YMML 011230Z 36012KT 9999 FEW029 SCT090 BKN230 11/07 Q1014
LIRV 011155Z 04008KT CAVOK 34/12 Q1016 RMK SKC MON E SE LIB NC VIS MIN 9999 WIND THR04 /////KT BLU
OOSH 011150Z AUTO 25010KT //// ////// 40/20 Q0998 RMK 0995
K2DP 011156Z AUTO 23008KT 10SM FEW190 26/26 A3004 RMK AO2 SLPNO 70004 T02640264 10266 20251 51005 $
PAMO 111856Z AUTO 32005KT 10SM CLR 16/14 A2989 RMK AO2 SLP123 T01610139
KO05 011215Z AUTO 33003KT 10SM SCT055 BKN065 17/09 A3019 RMK A01
K63S 011215Z AUTO 00000KT 10SM FEW090 FEW120 10/04 A2989 RMK A01
SGPJ 010900Z 03010KT CAVOK 21/10 Q1014
RPVK 201200Z 25004KT 9999 FEW015CB 28/25 Q1009 RMK A2980
LFYR 011230Z AUTO 32004KT 220V360 CAVOK 28/16 Q1019 NOSIG
KTCY 011215Z AUTO 00000KT 10SM CLR 20/15 A2996 RMK A01
CYEV 011200Z 30006KT 3/8SM R06/4000V6000FT/D FG VV001 08/08 A2997 RMK FG8 SLP155
GECE 011200Z AUTO 10008KT 030V150 9999 BKN027/// BKN035/// 28/23 Q1016
KAEL 011215Z AUTO 31005KT 10SM CLR 18/17 A2991 RMK AO2
EGOP 011150Z 20011KT 9999 FEW024 SCT031 20/16 Q1019 BLU
KLCQ 011215Z AUTO 00000KT 10SM CLR 25/23 A3019 RMK AO2
KOMN 011150Z 00000KT 7SM CLR 24/23 A3020
KCAD 011215Z AUTO 17003KT 7SM RA OVC011 20/18 A2975 RMK AO2 T02010180
MMCN 010142Z 25005KT 10SM FEW100 BKN200 29/20 A2989 RMK 8/038 ISOL CU
KTTD 011153Z AUTO 20005KT 10SM CLR 23/17 A2994 RMK AO2 SLP138 T02280167 10261 20211 51012 $